,Name,ID,State,Network,County,Elevation_feet,Latitude,Longitude
0,Adamsville,DADV,DE,DEOS,Kent,43,38.833,-75.683
1,Atglen,DWHW,DE,DEOS,Chester,663,39.917,-75.983
2,Bethany_Beach,DBNG,DE,DEOS,Sussex,7,38.55,-75.067
3,Blackbird,DBKB,DE,DEOS,New_Castle,41,39.383,-75.633
4,Blackiston,DBLK,DE,DEOS,Kent,56,39.233,-75.733
5,Bridgeville,DBRG,DE,DEOS,Sussex,36,38.717,-75.583
6,Chester_Springs,DWPK,DE,DEOS,Chester,354,40.083,-75.617
7,Claymont,DCLY,DE,DEOS,New_Castle,102,39.817,-75.45
8,Dagsboro,DDAG,DE,DEOS,Sussex,23,38.55,-75.233
9,Dover,DPAR,DE,DEOS,Kent,36,39.15,-75.5
10,Ellendale,DELN,DE,DEOS,Sussex,49,38.8,-75.433
11,Fair_Hill,DFHM,DE,DEOS,Chester,150,39.717,-75.833
12,Georgetown,DGES,DE,DEOS,Sussex,45,38.633,-75.45
13,Glasgow,DGLW,DE,DEOS,New_Castle,63,39.6,-75.733
14,Glenmoore,DSGM,DE,DEOS,Chester,620,40.067,-75.783
15,Greenville,DGRN,DE,DEOS,New_Castle,427,39.8,-75.6
16,Gumboro,DGUM,DE,DEOS,Sussex,43,38.483,-75.367
17,Harbeson,DWAR,DE,DEOS,Sussex,33,38.683,-75.25
18,Harrington,DHAR,DE,DEOS,Kent,55,38.917,-75.583
19,Hockessin,DHOC,DE,DEOS,New_Castle,253,39.783,-75.7
20,Hockessin,DMTC,DE,DEOS,New_Castle,294,39.783,-75.65
21,Jones_Crossroads,DJCR,DE,DEOS,Sussex,61,38.6,-75.433
22,Kennett_Square,DBUK1,DE,DEOS,Chester,347,39.817,-75.733
23,Kennett_Square,DLWG,DE,DEOS,Chester,460,39.867,-75.683
24,Kitts_Hummock,DSJR,DE,DEOS,Kent,8,39.083,-75.433
25,Laurel,DLAU,DE,DEOS,Sussex,29,38.533,-75.6
26,Long_Neck,DLNK,DE,DEOS,Sussex,10,38.617,-75.117
27,Marshallton,DWBD,DE,DEOS,Chester,335,39.95,-75.717
28,Milford,DMIL,DE,DEOS,Sussex,40,38.883,-75.433
29,Newark,DAGF,DE,DEOS,New_Castle,106,39.667,-75.75
30,Nottingham,DNOT,DE,DEOS,Chester,440,39.75,-76.05
31,Sandtown,DSND,DE,DEOS,Kent,55,39.033,-75.733
32,Seaford,DSEA,DE,DEOS,Sussex,43,38.65,-75.7
33,Smyrna,DSMY,DE,DEOS,Kent,21,39.283,-75.583
34,Stockley,DSTK,DE,DEOS,Sussex,31,38.633,-75.317
35,Townsend,DTOW,DE,DEOS,New_Castle,69,39.383,-75.75
36,Warwick,DWWK,DE,DEOS,Chester,407,40.167,-75.733
37,West_Chester,DWCH,DE,DEOS,Chester,417,39.967,-75.583
38,West_Grove,DSCR,DE,DEOS,Chester,648,39.867,-75.85
39,White_Clay_Creek,DWCC,DE,DEOS,New_Castle,279,39.733,-75.733
40,Wilmington,DCHI,DE,DEOS,New_Castle,9,39.733,-75.517
41,Woodside,DWDS,DE,DEOS,Kent,46,39.067,-75.633
42,Belleville,FRM,IL,ICN,St._Clair,436,38.518,-89.842
43,Big_Bend,BBC,IL,ICN,Whiteside,597,41.634,-90.039
44,Bondville,BVL,IL,ICN,Champaign,699,40.053,-88.372
45,Brownstown,BRW,IL,ICN,Fayette,581,38.949,-88.96
46,Carbondale,SIU,IL,ICN,Jackson,449,37.7,-89.244
47,Champaign,CMI,IL,ICN,Champaign,719,40.084,-88.24
48,DeKalb,DEK,IL,ICN,DeKalb,869,41.842,-88.851
49,Dixon_Springs,DXS,IL,ICN,Pope,541,37.437,-88.667
50,Fairfield,FAI,IL,ICN,Wayne,446,38.382,-88.39
51,Freeport,FRE,IL,ICN,Stephenson,869,42.28,-89.673
52,Monmouth,MON,IL,ICN,Warren,751,40.933,-90.724
53,Olney,OLN,IL,ICN,Richland,440,38.738,-88.103
54,Peoria,ICC,IL,ICN,Tazewell,679,40.709,-89.511
55,Perry,ORR,IL,ICN,Pike,676,39.806,-90.824
56,Rend_Lake,RND,IL,ICN,Jefferson,427,38.136,-88.923
57,Snicarte,SNI,IL,ICN,Mason,466,40.106,-90.182
58,Springfield,LLC,IL,ICN,Sangamon,581,39.727,-89.611
59,St._Charles,STC,IL,ICN,Kane,741,41.905,-88.361
60,Stelle,STE,IL,ICN,Ford,692,40.95,-88.159
61,Adel,REFI4,IA,IEM,Dallas,942,41.59,-94.13
62,Ames_ISU_AEA_AgFarm,BOOI4,IA,IEM,Boone,1099,42.02,-93.77
63,Ames_ISU_Hort_Farm,AEEI4,IA,IEM,Story,991,42.11,-93.58
64,Ames_ISU_Hort_Farm_(Vineyard),AHTI4,IA,IEM,Story,1004,42.11,-93.59
65,Bankston_-_Park_Farm_Winery_(Vineyard),BNKI4,IA,IEM,Dubuque,1006,42.52,-90.91
66,Calumet,CAMI4,IA,IEM,Obrien,1434,42.93,-95.54
67,Castana,CNAI4,IA,IEM,Monona,1384,42.06,-95.83
68,CEA_Site_near_Ocheyedan,SBEI4,IA,IEM,Osceola,1565,43.37,-95.64
69,Cedar_Rapids,CIRI4,IA,IEM,Linn,769,41.91,-91.62
70,Chariton,CHAI4,IA,IEM,Lucas,1058,40.97,-93.42
71,Crawfordsville,CRFI4,IA,IEM,Louisa,724,41.19,-91.48
72,Doon,DONI4,IA,IEM,Lyon,1355,43.3,-96.19
73,Glenwood_-_Blackwing_Vineyard,GVNI4,IA,IEM,Mills,1205,41.04,-95.77
74,Greenfield,GREI4,IA,IEM,Adair,1360,41.28,-94.45
75,Inwood_-_Calico_Skies_Winery,CSII4,IA,IEM,Lyon,1387,43.31,-96.5
76,Kanawha,KNAI4,IA,IEM,Hancock,1191,42.92,-93.79
77,Lewis,OKLI4,IA,IEM,Pottawattamie,1298,41.31,-95.17
78,Muscatine,FRUI4,IA,IEM,Muscatine,560,41.36,-91.13
79,Nashua,NASI4,IA,IEM,Floyd,1046,42.94,-92.57
80,Newell,NWLI4,IA,IEM,Buena_Vista,1260,42.59,-95.01
81,Oskaloosa_Tassel_Ridge_(Vineyard),OSTI4,IA,IEM,Mahaska,810,41.32,-92.65
82,Wellman,WMNI4,IA,IEM,Washington,804,41.48,-91.87
83,West_Point,WTPI4,IA,IEM,Lee,750,40.76,-91.42
84,Ashland_Bottoms,Ashland_Bottoms,KS,KSRE,Riley,1065,39.126,-96.637
85,Butler,Butler,KS,KSRE,Butler,1315,37.804,-96.883
86,Cairo,Cairo,KS,KSRE,Pratt,1722,37.65,-98.555
87,Cherokee,Cherokee,KS,KSRE,Cherokee,864,37.199,-94.981
88,Cheyenne,Cheyenne,KS,KSRE,Cheyenne,3654,39.633,-101.816
89,Clay,Clay,KS,KSRE,Clay,1274,39.418,-97.14
90,Colby,Colby,KS,KSRE,Thomas,3190,39.392,-101.069
91,Cullison,Cullison,KS,KSRE,Pratt,2037,37.631,-98.905
92,Garden_City,Garden_City,KS,KSRE,Finney,2894,37.993,-100.812
93,Grant,Grant,KS,KSRE,Grant,3065,37.673,-101.372
94,Gray,Gray,KS,KSRE,Gray,2606,37.792,-100.297
95,Great_Bend,Great_Bend,KS,KSRE,Barton,1922,38.364,-98.765
96,Greensburg,Greensburg,KS,KSRE,Kiowa,2235,37.603,-99.293
97,Gypsum,Gypsum,KS,KSRE,Saline,1224,38.725,-97.444
98,Hamilton,Hamilton,KS,KSRE,Hamilton,3241,37.996,-101.865
99,Harper,Harper,KS,KSRE,Harper,1403,37.065,-98.085
100,Harvey,Harvey,KS,KSRE,Harvey,1447,38.141,-97.642
101,Haskell,Haskell,KS,KSRE,Haskell,3067,37.659,-101.027
102,Hays,Hays,KS,KSRE,Ellis,2030,38.849,-99.345
103,Haysville,Haysville,KS,KSRE,Sedgwick,1242,37.52,-97.312
104,Hiawatha,Hiawatha,KS,KSRE,Brown,1012,39.842,-95.482
105,Hill_City,Hill_City,KS,KSRE,Graham,2182,39.372,-99.831
106,Hodgeman,Hodgeman,KS,KSRE,Hodgeman,2349,38.101,-99.902
107,Hutchinson,Hutchinson,KS,KSRE,Reno,1526,37.931,-98.027
108,Hutchinson_10SW,Hutchinson_10SW,KS,KSRE,Reno,1570,37.931,-98.02
109,Jewell,Jewell,KS,KSRE,Jewell,1772,39.683,-98.213
110,La_Crosse,La_Crosse,KS,KSRE,Rush,2053,38.541,-99.281
111,Lake_City,Lake_City,KS,KSRE,Barber,1671,37.309,-98.794
112,Lakin,Lakin,KS,KSRE,Kearny,2995,37.894,-101.233
113,Lane,Lane,KS,KSRE,Lane,2862,38.599,-100.471
114,Leoti,Leoti,KS,KSRE,Wichita,3286,38.483,-101.328
115,Lewis,Lewis,KS,KSRE,Edwards,2717,37.936,-99.253
116,Lorraine,Lorraine,KS,KSRE,Ellsworth,1778,38.558,-98.352
117,Macksville,Macksville,KS,KSRE,Stafford,2035,37.959,-98.969
118,Manhattan,Manhattan,KS,KSRE,Riley,1090,39.209,-96.592
119,McPherson,McPherson,KS,KSRE,McPherson,1480,38.364,-97.7
120,McPherson_1S,McPherson_1S,KS,KSRE,McPherson,1486,38.345,-97.663
121,Meade,Meade,KS,KSRE,Meade,2355,37.135,-100.396
122,Miami,Miami,KS,KSRE,Miami,956,38.592,-94.848
123,Mitchell,Mitchell,KS,KSRE,Mitchell,1487,39.437,-98.21
124,Mobile_Station,Mobile_Station,KS,KSRE,Mobile,2933,37.773,-100.953
125,Ness_City,Ness_City,KS,KSRE,Ness,2224,38.386,-99.856
126,North_Reno,North_Reno,KS,KSRE,Reno,1591,38.122,-98.009
127,Olathe,Olathe,KS,KSRE,Johnson,931,38.883,-94.991
128,Osage,Osage,KS,KSRE,Osage,991,38.697,-95.609
129,Osborne,Osborne,KS,KSRE,Osborne,1608,39.454,-98.703
130,Ottawa_2SE,Ottawa_2SE,KS,KSRE,Franklin,968,38.543,-95.249
131,Overbrook,Overbrook,KS,KSRE,Osage,1115,38.717,-95.516
132,Parsons,Parsons,KS,KSRE,Labette,944,37.369,-95.288
133,Radium,Radium,KS,KSRE,Stafford,1978,38.174,-98.893
134,Richfield,Richfield,KS,KSRE,Morton,3430,37.259,-101.792
135,Rock_Springs,Rock_Springs,KS,KSRE,Dickinson,1201,38.867,-96.903
136,Rocky_Ford,Rocky_Ford,KS,KSRE,Riley,1044,39.232,-96.58
137,Rossville,Rossville,KS,KSRE,Shawnee,907,39.116,-95.926
138,Rozel,Rozel,KS,KSRE,Pawnee,2073,38.196,-99.403
139,Satanta,Satanta,KS,KSRE,Seward,2886,37.305,-100.887
140,Scandia,Scandia,KS,KSRE,Republic,1500,39.829,-97.839
141,Sedan,Sedan,KS,KSRE,Chautauqua,994,37.165,-96.228
142,Sedgwick,Sedgwick,KS,KSRE,Sedgwick,1416,37.89,-97.632
143,Sheridan,Sheridan,KS,KSRE,Sheridan,2897,39.357,-100.61
144,Sherman,Sherman,KS,KSRE,Sherman,3792,39.281,-101.819
145,Silver_Lake,Silver_Lake,KS,KSRE,Shawnee,888,39.078,-95.771
146,South_Reno,South_Reno,KS,KSRE,Reno,1565,37.799,-98.005
147,Spearville,Spearville,KS,KSRE,Ford,2319,37.902,-99.87
148,St_John,St_John,KS,KSRE,Stafford,1925,37.957,-98.748
149,Stafford,Stafford,KS,KSRE,Stafford,1858,37.962,-98.601
150,Stanton,Stanton,KS,KSRE,Stanton,3280,37.614,-101.728
151,Sterling,Sterling,KS,KSRE,Rice,1640,38.21,-98.207
152,Stevens,Stevens,KS,KSRE,Stevens,3108,37.352,-101.355
153,Tribune,Tribune,KS,KSRE,Greeley,3637,38.466,-101.775
154,Tribune_6NE,Tribune_6NE,KS,KSRE,Greeley,3564,38.53,-101.664
155,Viola,Viola,KS,KSRE,Sumner,1357,37.46,-97.625
156,Wallace,Wallace,KS,KSRE,Wallace,3708,38.82,-101.853
157,Washington,Washington,KS,KSRE,Washington,1373,39.782,-97.055
158,Woodson,Woodson,KS,KSRE,Woodson,1109,37.861,-95.784
159,Albany,alb,MO,MoAWD,Gentry,875,40.24,-94.34
160,Columbia-Capen_Park,cap,MO,MoAWD,Boone,597,38.93,-92.32
161,Portageville,pvl,MO,MoAWD,Pemiscot,275,36.41,-89.7
162,Versailles,ver,MO,MoAWD,Morgan,941,38.43,-92.85
163,Bowman,Bowman,ND,NDAWN,Bowman,3032,46.2,-103.47
164,Campbell,Campbell,ND,NDAWN,Campbell,1005,46.06,-96.37
165,Carrington,Carrington,ND,NDAWN,Carrington,1561,47.51,-99.13
166,Fargo,Fargo,ND,NDAWN,Fargo,902,46.9,-96.81
167,Fox,Fox,ND,NDAWN,Fox,1040,48.88,-95.85
168,Grafton,Grafton,ND,NDAWN,Grafton,801,48.41,-97.19
169,Grand_Forks,Grand_Forks,ND,NDAWN,Grand_Forks,846,47.84,-97.07
170,Hillsboro,Hillsboro,ND,NDAWN,Hillsboro,886,47.35,-96.92
171,Langdon,Langdon,ND,NDAWN,Langdon,1616,48.76,-98.34
172,Mavie,Mavie,ND,NDAWN,Mavie,1168,48.12,-95.97
173,Mooreton,Mooreton,ND,NDAWN,Mooreton,985,46.22,-96.89
174,Pekin,Pekin,ND,NDAWN,Pekin,1506,47.81,-98.31
175,Sabin,Sabin,ND,NDAWN,Sabin,919,46.79,-96.61
176,Waukon,Waukon,ND,NDAWN,Waukon,1165,47.33,-96.13
177,Williston,Williston,ND,NDAWN,Williston,2132,48.13,-103.74
178,Alexander,pic,CA,NOAA_HMT,Sonoma,190,38.68,-122.82
179,Alta,ata,CA,NOAA_HMT,Placer,3438,39.2,-120.82
180,Arnold,and,CA,NOAA_HMT,Calaveras,3885,38.24,-120.36
181,Astoria,ast,OR,NOAA_HMT,Clatsop,10,46.16,-123.88
182,Baker_(P618),bkr,CA,NOAA_HMT,San_Bernardino,846,35.14,-116.1
183,Barstow,bsr,CA,NOAA_HMT,San_Bernardino,2116,34.92,-117.01
184,Big_Bend,bbd,CA,NOAA_HMT,Placer,5755,39.31,-120.52
185,Black_Butte_Lake,bbl,CA,NOAA_HMT,Tehama,525,39.81,-122.37
186,Black_Oak,boc,AZ,NOAA_HMT,Santa_Cruz,5138,31.56,-110.54
187,Blue_Canyon,blu,CA,NOAA_HMT,Placer,5262,39.28,-120.71
188,Bodega_Bay,bby,CA,NOAA_HMT,Sonoma,49,38.32,-123.07
189,BodegaHead_(P183),bdh,CA,NOAA_HMT,Sonoma,33,38.31,-123.07
190,Bonneville_Dam,bnv,OR,NOAA_HMT,Multnomah,36,45.64,-121.96
191,Boulder,skg,CO,NOAA_HMT,Boulder,5486,39.99,-105.26
192,Boundary_Air_(P025),bna,ID,NOAA_HMT,Boundary,2283,48.73,-116.29
193,Bridgeville,bve,CA,NOAA_HMT,Humboldt,673,40.47,-123.79
194,Burnt_Ridge_(P188),brg,CA,NOAA_HMT,Sonoma,787,38.67,-123.23
195,Calavera_(P309z),cva,CA,NOAA_HMT,San_Joaquin,135,38.09,-120.95
196,Camino,cmn,CA,NOAA_HMT,El_Dorado,3301,38.74,-120.66
197,CaminoSubs_(P625),cos,CA,NOAA_HMT,San_Bernardino,1991,34.84,-114.97
198,Cazadero,czc,CA,NOAA_HMT,Sonoma,1568,38.61,-123.22
199,CedarCyn_(P298),ccy,CA,NOAA_HMT,Fresno,164,36.02,-120.29
200,Central,ctl,CA,NOAA_HMT,Monterey,4767,36.3,-121.71
201,Chico,cco,CA,NOAA_HMT,Butte,138,39.7,-121.91
202,Clayton,cyn,CA,NOAA_HMT,Contra_Costa,659,37.9,-121.86
203,Cloverdale_-_North,cln,CA,NOAA_HMT,Sonoma,325,38.83,-123.02
204,CoDeTierra_(P177),cdt,CA,NOAA_HMT,San_Mateo,236,37.53,-122.5
205,Colfax,cfc,CA,NOAA_HMT,Placer,2110,39.08,-120.94
206,Colfax,cfx,CA,NOAA_HMT,Placer,2398,39.09,-120.95
207,Colfax(FMCW),cff,CA,NOAA_HMT,Placer,2113,39.08,-120.94
208,Coos_Bay_(P365),csb,OR,NOAA_HMT,Coos,89,43.4,-124.25
209,Corona_(CNPP),cna,CA,NOAA_HMT,Riverside,984,33.86,-117.61
210,CrazyCreek_(P206),cyc,CA,NOAA_HMT,Lake,928,38.78,-122.58
211,Delano_Air_(P565),doa,CA,NOAA_HMT,Kern,207,35.74,-119.24
212,DRI_Reno_(P090),drn,NV,NOAA_HMT,Washoe,5010,39.57,-119.79
213,Dry_Lind_(P020),dyl,WA,NOAA_HMT,Adams,1575,47.0,-118.57
214,Duece_Club_(P015),duc,AZ,NOAA_HMT,Navajo,6332,34.26,-110.01
215,Dungeness_(P436),dgs,WA,NOAA_HMT,Clallam,627,48.05,-123.13
216,El_Centro,elo,CA,NOAA_HMT,Imperial,-20,32.75,-115.6
217,Elgin,elg,AZ,NOAA_HMT,Santa_Cruz,4826,31.59,-110.51
218,Fairbank,fbk,AZ,NOAA_HMT,Cochise,3852,31.72,-110.19
219,Finch_Farms_(P268),ffm,CA,NOAA_HMT,Yolo,23,38.47,-121.65
220,Foot_Hill_(P422),fth,ID,NOAA_HMT,Latah,2769,46.8,-116.98
221,Foresthill,fhl,CA,NOAA_HMT,Placer,3415,39.04,-120.8
222,Forestville,sho,CA,NOAA_HMT,Sonoma,240,38.5,-122.88
223,Forks,fks,WA,NOAA_HMT,Clallam,312,47.97,-124.4
224,Freeman_Springs,fms,AZ,NOAA_HMT,Santa_Cruz,5036,31.57,-110.55
225,Fremont_WAAS,zoa,CA,NOAA_HMT,Alameda,92,37.54,-122.02
226,FT._HUACHUCA,fha,AZ,NOAA_HMT,Cochise,4902,31.49,-110.3
227,Geyserville,hof,CA,NOAA_HMT,Sonoma,217,38.72,-122.91
228,Geyserville_-_Northeast,gsn,CA,NOAA_HMT,Sonoma,223,38.72,-122.9
229,Geyserville_-_West,gsw,CA,NOAA_HMT,Sonoma,190,38.7,-122.97
230,Geyserville-West,gym,CA,NOAA_HMT,Sonoma,259,38.71,-122.95
231,Gilroy,gry,CA,NOAA_HMT,Santa_Clara,896,37.07,-121.48
232,Glamis_Peak_(CMPK),gmp,CA,NOAA_HMT,Imperial,1939,33.05,-114.83
233,Graton_Southeast,gtt,CA,NOAA_HMT,Sonoma,164,38.42,-122.85
234,Graton-South,dut,CA,NOAA_HMT,Sonoma,135,38.41,-122.86
235,Happy_Camp,hcp,CA,NOAA_HMT,Siskiyou,1201,41.79,-123.39
236,Healdsburg,hbg,CA,NOAA_HMT,Sonoma,230,38.65,-122.87
237,Healdsburg_Northeast,hdn,CA,NOAA_HMT,Sonoma,167,38.65,-122.81
238,Healdsburg_South,hds,CA,NOAA_HMT,Sonoma,89,38.59,-122.87
239,High_Vista,hvi,CA,NOAA_HMT,Los_Angeles,3159,34.76,-117.8
240,Hodgdon_Meadow,hdm,CA,NOAA_HMT,Tuolumne,4580,37.8,-119.86
241,HopkinSlgh_(P270),hns,CA,NOAA_HMT,Colusa,-39,39.24,-122.06
242,Hopland,hld,CA,NOAA_HMT,Mendocino,538,39.0,-123.12
243,Hopland,hop,CA,NOAA_HMT,Mendocino,830,39.0,-123.09
244,Hopland_-_North,hln,CA,NOAA_HMT,Mendocino,548,39.06,-123.15
245,Hopland_-_Northeast,hle,CA,NOAA_HMT,Mendocino,551,38.98,-123.09
246,Hornbrook,hbk,CA,NOAA_HMT,Siskiyou,2346,41.9,-122.57
247,Howard_Hanson_Dam,hhd,WA,NOAA_HMT,King,1230,47.28,-121.78
248,Humboldt_(P058),hmb,CA,NOAA_HMT,Humboldt,69,40.88,-124.07
249,Humptulips,hts,WA,NOAA_HMT,Grays_Harbor,2398,47.37,-123.76
250,Huysink,hys,CA,NOAA_HMT,Placer,6608,39.28,-120.53
251,Independence,idp,CA,NOAA_HMT,Inyo,3924,36.8,-118.2
252,Irvine,irv,CA,NOAA_HMT,Orange,400,33.69,-117.73
253,Jacumba_(P066),jcb,CA,NOAA_HMT,San_Diego,2700,32.62,-116.17
254,Kellog,klg,CA,NOAA_HMT,Sonoma,495,38.62,-122.67
255,Kernville,knv,CA,NOAA_HMT,Kern,2677,35.75,-118.42
256,Klamath_(P316),klm,CA,NOAA_HMT,Del_Norte,771,41.56,-124.09
257,La_Grande_(P022),lgr,OR,NOAA_HMT,Union,2913,45.23,-118.01
258,La_Quinta_(P491),lqt,CA,NOAA_HMT,Riverside,13,33.58,-116.23
259,Lacrosse_Drive_(P217),lcd,CA,NOAA_HMT,Santa_Clara,344,37.1,-121.65
260,Lake_Sonoma,lsn,CA,NOAA_HMT,Sonoma,1299,38.72,-123.05
261,LarkinVly_(P212),lnv,CA,NOAA_HMT,Santa_Cruz,118,36.96,-121.86
262,Leesville,lve,CA,NOAA_HMT,Colusa,1430,39.18,-122.44
263,Leggett,leg,CA,NOAA_HMT,Mendocino,896,39.88,-123.72
264,Leggett_(P315),lgt,CA,NOAA_HMT,Mendocino,846,39.86,-123.72
265,Lester,ltr,WA,NOAA_HMT,King,1476,47.21,-121.49
266,Llano_Grand_(P174),log,CA,NOAA_HMT,Monterey,1322,36.3,-121.05
267,Lockwood,lwd,CA,NOAA_HMT,Monterey,974,35.94,-121.11
268,Los_Angeles_WAAS,zla,CA,NOAA_HMT,Los_Angeles,2608,34.6,-118.08
269,Los_Gatos,lgs,CA,NOAA_HMT,Santa_Cruz,2549,37.26,-122.13
270,Los_Osos,lso,CA,NOAA_HMT,San_Luis_Obispo,3527,35.3,-120.86
271,Lytton,rvo,CA,NOAA_HMT,Sonoma,180,38.67,-122.85
272,McCall_Air_(P023),mca,ID,NOAA_HMT,Valley,4993,44.9,-116.1
273,McKinleyville,acv,CA,NOAA_HMT,Humboldt,184,40.97,-124.11
274,MeachumLfl_(P196),mhl,CA,NOAA_HMT,Sonoma,400,38.3,-122.74
275,Mendota_(P304),mta,CA,NOAA_HMT,Fresno,164,36.74,-120.36
276,Middletown,mdt,CA,NOAA_HMT,Sonoma,3189,38.75,-122.71
277,Mills_Creek_(P176),mck,CA,NOAA_HMT,San_Mateo,1529,37.47,-122.36
278,Miramar,mrm,CA,NOAA_HMT,San_Diego,413,32.9,-117.1
279,Montgomery_Creek,mgc,CA,NOAA_HMT,Shasta,3501,40.87,-121.89
280,Montrose_(P029),mnt,CO,NOAA_HMT,Montrose,8058,38.44,-107.64
281,Moreno_Valley,mrv,CA,NOAA_HMT,Riverside,1483,33.87,-117.22
282,Nevada_City,nvc,CA,NOAA_HMT,Nevada,3461,39.39,-120.98
283,New_Exchequer_Dam,ner,CA,NOAA_HMT,Mariposa,850,37.6,-120.28
284,Niland,nld,CA,NOAA_HMT,Imperial,-79,33.42,-115.69
285,Norden,ndn,CA,NOAA_HMT,Nevada,6900,39.33,-120.37
286,North_Bend,oth,OR,NOAA_HMT,Coos,16,43.42,-124.24
287,Occidental,ocl,CA,NOAA_HMT,Sonoma,279,38.38,-122.94
288,Old_Mammoth_(P630),omm,CA,NOAA_HMT,Mono,9072,37.61,-119.0
289,O'Neals,ons,CA,NOAA_HMT,Madera,2244,37.2,-119.57
290,Onion_Creek,ocr,CA,NOAA_HMT,Placer,6188,39.27,-120.36
291,Ontario,ont,CA,NOAA_HMT,San_Bernardino,919,34.06,-117.58
292,Orick,ork,CA,NOAA_HMT,Humboldt,1293,41.22,-124.05
293,Oroville,ove,CA,NOAA_HMT,Butte,184,39.51,-121.63
294,Oroville,ovl,CA,NOAA_HMT,Butte,374,39.53,-121.49
295,Pasadena,jpl,CA,NOAA_HMT,Los_Angeles,1503,34.2,-118.17
296,Paynes_Creek,pck,CA,NOAA_HMT,Tehama,1831,40.33,-121.92
297,Pico_Blanco,pob,CA,NOAA_HMT,Monterey,3310,36.32,-121.81
298,PigeonPt_(P277),pnp,CA,NOAA_HMT,San_Mateo,377,37.19,-122.37
299,Pine_Flat_Dam,pfd,CA,NOAA_HMT,Fresno,604,36.83,-119.33
300,Planada_(P305),pld,CA,NOAA_HMT,Mariposa,420,37.35,-120.2
301,Platteville,pvl,CO,NOAA_HMT,Weld,4931,40.18,-104.73
302,Plymouth,pmh,NH,NOAA_HMT,Grafton,541,43.76,-71.69
303,Point_Arena_(P059),pan,CA,NOAA_HMT,Mendocino,69,38.93,-123.73
304,Point_Loma,ptl,CA,NOAA_HMT,San_Diego,33,32.67,-117.24
305,Point_Sal_(P513),pns,CA,NOAA_HMT,Santa_Barbara,935,34.91,-120.65
306,Point_Sur,pts,CA,NOAA_HMT,Monterey,33,36.3,-121.89
307,Porterville_(P056),prv,CA,NOAA_HMT,Tulare,436,36.03,-119.06
308,Potter_Valley,pov,CA,NOAA_HMT,Mendocino,1001,39.35,-123.14
309,Potter_Valley,ptv,CA,NOAA_HMT,Mendocino,994,39.34,-123.14
310,Potter_Valley_-_Central,pvc,CA,NOAA_HMT,Mendocino,948,39.32,-123.1
311,Potter_Valley_-_West,pvw,CA,NOAA_HMT,Mendocino,1699,39.32,-123.18
312,Redwood_Valley_-_East,rve,CA,NOAA_HMT,Mendocino,1706,39.31,-123.19
313,Redwood_Valley_-_North,rvn,CA,NOAA_HMT,Mendocino,965,39.34,-123.23
314,Redwood_Valley_-_West,rvw,CA,NOAA_HMT,Mendocino,2070,39.3,-123.26
315,Rio_Nido,rod,CA,NOAA_HMT,Sonoma,128,38.51,-122.96
316,Rose_Lodge_(P395),rsl,OR,NOAA_HMT,Lincoln,174,45.02,-123.86
317,Saint_Helena,sth,CA,NOAA_HMT,Napa,443,38.55,-122.49
318,San_Bernardino,sbo,CA,NOAA_HMT,San_Bernardino,1975,34.2,-117.34
319,San_Luis_Reservoir,slr,CA,NOAA_HMT,Merced,266,37.06,-121.07
320,Santa_Barbara,sba,CA,NOAA_HMT,Santa_Barbara,7,34.43,-119.85
321,Santa_Margarita,stm,CA,NOAA_HMT,San_Luis_Obispo,1647,35.38,-120.19
322,Santa_Rosa,str,CA,NOAA_HMT,Sonoma,105,38.52,-122.8
323,Santa_Rosa_-_Northeast,stn,CA,NOAA_HMT,Sonoma,515,38.5,-122.7
324,Santa_Rosa_Northwest,srn,CA,NOAA_HMT,Sonoma,223,38.51,-122.88
325,SantaLucia_(P171),stl,CA,NOAA_HMT,Monterey,1877,36.49,-121.79
326,SDSU_Center_(P499),dsc,CA,NOAA_HMT,Imperial,243,32.98,-115.49
327,Sebastopol,bto,CA,NOAA_HMT,Sonoma,95,38.42,-122.81
328,Shasta_Dam,std,CA,NOAA_HMT,Shasta,663,40.72,-122.43
329,Sibley_Volcano_(P224),svc,CA,NOAA_HMT,Alameda,1440,37.86,-122.22
330,Sisters_HSL_(P387),ssh,OR,NOAA_HMT,Deschutes,3159,44.3,-121.57
331,SJExpRange_(P725),ser,CA,NOAA_HMT,Madera,1184,37.09,-119.75
332,Soledad,sld,CA,NOAA_HMT,Monterey,194,36.46,-121.38
333,Somis_(P729),sms,CA,NOAA_HMT,Ventura,397,34.26,-119.1
334,Spanish_Flat,snf,CA,NOAA_HMT,Napa,702,38.54,-122.23
335,Spider_Rock_(P011),spr,AZ,NOAA_HMT,Apache,5673,36.15,-109.52
336,Springville,spv,CA,NOAA_HMT,Tulare,1476,36.19,-118.8
337,Stafford_CR_(P398),sfr,WA,NOAA_HMT,Grays_Harbor,79,46.93,-123.92
338,SycamorSlg_(P272),srl,CA,NOAA_HMT,Colusa,-39,39.15,-121.94
339,Three_Peaks,tpk,CA,NOAA_HMT,Monterey,3350,35.85,-121.31
340,Troutdale,tde,OR,NOAA_HMT,Multnomah,39,45.55,-122.39
341,Twitchell_Island,tci,CA,NOAA_HMT,Sacramento,0,38.1,-121.65
342,Ukiah_-_East,uke,CA,NOAA_HMT,Mendocino,594,39.15,-123.19
343,Ukiah_North,ukn,CA,NOAA_HMT,Mendocino,659,39.19,-123.21
344,Vidal_Junction_(P623),vdj,CA,NOAA_HMT,San_Bernardino,879,34.19,-114.6
345,Visalia,vis,CA,NOAA_HMT,Tulare,266,36.31,-119.39
346,VNDP_SCGN_(VNDP),vnd,CA,NOAA_HMT,Santa_Barbara,-36,34.56,-120.62
347,Wasco_Airport_(P445),wca,OR,NOAA_HMT,Sherman,1430,45.59,-120.67
348,Weaverville,wvv,CA,NOAA_HMT,Trinity,2136,40.68,-122.83
349,Whetstone,wse,AZ,NOAA_HMT,Cochise,4219,31.69,-110.28
350,Whiteman_Airport_Pacomia,wap,CA,NOAA_HMT,Los_Angeles,984,34.26,-118.41
351,Wild_Creek_(P306),wcc,CA,NOAA_HMT,Stanislaus,371,37.8,-120.64
352,Willits,wls,CA,NOAA_HMT,Mendocino,1949,39.35,-123.32
353,Windsor_-_East,wne,CA,NOAA_HMT,Sonoma,299,38.57,-122.78
354,Wonderland_(P349),wdl,CA,NOAA_HMT,Shasta,902,40.73,-122.32
355,Wrights_Point_(P392),wrp,OR,NOAA_HMT,Harney,4364,43.45,-119.0
356,Addison,ADDI,NY,NYSMesonet,Steuben,1665,42.04,-77.237
357,Andes,ANDE,NY,NYSMesonet,Delaware,1700,42.182,-74.801
358,Ballston_Spa,BSPA,NY,NYSMesonet,Saratoga,395,43.023,-73.875
359,Batavia,BATA,NY,NYSMesonet,Genesee,906,43.02,-78.136
360,Beacon,BEAC,NY,NYSMesonet,Dutchess,296,41.529,-73.945
361,Belden,BELD,NY,NYSMesonet,Broome,1543,42.223,-75.669
362,Belleville,BELL,NY,NYSMesonet,Jefferson,475,43.79,-76.114
363,Belmont,BELM,NY,NYSMesonet,Allegany,1370,42.242,-78.04
364,Berkshire,BERK,NY,NYSMesonet,Tioga,1291,42.32,-76.203
365,Binghamton,BING,NY,NYSMesonet,Broome,1753,42.058,-75.951
366,Brant,BRAN,NY,NYSMesonet,Erie,717,42.595,-79.022
367,Brewster,BREW,NY,NYSMesonet,Putnam,608,41.44,-73.577
368,Brockport,BROC,NY,NYSMesonet,Monroe,563,43.208,-77.966
369,Bronx,BRON,NY,NYSMesonet,Bronx,189,40.872,-73.894
370,Brookfield,BROO,NY,NYSMesonet,Madison,1657,42.796,-75.299
371,Brooklyn,BKLN,NY,NYSMesonet,Kings,109,40.632,-73.954
372,Buffalo,BUFF,NY,NYSMesonet,Erie,589,43.0,-78.767
373,Burdett,BURD,NY,NYSMesonet,Schuyler,1863,42.41,-76.772
374,Burt,BURT,NY,NYSMesonet,Niagara,315,43.317,-78.749
375,Camden,CAMD,NY,NYSMesonet,Oneida,493,43.34,-75.743
376,Cape_Vincent,CAPE,NY,NYSMesonet,Jefferson,275,44.105,-76.327
377,Central_Square,CSQR,NY,NYSMesonet,Oswego,453,43.326,-76.104
378,Chazy,CHAZ,NY,NYSMesonet,Clinton,186,44.896,-73.465
379,Chestertown,CHES,NY,NYSMesonet,Warren,1089,43.654,-73.777
380,Cincinnatus,CINC,NY,NYSMesonet,Cortland,1391,42.522,-75.976
381,Claryville,CLAR,NY,NYSMesonet,Ulster,1915,41.979,-74.517
382,Clifton_Springs,CLIF,NY,NYSMesonet,Ontario,628,43.015,-77.185
383,Clymer,CLYM,NY,NYSMesonet,Chautauqua,1477,42.024,-79.624
384,Cobleskill,COBL,NY,NYSMesonet,Schoharie,1076,42.676,-74.508
385,Cohocton,COHO,NY,NYSMesonet,Steuben,1966,42.512,-77.438
386,Cold_Brook,COLD,NY,NYSMesonet,Herkimer,1422,43.261,-74.979
387,Copake,COPA,NY,NYSMesonet,Columbia,685,42.137,-73.52
388,Copenhagen,COPE,NY,NYSMesonet,Lewis,817,43.921,-75.608
389,Croghan,CROG,NY,NYSMesonet,Lewis,1375,43.975,-75.201
390,Delevan,DELE,NY,NYSMesonet,Cattaraugus,2042,42.418,-78.423
391,Deposit,DEPO,NY,NYSMesonet,Delaware,1023,42.069,-75.392
392,Dover_Plains,DOVE,NY,NYSMesonet,Dutchess,423,41.774,-73.575
393,Duanesburg,DUAN,NY,NYSMesonet,Schenectady,1369,42.803,-74.174
394,East_Aurora,EAUR,NY,NYSMesonet,Erie,1237,42.713,-78.632
395,Edinburg,EDIN,NY,NYSMesonet,Saratoga,1065,43.228,-74.113
396,Edwards,EDWA,NY,NYSMesonet,St._Lawrence,682,44.322,-75.244
397,Eldred,ELDR,NY,NYSMesonet,Sullivan,1140,41.54,-74.88
398,Ellenburg,ELLE,NY,NYSMesonet,Clinton,977,44.896,-73.845
399,Elmira,ELMI,NY,NYSMesonet,Chemung,1091,42.113,-76.837
400,Essex,ESSX,NY,NYSMesonet,Essex,182,44.314,-73.372
401,Fayetteville,FAYE,NY,NYSMesonet,Onondaga,588,43.054,-75.99
402,Fredonia,FRED,NY,NYSMesonet,Chautauqua,783,42.418,-79.367
403,Gabriels,GABR,NY,NYSMesonet,Franklin,1758,44.417,-74.179
404,Glenfield,GFLD,NY,NYSMesonet,Lewis,838,43.717,-75.409
405,Glens_Falls,GFAL,NY,NYSMesonet,Warren,324,43.341,-73.602
406,Groton,GROT,NY,NYSMesonet,Tompkins,1287,42.549,-76.375
407,Grove,GROV,NY,NYSMesonet,Allegany,2000,42.49,-77.949
408,Hammond,HAMM,NY,NYSMesonet,St._Lawrence,367,44.513,-75.617
409,Harpersfield,HARP,NY,NYSMesonet,Delaware,1706,42.473,-74.698
410,Harrisburg,HARR,NY,NYSMesonet,Lewis,1623,43.804,-75.689
411,Hartsville,HART,NY,NYSMesonet,Steuben,2394,42.211,-77.69
412,Herkimer,HERK,NY,NYSMesonet,Herkimer,714,43.037,-75.01
413,High_Falls,HFAL,NY,NYSMesonet,Ulster,634,41.799,-74.123
414,Indian_Lake,ILAK,NY,NYSMesonet,Hamilton,1621,43.791,-74.239
415,Johnstown,JOHN,NY,NYSMesonet,Montgomery,745,42.984,-74.302
416,Jordan,JORD,NY,NYSMesonet,Onondaga,403,43.07,-76.47
417,Kinderhook,KIND,NY,NYSMesonet,Columbia,238,42.41,-73.716
418,Laurens,LAUR,NY,NYSMesonet,Otsego,1627,42.525,-75.137
419,Louisville,LOUI,NY,NYSMesonet,St._Lawrence,279,44.872,-75.056
420,Malone,MALO,NY,NYSMesonet,Franklin,775,44.853,-74.329
421,Manhattan,MANH,NY,NYSMesonet,New_York,311,40.768,-73.964
422,Medina,MEDI,NY,NYSMesonet,Orleans,533,43.227,-78.309
423,Medusa,MEDU,NY,NYSMesonet,Albany,1247,42.469,-74.166
424,Morrisville,MORR,NY,NYSMesonet,Madison,1251,42.884,-75.642
425,Newcomb,NEWC,NY,NYSMesonet,Essex,1645,43.973,-74.223
426,North_Branch,NBRA,NY,NYSMesonet,Sullivan,1497,41.828,-74.997
427,North_Hudson,NHUD,NY,NYSMesonet,Essex,981,44.013,-73.705
428,Old_Forge,OLDF,NY,NYSMesonet,Herkimer,1753,43.742,-74.978
429,Olean,OLEA,NY,NYSMesonet,Cattaraugus,1500,42.091,-78.407
430,Ontario,ONTA,NY,NYSMesonet,Wayne,328,43.259,-77.373
431,Oppenheim,OPPE,NY,NYSMesonet,Fulton,1181,43.063,-74.665
432,Osceola,OSCE,NY,NYSMesonet,Lewis,1093,43.499,-75.712
433,Oswego,OSWE,NY,NYSMesonet,Oswego,308,43.443,-76.553
434,Otisville,OTIS,NY,NYSMesonet,Orange,778,41.482,-74.504
435,Owego,OWEG,NY,NYSMesonet,Tioga,1469,42.026,-76.255
436,Penn_Yan,PENN,NY,NYSMesonet,Yates,822,42.656,-76.987
437,Philadelphia,PHIL,NY,NYSMesonet,Jefferson,430,44.194,-75.716
438,Piseco,PISE,NY,NYSMesonet,Hamilton,1759,43.465,-74.504
439,Potsdam,POTS,NY,NYSMesonet,St._Lawrence,422,44.657,-74.974
440,Queens,QUEE,NY,NYSMesonet,Queens,179,40.734,-73.816
441,Randolph,RAND,NY,NYSMesonet,Cattaraugus,1473,42.149,-78.901
442,Raquette_Lake,RAQU,NY,NYSMesonet,Hamilton,1771,43.823,-74.625
443,Red_Hook,REDH,NY,NYSMesonet,Dutchess,213,42.002,-73.884
444,Redfield,REDF,NY,NYSMesonet,Oswego,1248,43.622,-75.878
445,Roxbury,ROXB,NY,NYSMesonet,Delaware,1880,42.33,-74.467
446,Rush,RUSH,NY,NYSMesonet,Monroe,593,43.001,-77.637
447,Saranac,SARA,NY,NYSMesonet,Clinton,1029,44.708,-73.671
448,Schaghticoke,SCHA,NY,NYSMesonet,Rensselaer,323,42.897,-73.614
449,Schodack,SCHO,NY,NYSMesonet,Rensselaer,344,42.506,-73.686
450,Schuylerville,SCHU,NY,NYSMesonet,Saratoga,103,43.117,-73.578
451,Scipio_Center,SCIP,NY,NYSMesonet,Cayuga,1297,42.756,-76.534
452,Sherburne,SHER,NY,NYSMesonet,Chenango,1157,42.64,-75.483
453,Somers,SOME,NY,NYSMesonet,Westchester,607,41.31,-73.767
454,South_Bristol,SBRI,NY,NYSMesonet,Ontario,1147,42.752,-77.359
455,Southold,SOUT,NY,NYSMesonet,Suffolk,29,41.04,-72.466
456,Sprakers,SPRA,NY,NYSMesonet,Montgomery,656,42.87,-74.51
457,Springfield,SPRI,NY,NYSMesonet,Otsego,1478,42.843,-74.89
458,Staten_Island,STAT,NY,NYSMesonet,Richmond,109,40.604,-74.148
459,Stephentown,STEP,NY,NYSMesonet,Rensselaer,951,42.526,-73.359
460,Stony_Brook,STON,NY,NYSMesonet,Suffolk,144,40.919,-73.132
461,Suffern,SUFF,NY,NYSMesonet,Rockland,584,41.13,-74.09
462,Tannersville,TANN,NY,NYSMesonet,Greene,2334,42.171,-74.113
463,Ticonderoga,TICO,NY,NYSMesonet,Essex,274,43.875,-73.419
464,Tully,TULL,NY,NYSMesonet,Onondaga,1241,42.795,-76.116
465,Tupper_Lake,TUPP,NY,NYSMesonet,Franklin,1650,44.221,-74.438
466,Tyrone,TYRO,NY,NYSMesonet,Schuyler,1204,42.406,-77.054
467,Voorheesville,VOOR,NY,NYSMesonet,Albany,378,42.652,-73.976
468,Wallkill,WALL,NY,NYSMesonet,Ulster,354,41.634,-74.154
469,Walton,WALT,NY,NYSMesonet,Delaware,1837,42.24,-75.179
470,Wantagh,WANT,NY,NYSMesonet,Nassau,28,40.655,-73.506
471,Warsaw,WARS,NY,NYSMesonet,Wyoming,1774,42.78,-78.209
472,Warwick,WARW,NY,NYSMesonet,Orange,539,41.24,-74.391
473,Waterloo,WATE,NY,NYSMesonet,Seneca,478,42.88,-76.813
474,Wellesley_Island,WELL,NY,NYSMesonet,Jefferson,285,44.308,-76.009
475,Westmoreland,WEST,NY,NYSMesonet,Oneida,655,43.106,-75.461
476,Whiteface_Mountain_Base,WFMB,NY,NYSMesonet,Essex,2016,44.393,-73.859
477,Whitehall,WHIT,NY,NYSMesonet,Washington,120,43.485,-73.423
478,Wolcott,WOLC,NY,NYSMesonet,Wayne,398,43.229,-76.843
479,Woodbourne,WBOU,NY,NYSMesonet,Sullivan,1421,41.745,-74.588
480,Woodgate,WGAT,NY,NYSMesonet,Oneida,1453,43.532,-75.159
481,York,YORK,NY,NYSMesonet,Livingston,584,42.855,-77.848
482,ACME,110,OK,OKM,Grady,397,34.81,-98.02
483,ADAX,1,OK,OKM,Pontotoc,295,34.8,-96.67
484,ALTU,2,OK,OKM,Jackson,416,34.59,-99.34
485,ALV2,116,OK,OKM,Woods,439,36.71,-98.71
486,ALVA,3,OK,OKM,Woods,450,36.78,-98.67
487,ANT2,135,OK,OKM,Pushmataha,172,34.25,-95.67
488,ANTL,4,OK,OKM,Pushmataha,179,34.22,-95.7
489,APAC,111,OK,OKM,Caddo,440,34.91,-98.29
490,ARD2,126,OK,OKM,Carter,266,34.19,-97.09
491,ARDM,5,OK,OKM,Carter,266,34.19,-97.09
492,ARNE,6,OK,OKM,Ellis,719,36.07,-99.9
493,BBOW,7,OK,OKM,McCurtain,113,34.01,-94.61
494,BEAV,8,OK,OKM,Beaver,758,36.8,-100.53
495,BEEX,119,OK,OKM,Johnston,196,34.19,-96.64
496,BESS,9,OK,OKM,Washita,511,35.4,-99.06
497,BIXB,10,OK,OKM,Tulsa,184,35.96,-95.87
498,BLAC,11,OK,OKM,Kay,304,36.75,-97.25
499,BOIS,12,OK,OKM,Cimarron,1267,36.69,-102.5
500,BOWL,13,OK,OKM,Seminole,281,35.17,-96.63
501,BREC,14,OK,OKM,Garfield,352,36.41,-97.69
502,BRIS,15,OK,OKM,Creek,239,35.78,-96.35
503,BROK,124,OK,OKM,McCurtain,113,34.04,-94.62
504,BUFF,16,OK,OKM,Harper,559,36.83,-99.64
505,BURB,17,OK,OKM,Osage,301,36.63,-96.81
506,BURN,18,OK,OKM,Love,228,33.89,-97.27
507,BUTL,19,OK,OKM,Custer,520,35.59,-99.27
508,BYAR,20,OK,OKM,Garvin,345,34.85,-97.0
509,CALV,21,OK,OKM,Hughes,234,34.99,-96.33
510,CAMA,22,OK,OKM,Dewey,589,36.03,-99.35
511,CARL,131,OK,OKM,Payne,293,36.15,-97.29
512,CATO,112,OK,OKM,Rogers,232,36.26,-95.76
513,CENT,23,OK,OKM,Coal,208,34.61,-96.33
514,CHAN,24,OK,OKM,Lincoln,291,35.65,-96.8
515,CHER,25,OK,OKM,Alfalfa,362,36.75,-98.36
516,CHEY,26,OK,OKM,Roger_Mills,694,35.55,-99.73
517,CHIC,27,OK,OKM,Grady,328,35.03,-97.91
518,CLAR,28,OK,OKM,Rogers,213,36.32,-95.64
519,CLAY,29,OK,OKM,Pushmataha,186,34.66,-95.33
520,CLOU,30,OK,OKM,Pushmataha,221,34.22,-95.25
521,CLRM,122,OK,OKM,Rogers,207,36.32,-95.65
522,COOK,31,OK,OKM,Cherokee,299,35.68,-94.85
523,COPA,32,OK,OKM,Washington,250,36.91,-95.89
524,DURA,33,OK,OKM,Bryan,197,33.92,-96.32
525,ELKC,139,OK,OKM,Beckham,584,35.33,-99.39
526,ELRE,34,OK,OKM,Canadian,419,35.55,-98.04
527,ERIC,35,OK,OKM,Beckham,603,35.2,-99.8
528,EUFA,36,OK,OKM,McIntosh,200,35.3,-95.66
529,EVAX,141,OK,OKM,Texas,1065,36.92,-101.78
530,FAIR,37,OK,OKM,Major,405,36.26,-98.5
531,FITT,127,OK,OKM,Pontotoc,350,34.55,-96.72
532,FORA,38,OK,OKM,Osage,330,36.84,-96.43
533,FREE,39,OK,OKM,Woodward,530,36.73,-99.14
534,FTCB,40,OK,OKM,Caddo,422,35.15,-98.47
535,GOOD,41,OK,OKM,Texas,997,36.6,-101.6
536,GRA2,117,OK,OKM,Tillman,341,34.24,-98.74
537,GRAN,42,OK,OKM,Tillman,342,34.24,-98.74
538,GUTH,43,OK,OKM,Logan,330,35.85,-97.48
539,HASK,44,OK,OKM,Muskogee,183,35.75,-95.64
540,HECT,113,OK,OKM,Okmulgee,243,35.84,-96.0
541,HINT,45,OK,OKM,Caddo,493,35.48,-98.48
542,HOBA,46,OK,OKM,Kiowa,473,34.99,-99.05
543,HOLD,134,OK,OKM,Hughes,280,35.07,-96.36
544,HOLL,47,OK,OKM,Harmon,497,34.69,-99.83
545,HOOK,48,OK,OKM,Texas,912,36.86,-101.23
546,HUGO,49,OK,OKM,Choctaw,175,34.03,-95.54
547,IDAB,50,OK,OKM,McCurtain,110,33.83,-94.88
548,INOL,120,OK,OKM,Rogers,190,36.14,-95.45
549,JAYX,51,OK,OKM,Delaware,304,36.48,-94.78
550,KENT,52,OK,OKM,Cimarron,1322,36.83,-102.88
551,KETC,53,OK,OKM,Stephens,341,34.53,-97.76
552,KIN2,133,OK,OKM,Kingfisher,323,35.85,-97.95
553,KING,54,OK,OKM,Kingfisher,319,35.88,-97.91
554,LAHO,55,OK,OKM,Major,396,36.38,-98.11
555,LANE,56,OK,OKM,Atoka,181,34.31,-96.0
556,MADI,57,OK,OKM,Marshall,232,34.04,-96.94
557,MANG,58,OK,OKM,Greer,460,34.84,-99.42
558,MARE,59,OK,OKM,Payne,327,36.06,-97.21
559,MARS,60,OK,OKM,Logan,315,36.12,-97.6
560,MAYR,61,OK,OKM,Woods,555,36.99,-99.01
561,MCAL,62,OK,OKM,Pittsburg,230,34.88,-95.78
562,MEDF,63,OK,OKM,Grant,332,36.79,-97.75
563,MEDI,64,OK,OKM,Comanche,487,34.73,-98.57
564,MIAM,65,OK,OKM,Ottawa,247,36.89,-94.84
565,MINC,66,OK,OKM,Grady,430,35.27,-97.96
566,MRSH,125,OK,OKM,Logan,311,36.12,-97.61
567,MTHE,67,OK,OKM,McCurtain,284,34.31,-94.82
568,NEWK,68,OK,OKM,Kay,366,36.9,-96.91
569,NEWP,123,OK,OKM,Carter,283,34.23,-97.2
570,NINN,109,OK,OKM,Grady,356,34.97,-97.95
571,NORM,69,OK,OKM,Cleveland,360,35.26,-97.48
572,NOWA,70,OK,OKM,Nowata,206,36.74,-95.61
573,NRMN,121,OK,OKM,Cleveland,357,35.24,-97.46
574,OILT,71,OK,OKM,Creek,255,36.03,-96.5
575,OKCE,130,OK,OKM,Oklahoma,355,35.47,-97.46
576,OKCN,128,OK,OKM,Oklahoma,362,35.56,-97.51
577,OKCW,129,OK,OKM,Oklahoma,366,35.47,-97.58
578,OKEM,72,OK,OKM,Okfuskee,263,35.43,-96.26
579,OKMU,73,OK,OKM,Okmulgee,205,35.58,-95.91
580,PAUL,74,OK,OKM,Garvin,291,34.72,-97.23
581,PAWN,75,OK,OKM,Pawnee,283,36.36,-96.77
582,PERK,76,OK,OKM,Payne,292,36.0,-97.05
583,PORT,118,OK,OKM,Wagoner,193,35.83,-95.56
584,PRES,114,OK,OKM,Okmulgee,300,35.72,-95.99
585,PRYO,77,OK,OKM,Mayes,201,36.37,-95.27
586,PUTN,78,OK,OKM,Dewey,589,35.9,-98.96
587,REDR,79,OK,OKM,Noble,293,36.36,-97.15
588,RETR,80,OK,OKM,Washita,538,35.12,-99.36
589,RING,81,OK,OKM,Jefferson,283,34.19,-97.59
590,SALL,82,OK,OKM,Sequoyah,157,35.44,-94.8
591,SEIL,83,OK,OKM,Woodward,545,36.19,-99.04
592,SHAW,84,OK,OKM,Pottawatomie,328,35.36,-96.95
593,SKIA,85,OK,OKM,Osage,282,36.42,-96.04
594,SLAP,86,OK,OKM,Beaver,774,36.6,-100.26
595,SPEN,87,OK,OKM,Oklahoma,373,35.54,-97.34
596,STIG,88,OK,OKM,Haskell,173,35.27,-95.18
597,STIL,89,OK,OKM,Payne,272,36.12,-97.1
598,STUA,90,OK,OKM,Pittsburg,256,34.88,-96.07
599,SULP,91,OK,OKM,Murray,320,34.57,-96.95
600,TAHL,92,OK,OKM,Cherokee,290,35.97,-94.99
601,TALA,138,OK,OKM,Rogers,228,36.57,-95.75
602,TALI,93,OK,OKM,LeFlore,204,34.71,-95.01
603,TIPT,94,OK,OKM,Tillman,387,34.44,-99.14
604,TISH,95,OK,OKM,Johnston,268,34.33,-96.68
605,TULL,96,OK,OKM,Wagoner,189,35.84,-95.41
606,TULN,137,OK,OKM,Tulsa,209,36.2,-95.94
607,VALL,140,OK,OKM,McCurtain,120,33.94,-95.11
608,VANO,115,OK,OKM,Pontotoc,320,34.79,-96.84
609,VINI,97,OK,OKM,Craig,236,36.78,-95.22
610,WAL2,136,OK,OKM,Cotton,323,34.4,-98.35
611,WALT,98,OK,OKM,Cotton,308,34.36,-98.32
612,WASH,99,OK,OKM,McClain,345,34.98,-97.52
613,WATO,100,OK,OKM,Blaine,517,35.84,-98.53
614,WAUR,101,OK,OKM,Jefferson,283,34.17,-97.99
615,WEAT,102,OK,OKM,Custer,538,35.51,-98.78
616,WEBB,103,OK,OKM,Muskogee,145,35.47,-95.13
617,WEBR,132,OK,OKM,Muskogee,145,35.49,-95.12
618,WEST,104,OK,OKM,Adair,348,36.01,-94.64
619,WILB,105,OK,OKM,Latimer,199,34.9,-95.35
620,WIST,106,OK,OKM,LeFlore,143,34.98,-94.69
621,WOOD,107,OK,OKM,Woodward,625,36.42,-99.42
622,WYNO,108,OK,OKM,Osage,269,36.52,-96.34
623,AAMU-JTG,2057,AL,SCAN,Madison,860,34.78,-86.55
624,Abrams,2092,KS,SCAN,Cowley,1194,37.13,-97.09
625,Adams_Ranch_#1,2015,NM,SCAN,Lincoln,6175,34.25,-105.42
626,Alcalde,2172,NM,SCAN,Rio_Arriba,5693,36.09,-106.06
627,Alkali_Mesa,2138,UT,SCAN,San_Juan,6445,37.67,-109.36
628,Allen_Farms,2076,TN,SCAN,Giles,705,35.07,-86.89
629,Ames,2031,IA,SCAN,Boone,1073,42.02,-93.73
630,Aniak,2065,AK,SCAN,Bethel,80,61.58,-159.58
631,Ash_Valley,2214,CA,SCAN,Lassen,5097,41.05,-120.69
632,Beasley_Lake,2032,MS,SCAN,Sunflower,115,33.38,-90.65
633,Beaumont,2207,TX,SCAN,Jefferson,19,30.07,-94.29
634,Blue_Creek,2135,UT,SCAN,Box_Elder,5179,41.94,-112.43
635,Bodie_Hills,2215,CA,SCAN,Mono,7825,38.26,-119.13
636,Bosque_Seco,2067,PR,SCAN,Guanica,541,17.97,-66.87
637,Bragg_Farm,2078,AL,SCAN,Madison,798,34.89,-86.6
638,Broad_Acres,2177,AL,SCAN,Montgomery,269,32.28,-86.05
639,Buckhorn,2216,NV,SCAN,Washoe,3925,40.88,-119.95
640,Buffalo_Jump,2151,UT,SCAN,Rich,6682,41.34,-111.19
641,Bushland_#1,2006,TX,SCAN,Randall,3820,35.17,-102.1
642,Cache_Junction,2136,UT,SCAN,Cache,4425,41.82,-111.98
643,Canyon_Lake,1232,AK,SCAN,Bethel,550,59.42,-161.16
644,Cave_Valley,2161,UT,SCAN,Washington,6273,37.36,-113.12
645,Centralia_Lake,2094,KS,SCAN,Nemaha,1302,39.7,-96.16
646,Charkiln,2145,NV,SCAN,Clark,6683,36.37,-115.82
647,Checkers_Creek,2213,AK,SCAN,Nome,326,65.4,-164.71
648,Chicken_Ridge,2150,UT,SCAN,Morgan,7649,41.33,-111.3
649,Cinnamon_Bay,2124,VI,SCAN,St._John,310,18.35,-64.75
650,Circleville,2125,UT,SCAN,Piute,6120,38.15,-112.25
651,CMRB_LTAR-MO,2195,MO,SCAN,Boone,852,39.23,-92.12
652,Cochora_Ranch,2189,CA,SCAN,San_Luis_Obispo,2697,35.12,-119.6
653,Combate,2066,PR,SCAN,Cabo_Rojo,33,17.98,-67.17
654,Conrad_Ag_Rc,2117,MT,SCAN,Pondera,3706,48.3,-111.92
655,Cook_Farm_Field_D,2198,WA,SCAN,Whitman,2727,46.78,-117.08
656,Corozal,2188,PR,SCAN,Corozal,852,18.32,-66.36
657,CPER,2197,CO,SCAN,Weld,5330,40.82,-104.71
658,Crescent_Lake_#1,2002,MN,SCAN,Sherburne,980,45.42,-93.95
659,Crossroads,2107,NM,SCAN,Lea,4055,33.54,-103.24
660,Cullman-NAHRC,2113,AL,SCAN,Cullman,799,34.19,-86.8
661,Death_Valley_Jct,2190,CA,SCAN,Inyo,2062,36.33,-116.35
662,Dee_River_Ranch,2174,AL,SCAN,Pickens,160,33.11,-88.31
663,Deep_Springs,2187,CA,SCAN,Inyo,5399,37.37,-117.97
664,Desert_Center,2183,CA,SCAN,Riverside,556,33.8,-115.31
665,Dexter,2048,MO,SCAN,Stoddard,305,36.78,-89.93
666,Doe_Ridge,2191,CA,SCAN,Mono,7340,37.63,-118.83
667,Dugway,2167,UT,SCAN,Tooele,4314,40.17,-113.02
668,Eagle_Lake,2192,CA,SCAN,Lassen,5134,40.62,-120.72
669,Eastland,2130,UT,SCAN,San_Juan,6837,37.78,-109.17
670,Eastview_Farm,2077,TN,SCAN,Franklin,1054,35.14,-86.19
671,Elsberry_PMC,2220,MO,SCAN,Lincoln,453,39.15,-90.78
672,Enterprise,2128,UT,SCAN,Iron,5250,37.63,-113.64
673,Ephraim,2126,UT,SCAN,Sanpete,5531,39.37,-111.58
674,Eros_Data_Center,2072,SD,SCAN,Minnehaha,1602,43.74,-96.61
675,Essex,2185,CA,SCAN,San_Bernardino,2644,34.67,-115.17
676,Everglades_ARS,2051,FL,SCAN,Dade,9,25.5,-80.55
677,Ford_Dry_Lake,2184,CA,SCAN,Riverside,394,33.65,-115.1
678,Fort_Assiniboine_#1,2019,MT,SCAN,Hill,2710,48.48,-109.8
679,Fort_Reno_#1,2022,OK,SCAN,Canadian,1400,35.55,-98.02
680,Fortuna,2122,PR,SCAN,Juana_Diaz,93,18.03,-66.53
681,French_Gulch,2218,CA,SCAN,Shasta,3704,40.79,-122.55
682,Geneva_#1,2011,NY,SCAN,Ontario,725,42.88,-77.03
683,Glacial_Ridge,2050,MN,SCAN,Polk,1125,47.72,-96.27
684,Goodwin_Ck_Pasture,2024,MS,SCAN,Panola,320,34.25,-89.87
685,Goodwin_Ck_Timber,2025,MS,SCAN,Panola,320,34.23,-89.9
686,Goshute,2165,UT,SCAN,Tooele,5487,39.99,-114.0
687,Grantsville,2152,UT,SCAN,Tooele,4337,40.59,-112.39
688,Green_River,2131,UT,SCAN,Emery,4103,39.02,-110.16
689,Grouse_Creek,2160,UT,SCAN,Box_Elder,5835,41.78,-113.82
690,Guilarte_Forest,2045,PR,SCAN,Adjuntas,3345,18.15,-66.77
691,Hals_Canyon,2164,UT,SCAN,Millard,5260,38.59,-113.75
692,Harms_Way,2166,UT,SCAN,San_Juan,7055,38.31,-109.24
693,Hayford_Peak,2143,NV,SCAN,Clark,9870,36.66,-115.2
694,Hodges,2055,AL,SCAN,Marshall,730,34.45,-86.15
695,Holden,2127,UT,SCAN,Millard,4745,39.19,-112.4
696,Hozatka_Lake,2210,AK,SCAN,Yukon-koyukuk,206,65.2,-156.63
697,Hubbard_Brook,2069,NH,SCAN,Grafton,1480,43.93,-71.72
698,Innoko_Camp,2211,AK,SCAN,Yukon-koyukuk,83,63.64,-158.03
699,Isabela,2052,PR,SCAN,Isabela,50,18.47,-67.04
700,Isbell_Farms,2173,AL,SCAN,Colbert,603,34.82,-87.99
701,Island_Dairy,2100,HI,SCAN,Hawaii,1160,20.0,-155.29
702,Johnson_Farm,2111,NE,SCAN,Chase,3341,40.37,-101.72
703,Jordan,2121,MT,SCAN,Garfield,2820,47.52,-107.13
704,Jordan_Valley_Cwma,2148,ID,SCAN,Owyhee,4508,42.95,-117.01
705,Jornada_Exp_Range,2168,NM,SCAN,Dona_Ana,4360,32.56,-106.7
706,Journagan_Ranch,2194,MO,SCAN,Douglas,1106,37.0,-92.26
707,Kainaliu,2096,HI,SCAN,Hawaii,1364,19.53,-155.93
708,Kanaryagak_Camp,2208,AK,SCAN,Kusilvak,13,61.36,-165.12
709,Kanuti_Lake,2212,AK,SCAN,Yukon-koyukuk,524,66.18,-151.74
710,Kemole_Gulch,2103,HI,SCAN,Hawaii,4163,19.91,-155.59
711,Kingsville,2206,TX,SCAN,Kleberg,67,27.55,-97.88
712,Knox_City,2201,TX,SCAN,Knox,1448,33.45,-99.87
713,Koptis_Farms,2180,AL,SCAN,Baldwin,135,30.52,-87.7
714,Kukuihaele,2097,HI,SCAN,Hawaii,947,20.1,-155.51
715,Ku-Nesa,2147,KS,SCAN,Jefferson,1102,39.05,-95.19
716,Kyle_Canyon,2141,NV,SCAN,Clark,7046,36.27,-115.61
717,Lehman,2106,TX,SCAN,Cochran,3767,33.63,-102.75
718,Levelland,2105,TX,SCAN,Hockley,3510,33.55,-102.37
719,Lind_#1,2021,WA,SCAN,Adams,1640,47.0,-118.57
720,Lindsay,581,MT,SCAN,Dawson,2871,47.21,-105.19
721,Little_Red_Fox,2155,UT,SCAN,Duchesne,5395,40.18,-110.3
722,Little_River,2027,GA,SCAN,Tift,350,31.5,-83.55
723,Livingston-UWA,2114,AL,SCAN,Sumter,144,32.61,-88.2
724,Los_Lunas_PMC,2169,NM,SCAN,Valencia,4846,34.77,-106.76
725,Lovell_Summit,2146,NV,SCAN,Clark,6582,36.17,-115.61
726,Lovelock_NNR,2116,NV,SCAN,Pershing,3934,40.03,-118.18
727,Lower_Mulchatna,1233,AK,SCAN,Dillingham,320,59.82,-156.99
728,Lye_Brook,2042,VT,SCAN,Bennington,2435,43.05,-73.03
729,Lynhart_Ranch,2074,OR,SCAN,Klamath,4092,42.02,-121.39
730,Mahantango_Ck,2028,PA,SCAN,Northumberland,730,40.67,-76.67
731,Mammoth_Cave,2079,KY,SCAN,Hart,800,37.19,-86.04
732,Mana_House,2102,HI,SCAN,Hawaii,4234,19.96,-155.54
733,Mandan_#1,2020,ND,SCAN,Morton,1930,46.77,-100.92
734,Manderfield,2156,UT,SCAN,Beaver,6185,38.37,-112.64
735,Marble_Creek,2149,CA,SCAN,Mono,6183,37.78,-118.42
736,Maricao_Forest,15,PR,SCAN,Mayaguez,2450,18.15,-67.0
737,Mascoma_River,2043,NH,SCAN,Grafton,1400,43.78,-72.03
738,Mason_#1,2004,IL,SCAN,Mason,570,40.32,-89.9
739,Mayaguez_TARS,2112,PR,SCAN,Mayaguez,45,18.21,-67.14
740,Mayday,2110,MS,SCAN,Yazoo,108,32.86,-90.52
741,McAllister_Farm,2075,TN,SCAN,Lincoln,913,35.06,-86.59
742,Mccracken_Mesa,2140,UT,SCAN,San_Juan,5315,37.45,-109.34
743,Milford,2129,UT,SCAN,Beaver,5005,38.34,-113.01
744,Moccasin,2119,MT,SCAN,Judith_Basin,4256,47.06,-109.95
745,Molly_Caren_#1,2014,OH,SCAN,Madison,1060,39.95,-83.45
746,Monocline_Ridge,2217,CA,SCAN,Fresno,875,36.54,-120.55
747,Moose_Inc,2062,AK,SCAN,Kenai_Cook_Inlet,132,59.68,-151.37
748,Morgan,2133,UT,SCAN,Morgan,5113,41.0,-111.69
749,Morris_Farms,2178,AL,SCAN,Macon,220,32.41,-85.91
750,Mount_Mansfield,2041,VT,SCAN,Chittenden,2236,44.53,-72.83
751,Mountain_Home,2134,UT,SCAN,Duchesne,6927,40.37,-110.41
752,Mt_Vernon,2060,MO,SCAN,Lawrence,1150,37.07,-93.88
753,N_Piedmont_Arec,2039,VA,SCAN,Orange,520,38.23,-78.12
754,Naknek_River,2209,AK,SCAN,Bristol_Bay,100,58.67,-156.57
755,Nenana,2081,AK,SCAN,Yukon-koyukuk,415,64.69,-148.91
756,Nephi,2137,UT,SCAN,Juab,5245,39.65,-111.87
757,North_Issaquena,2087,MS,SCAN,Issaquena,112,33.0,-91.06
758,Nunn_#1,2017,CO,SCAN,Weld,5900,40.87,-104.73
759,Onward,2033,MS,SCAN,Sharkey,100,32.75,-90.93
760,Orchard_Range_Site,674,ID,SCAN,Ada,3200,43.32,-116.0
761,Panguitch,2157,UT,SCAN,Garfield,6534,37.87,-112.43
762,Park_Valley,2153,UT,SCAN,Box_Elder,5098,41.77,-113.29
763,Pee_Dee,2037,SC,SCAN,Darlington,120,34.3,-79.73
764,Perdido_Riv_Farms,2181,AL,SCAN,Escambia,299,31.11,-87.55
765,Perthshire,2046,MS,SCAN,Bolivar,200,33.97,-90.9
766,Phillipsburg,2093,KS,SCAN,Phillips,1986,39.79,-99.33
767,Pine_Nut,2144,NV,SCAN,Clark,6780,36.57,-115.2
768,Porter_Canyon,2170,NV,SCAN,Lander,7187,39.47,-117.62
769,Powder_Mill,2049,MD,SCAN,Prince_George's,105,39.02,-76.85
770,Powell_Gardens,2061,MO,SCAN,Johnson,960,38.87,-94.03
771,Prairie_View_#1,2016,TX,SCAN,Waller,270,30.08,-95.98
772,Price,2132,UT,SCAN,Carbon,5637,39.53,-110.81
773,Princeton_#1,2005,KY,SCAN,Caldwell,615,37.1,-87.83
774,Pua_Akala,2098,HI,SCAN,Hawaii,6394,19.79,-155.33
775,Reese_Center,2104,TX,SCAN,Lubbock,3333,33.62,-102.04
776,Reynolds_Homestead,2089,VA,SCAN,Patrick,1127,36.63,-80.13
777,Riesel,2199,TX,SCAN,Falls,539,31.48,-96.88
778,River_Road_Farms,2182,AL,SCAN,Houston,107,31.02,-85.04
779,Rock_Springs_Pa,2036,PA,SCAN,Centre,1220,40.72,-77.93
780,Rogers_Farm_#1,2001,NE,SCAN,Lancaster,1215,40.85,-96.47
781,San_Angelo,2200,TX,SCAN,Tom_Green,1970,31.55,-100.51
782,Sand_Hollow,2159,UT,SCAN,Washington,3088,37.11,-113.36
783,Sandy_Ridge,2109,MS,SCAN,Sunflower,138,33.66,-90.57
784,Schell-Osage,2193,MO,SCAN,St._Clair,793,37.99,-94.04
785,Schor_Garden,2063,AK,SCAN,Kenai_Peninsula,393,59.68,-151.38
786,Scott,2070,MS,SCAN,Bolivar,165,33.62,-91.1
787,Sellers_Lake_#1,2012,FL,SCAN,Lake,75,29.1,-81.63
788,Selma,2176,AL,SCAN,Dallas,140,32.4,-86.89
789,Sevilleta,2171,NM,SCAN,Socorro,5233,34.36,-106.69
790,Shadow_Mtns,2186,CA,SCAN,San_Bernardino,3643,35.47,-115.72
791,Shagbark_Hills,2068,IA,SCAN,Woodbury,1400,42.43,-95.77
792,Sheldon,750,NV,SCAN,Washoe,5865,41.9,-119.44
793,Shenandoah,2088,VA,SCAN,Augusta,1763,37.92,-79.2
794,Sidney,2120,MT,SCAN,Richland,2274,47.77,-104.25
795,Silver_City,2086,MS,SCAN,Humphreys,115,33.09,-90.51
796,Silver_Sword,2101,HI,SCAN,Hawaii,9324,19.77,-155.42
797,Spickard,2047,MO,SCAN,Audrain,911,40.25,-93.72
798,Split_Mountain,2154,UT,SCAN,Uintah,4844,40.39,-109.35
799,Spooky,2158,UT,SCAN,Kane,5341,37.51,-111.26
800,Stanley_Farm,2056,AL,SCAN,Morgan,635,34.43,-86.68
801,Starkville,2064,MS,SCAN,Oktibbeha,340,33.63,-88.77
802,Stephenville,2203,TX,SCAN,Erath,1311,32.25,-98.2
803,Stubblefield,2219,CA,SCAN,San_Luis_Obispo,2995,34.97,-119.48
804,Sudduth_Farms,2179,AL,SCAN,Winston,772,34.18,-87.46
805,Sunleaf_Nursery,2073,OH,SCAN,Lake,670,41.8,-81.08
806,Table_Mountain,808,MT,SCAN,Gallatin,4474,45.8,-111.59
807,Tidewater_#1,2008,NC,SCAN,Washington,20,35.87,-76.65
808,Tidewater_Arec,2040,VA,SCAN,Suffolk,80,36.68,-76.77
809,Tnc_Fort_Bayou,2082,MS,SCAN,Jackson,43,30.47,-88.74
810,Tok,2080,AK,SCAN,Southeast_Fairbanks,1630,63.35,-142.98
811,Torrington_#1,2018,WY,SCAN,Goshen,4280,42.07,-104.13
812,Trough_Springs,2142,NV,SCAN,Clark,7846,36.37,-115.78
813,Tule_Valley,2163,UT,SCAN,Millard,4592,39.24,-113.46
814,Tunica,2034,MS,SCAN,Tunica,260,34.68,-90.42
815,Tuskegee,2115,AL,SCAN,Macon,400,32.43,-85.75
816,Uapb_Campus-PB,2083,AR,SCAN,Jefferson,232,34.25,-92.03
817,Uapb_Dewitt,2091,AR,SCAN,Arkansas,197,34.28,-91.35
818,Uapb_Point_Remove,2090,AR,SCAN,Pope,315,35.21,-92.92
819,Uapb-Earle,2085,AR,SCAN,Crittenden,213,35.28,-90.45
820,Uapb-Lonoke_Farm,2030,AR,SCAN,Lonoke,250,34.85,-91.88
821,Uapb-Marianna,2084,AR,SCAN,Lee,217,34.78,-90.82
822,Unalakleet,2221,AK,SCAN,Nome,290,63.91,-160.75
823,Upper_Bethlehem,2123,VI,SCAN,St._Croix,119,17.72,-64.8
824,Uvalde,2204,TX,SCAN,Kinney,915,29.36,-100.25
825,UW_Platteville,2196,WI,SCAN,Lafayette,1075,42.71,-90.39
826,Vance,2035,MS,SCAN,Tallahatchie,150,34.07,-90.35
827,Vermillion,2162,UT,SCAN,Kane,6392,37.19,-112.19
828,Vernon,2202,TX,SCAN,Wilbarger,1184,34.02,-99.25
829,Violett,2118,MT,SCAN,Liberty,3225,48.44,-111.18
830,Wabeno_#1,2003,WI,SCAN,Forest,1580,45.47,-88.58
831,Waimea_Plain,2099,HI,SCAN,Hawaii,3039,20.01,-155.6
832,Wakulla_#1,2009,FL,SCAN,Leon,150,30.3,-84.42
833,Walnut_Gulch_#1,2026,AZ,SCAN,Cochise,4500,31.73,-110.05
834,Watkinsville_#1,2013,GA,SCAN,Oconee,770,33.88,-83.43
835,Weary_Lake,1234,AK,SCAN,Dillingham,100,59.13,-159.09
836,Wedowee,2175,AL,SCAN,Randolph,934,33.33,-85.52
837,Weslaco,2205,TX,SCAN,Hidalgo,57,26.16,-97.96
838,West_Summit,2139,UT,SCAN,San_Juan,6993,38.01,-109.13
839,Willow_Wells,2108,NM,SCAN,Lea,4537,33.53,-103.63
840,Wtars,2053,AL,SCAN,Madison,625,34.9,-86.53
841,Youmans_Farm,2038,SC,SCAN,Hampton,75,32.67,-81.2
842,ANTELOPE_RANGE,ATR,SD,SDM,HARDING,2903,45.52,-103.29
843,BALTIC,BTC,SD,SDM,MINNEHAHA,1545,43.73,-96.68
844,BERESFORD,BES,SD,SDM,CLAY,1256,43.05,-96.9
845,BISON,BIS,SD,SDM,PERKINS,2778,45.53,-102.47
846,BRITTON,BTN,SD,SDM,MARSHALL,1410,45.68,-97.75
847,BROOKINGS,BKX,SD,SDM,BROOKINGS,1640,44.33,-96.77
848,COLTON,CTN,SD,SDM,MINNEHAHA,1607,43.77,-96.89
849,COTTONWOOD,COT,SD,SDM,JACKSON,2365,43.96,-101.85
850,FLANDREAU,FDU,SD,SDM,MOODY,1624,44.09,-96.58
851,GETTYSBURG,GET,SD,SDM,POTTER,2063,44.99,-99.95
852,GROTON,GOT,SD,SDM,BROWN,1309,45.57,-98.03
853,HAMILL,HML,SD,SDM,TRIPP,1863,43.59,-99.71
854,LEMMON,LMN,SD,SDM,PERKINS,2575,45.92,-102.11
855,MAHTO,MHT,SD,SDM,CORSON,1945,45.74,-100.66
856,NISLAND,NIS,SD,SDM,BUTTE,2906,44.68,-103.56
857,OAK_LAKE,OKL,SD,SDM,BROOKINGS,1886,44.51,-96.53
858,ORAL,ORL,SD,SDM,FALL_RIVER,3155,43.38,-103.28
859,PARKSTON,PKT,SD,SDM,HUTCHINSON,1410,43.38,-97.99
860,PIERRE,PIR,SD,SDM,HUGHES,1492,44.29,-100.01
861,REDFIELD,RFD,SD,SDM,SPINK,1305,44.86,-98.53
862,SIOUXFALLS_LANDFILL,SFW,SD,SDM,MINNEHAHA,1610,43.5,-96.92
863,SIOUXFALLS_SOUTH,SF1,SD,SDM,MINNEHAHA,1407,43.5,-96.76
864,SOUTH_SHORE,SOS,SD,SDM,CODINGTON,1850,45.11,-97.1
865,VOLGA,VGS,SD,SDM,BROOKINGS,1633,44.3,-96.92
866,WEBSTER,WEB,SD,SDM,DAY,1850,45.29,-97.52
867,WHITE_LAKE,WLK,SD,SDM,AURORA,1640,43.73,-98.69
868,Agua_Canyon,907,UT,SNOTEL,Kane,8900,37.52,-112.27
869,Anchor_River_Divide,1062,AK,SNOTEL,Kenai_Peninsula,1653,59.86,-151.32
870,Annie_Springs,1000,OR,SNOTEL,Klamath,6010,42.87,-122.17
871,Arapaho_Ridge,1030,CO,SNOTEL,Grand,10960,40.35,-106.38
872,Atigun_Pass,957,AK,SNOTEL,North_Slope,4800,68.13,-149.48
873,Atlanta_Summit,306,ID,SNOTEL,Elmore,7580,43.76,-115.24
874,Baker_Butte,308,AZ,SNOTEL,Gila,7300,34.46,-111.41
875,Baker_Butte_Smt,1140,AZ,SNOTEL,Coconino,7700,34.46,-111.38
876,Baldy,310,AZ,SNOTEL,Apache,9125,33.98,-109.5
877,Banner_Summit,312,ID,SNOTEL,Boise,7040,44.3,-115.23
878,Bar_M,1212,AZ,SNOTEL,Coconino,6393,34.86,-111.61
879,Bear_Creek,321,NV,SNOTEL,Elko,8040,41.83,-115.45
880,Bear_River_RS,992,UT,SNOTEL,Summit,8777,40.89,-110.83
881,Beaver_Dams,329,UT,SNOTEL,Sanpete,7990,39.14,-111.56
882,Beaver_Divide,330,UT,SNOTEL,Summit,8280,40.61,-111.1
883,Beaver_Pass,990,WA,SNOTEL,Whatcom,3630,48.88,-121.26
884,Ben_Lomond_Peak,332,UT,SNOTEL,Weber,7689,41.38,-111.94
885,Ben_Lomond_Trail,333,UT,SNOTEL,Weber,5972,41.38,-111.92
886,Berry_Creek,334,NV,SNOTEL,White_Pine,9377,39.32,-114.62
887,Berthoud_Summit,335,CO,SNOTEL,Grand,11300,39.8,-105.78
888,Bevans_Cabin,1214,UT,SNOTEL,Tooele,6520,40.46,-112.25
889,Big_Bend,336,NV,SNOTEL,Elko,6898,41.76,-115.69
890,Big_Creek_Sum,337,NV,SNOTEL,Lander,8685,39.29,-117.12
891,Big_Flat,339,UT,SNOTEL,Beaver,10349,38.3,-112.36
892,Big_Goose,931,WY,SNOTEL,Sheridan,7990,44.58,-107.2
893,Big_Meadow,340,NV,SNOTEL,Washoe,8235,39.46,-119.94
894,Big_Sandy_Opening,342,WY,SNOTEL,Sublette,9080,42.65,-109.26
895,Billie_Creek_Divide,344,OR,SNOTEL,Klamath,5280,42.41,-122.27
896,Bird_Creek,1155,NV,SNOTEL,White_Pine,7537,39.46,-114.65
897,Black_Bear,347,MT,SNOTEL,Gallatin,8170,44.51,-111.13
898,Black_Flat-U.M._Ck,348,UT,SNOTEL,Sevier,9414,38.68,-111.6
899,Black_Mesa,1185,CO,SNOTEL,Dolores,11580,37.79,-108.18
900,Black_Pine,349,MT,SNOTEL,Granite,7210,46.41,-113.43
901,Blackhall_Mtn,1119,WY,SNOTEL,Carbon,9820,41.06,-106.71
902,Blacks_Fork_Jct,1162,UT,SNOTEL,Summit,8869,40.96,-110.58
903,Blacktail_Mtn,1144,MT,SNOTEL,Flathead,5650,47.98,-114.35
904,Blue_Lakes,356,CA,SNOTEL,Alpine,8067,38.61,-119.92
905,Bobs_Hollow,1278,UT,SNOTEL,Millard,9319,38.95,-112.15
906,Bogus_Basin,978,ID,SNOTEL,Boise,6340,43.76,-116.1
907,Bone_Springs_Div,358,WY,SNOTEL,Sheridan,9350,44.68,-107.58
908,Bostetter_R.S.,359,ID,SNOTEL,Cassia,7500,42.16,-114.19
909,Bourne,361,OR,SNOTEL,Baker,5850,44.83,-118.19
910,Box_Creek,364,UT,SNOTEL,Sevier,9853,38.51,-112.02
911,Brian_Head,1154,UT,SNOTEL,Iron,10039,37.68,-112.86
912,Brighton,366,UT,SNOTEL,Salt_Lake,8766,40.6,-111.58
913,Bristlecone_Trail,1111,NV,SNOTEL,Clark,8890,36.32,-115.7
914,Brown_Duck,368,UT,SNOTEL,Duchesne,10574,40.58,-110.59
915,Brown_Top,1080,WA,SNOTEL,Whatcom,5830,48.93,-121.2
916,Brumley,369,CO,SNOTEL,Lake,10600,39.09,-106.54
917,Buck_Flat,371,UT,SNOTEL,Sanpete,9409,39.13,-111.44
918,Buck_Pasture,1192,UT,SNOTEL,Summit,9632,40.84,-110.66
919,Buckboard_Flat,1153,UT,SNOTEL,San_Juan,8924,37.87,-109.45
920,Buckinghorse,1107,WA,SNOTEL,Jefferson,4870,47.71,-123.46
921,Buckskin_Joe,938,CO,SNOTEL,Park,11150,39.3,-106.11
922,Buckskin_Lower,373,NV,SNOTEL,Humboldt,6930,41.75,-117.53
923,Bug_Lake,374,UT,SNOTEL,Rich,7987,41.69,-111.42
924,Burnside_Lake,1051,CA,SNOTEL,Alpine,8129,38.72,-119.89
925,Burnt_Mountain,942,WA,SNOTEL,Pierce,4170,47.04,-121.94
926,Burro_Mountain,378,CO,SNOTEL,Rio_Blanco,9400,39.88,-107.6
927,Burts_Miller_Ranch,1135,UT,SNOTEL,Summit,8000,40.98,-110.85
928,Butte,380,CO,SNOTEL,Gunnison,10160,38.89,-106.95
929,Camp_Jackson,383,UT,SNOTEL,San_Juan,8858,37.81,-109.49
930,Carson_Pass,1067,CA,SNOTEL,Alpine,8360,38.69,-120.0
931,Cascade_#2,387,CO,SNOTEL,San_Juan,8920,37.66,-107.8
932,Cascade_Mountain,1039,UT,SNOTEL,Utah,7774,40.28,-111.61
933,Castle_Creek,1130,WY,SNOTEL,Fremont,8400,43.67,-109.38
934,Castle_Valley,390,UT,SNOTEL,Iron,9607,37.66,-112.74
935,Cave_Mountain,1152,NV,SNOTEL,White_Pine,10578,39.16,-114.61
936,Cayuse_Pass,1085,WA,SNOTEL,Pierce,5240,46.87,-121.53
937,Chalender,1139,AZ,SNOTEL,Coconino,7100,35.26,-112.06
938,Chalk_Creek_#1,392,UT,SNOTEL,Summit,9171,40.85,-111.05
939,Chalk_Creek_#2,393,UT,SNOTEL,Summit,8208,40.89,-111.07
940,Chemult_Alternate,395,OR,SNOTEL,Klamath,4850,43.23,-121.81
941,Chepeta,396,UT,SNOTEL,Duchesne,10499,40.77,-110.01
942,Chocolate_Gulch,895,ID,SNOTEL,Blaine,6440,43.77,-114.42
943,Cinnabar_Park,1046,WY,SNOTEL,Albany,9574,41.24,-106.23
944,Clackamas_Lake,398,OR,SNOTEL,Clackamas,3400,45.1,-121.75
945,Clayton_Springs,983,UT,SNOTEL,Garfield,10049,37.97,-111.83
946,Clear_Creek_#1,399,UT,SNOTEL,Utah,8975,39.87,-111.28
947,Clear_Creek_#2,400,UT,SNOTEL,Utah,7837,39.89,-111.25
948,Clear_Lake,401,OR,SNOTEL,Wasco,3810,45.19,-121.69
949,Clover_Meadow,403,MT,SNOTEL,Madison,8600,45.02,-111.85
950,Cochetopa_Pass,1059,CO,SNOTEL,Saguache,10020,38.16,-106.6
951,Coldfoot,958,AK,SNOTEL,Yukon-Koyukuk,1040,67.25,-150.18
952,Columbia_Basin,1204,NV,SNOTEL,Elko,6471,41.67,-116.07
953,Copper_Mountain,415,CO,SNOTEL,Summit,10550,39.49,-106.17
954,Corduroy_Flat,1209,NV,SNOTEL,White_Pine,8640,39.0,-115.42
955,Corral,1236,UT,SNOTEL,Carbon,8207,39.66,-110.38
956,Corral_Canyon,417,NV,SNOTEL,Elko,8445,40.28,-115.54
957,Crab_Creek,424,ID,SNOTEL,Clark,6860,44.44,-111.99
958,Crater_Meadows,425,ID,SNOTEL,Clearwater,5960,46.56,-115.29
959,Crow_Creek,1045,WY,SNOTEL,Albany,8330,41.23,-105.38
960,Css_Lab,428,CA,SNOTEL,Nevada,6894,39.33,-120.37
961,Culebra_#2,430,CO,SNOTEL,Costilla,10500,37.21,-105.2
962,Currant_Creek,432,UT,SNOTEL,Wasatch,7915,40.36,-111.09
963,Daniels-Strawberry,435,UT,SNOTEL,Wasatch,8008,40.3,-111.26
964,Defiance_Mines,1210,NV,SNOTEL,White_Pine,9306,39.09,-114.9
965,Diamond_Peak,443,NV,SNOTEL,Eureka,8017,39.56,-115.84
966,Dills_Camp,444,UT,SNOTEL,Sanpete,9228,39.05,-111.47
967,Disaster_Peak,445,NV,SNOTEL,Humboldt,6260,41.97,-118.19
968,Divide,448,MT,SNOTEL,Madison,7800,44.79,-112.06
969,Dollarhide_Summit,450,ID,SNOTEL,Blaine,8420,43.6,-114.67
970,Donkey_Reservoir,452,UT,SNOTEL,Wayne,9799,38.21,-111.47
971,Dorsey_Basin,453,NV,SNOTEL,Elko,7903,40.89,-115.21
972,Draw_Creek,454,NV,SNOTEL,Elko,7285,41.66,-115.32
973,Dry_Bread_Pond,455,UT,SNOTEL,Cache,8302,41.41,-111.54
974,Dry_Creek,1243,NV,SNOTEL,Elko,6555,40.86,-115.22
975,Dry_Fork,906,UT,SNOTEL,Salt_Lake,7093,40.57,-112.17
976,Dry_Lake,457,CO,SNOTEL,Routt,8400,40.53,-106.78
977,Eagle_Summit,960,AK,SNOTEL,Yukon-Koyukuk,3650,65.49,-145.41
978,East_Rim_Divide,460,WY,SNOTEL,Sublette,7930,43.13,-110.2
979,East_Willow_Creek,461,UT,SNOTEL,Grand,8302,39.31,-109.53
980,Ebbetts_Pass,462,CA,SNOTEL,Alpine,8661,38.55,-119.8
981,Echo_Peak,463,CA,SNOTEL,El_Dorado,7653,38.85,-120.08
982,EF_Blacks_Fork_GS,1163,UT,SNOTEL,Summit,9360,40.88,-110.54
983,Elk_Butte,466,ID,SNOTEL,Clearwater,5690,46.84,-116.12
984,Elk_Cabin,921,NM,SNOTEL,Santa_Fe,8210,35.7,-105.81
985,Elk_Peak,1106,MT,SNOTEL,Meagher,7600,46.48,-110.71
986,Exit_Glacier,1092,AK,SNOTEL,Kenai_Peninsula,400,60.19,-149.62
987,Fallen_Leaf,473,CA,SNOTEL,El_Dorado,6242,38.93,-120.05
988,Farmington,474,UT,SNOTEL,Davis,7902,40.97,-111.81
989,Farmington_Lower,1054,UT,SNOTEL,Davis,6779,40.99,-111.82
990,Farnsworth_Lake,475,UT,SNOTEL,Sevier,9623,38.77,-111.68
991,Fawn_Creek,476,NV,SNOTEL,Elko,7031,41.82,-116.1
992,Fish_Lake_Utah,1149,UT,SNOTEL,Sevier,8798,38.5,-111.77
993,Five_Points_Lake,481,UT,SNOTEL,Duchesne,10943,40.72,-110.47
994,Flattop_Mtn.,482,MT,SNOTEL,Flathead,6300,48.8,-113.86
995,Forestdale_Creek,1049,CA,SNOTEL,Alpine,8017,38.68,-119.96
996,Fort_Valley,1121,AZ,SNOTEL,Coconino,7350,35.27,-111.74
997,Franklin_Basin,484,ID,SNOTEL,Franklin,8140,42.05,-111.6
998,Fredonyer_Peak,1277,CA,SNOTEL,Lassen,7208,40.69,-120.61
999,Fremont_Pass,485,CO,SNOTEL,Summit,11400,39.38,-106.2
1000,Fry_Canyon,1262,NV,SNOTEL,Elko,6798,41.57,-115.94
1001,Galena_Summit,490,ID,SNOTEL,Blaine,8780,43.87,-114.71
1002,Gallegos_Peak,491,NM,SNOTEL,Taos,9800,36.19,-105.56
1003,Garden_City_Summit,1114,UT,SNOTEL,Cache,7705,41.92,-111.47
1004,Gardner_Peak,1066,UT,SNOTEL,Washington,8322,37.4,-113.46
1005,Garita_Peak,1173,NM,SNOTEL,Rio_Arriba,10160,36.01,-106.55
1006,GBRC_HQ,1221,UT,SNOTEL,Sanpete,8801,39.32,-111.49
1007,GBRC_Meadows,1222,UT,SNOTEL,Sanpete,9858,39.3,-111.45
1008,George_Creek,1151,UT,SNOTEL,Box_Elder,8964,41.92,-113.41
1009,Giveout,493,ID,SNOTEL,Bear_Lake,6930,42.41,-111.17
1010,Gobblers_Knob,962,AK,SNOTEL,Yukon-Koyukuk,2030,66.75,-150.67
1011,Golconda,1195,NV,SNOTEL,Humboldt,6616,40.88,-117.59
1012,Gold_Axe_Camp,1159,WA,SNOTEL,Okanogan,5360,48.95,-118.99
1013,Gooseberry_RS,495,UT,SNOTEL,Sevier,7944,38.8,-111.68
1014,Gooseberry_RS_Up,1184,UT,SNOTEL,Sevier,8396,38.79,-111.69
1015,Grand_Targhee,1082,WY,SNOTEL,Teton,9260,43.78,-110.93
1016,Granite_Creek,497,WY,SNOTEL,Teton,6770,43.34,-110.43
1017,Granite_Crk,963,AK,SNOTEL,Southeast_Fairbanks,1240,63.94,-145.4
1018,Granite_Peak,498,NV,SNOTEL,Humboldt,8503,41.67,-117.57
1019,Green_Mountain,503,NV,SNOTEL,Elko,8185,40.38,-115.53
1020,Grizzly_Peak,505,CO,SNOTEL,Summit,11100,39.65,-105.87
1021,Grouse_Camp,507,WA,SNOTEL,Kittitas,5390,47.28,-120.49
1022,Gunsight_Pass,944,WY,SNOTEL,Sublette,9820,43.38,-109.88
1023,Gutz_Peak,1065,UT,SNOTEL,Washington,6763,37.5,-113.94
1024,Hagans_Meadow,508,CA,SNOTEL,El_Dorado,7742,38.85,-119.94
1025,Happy_Jack,969,AZ,SNOTEL,Coconino,7630,34.75,-111.41
1026,Hardscrabble,896,UT,SNOTEL,Morgan,7250,40.87,-111.72
1027,Harris_Flat,514,UT,SNOTEL,Kane,7792,37.49,-112.58
1028,Harts_Pass,515,WA,SNOTEL,Okanogan,6490,48.72,-120.66
1029,Hawley_Lake,1271,AZ,SNOTEL,Apache,8300,33.97,-109.77
1030,Hayden_Fork,517,UT,SNOTEL,Summit,9130,40.8,-110.88
1031,Heavenly_Valley,518,CA,SNOTEL,El_Dorado,8534,38.92,-119.92
1032,Hewinta,521,UT,SNOTEL,Summit,9500,40.95,-110.48
1033,Hickerson_Park,522,UT,SNOTEL,Daggett,9122,40.91,-109.96
1034,High_Ridge,523,OR,SNOTEL,Umatilla,4920,45.7,-118.11
1035,Hilts_Creek,524,ID,SNOTEL,Custer,8000,44.02,-113.47
1036,Hobble_Creek,1223,UT,SNOTEL,Utah,7377,40.19,-111.36
1037,Hole-in-Mountain,527,NV,SNOTEL,Elko,8163,40.94,-115.1
1038,Hole-in-Rock,528,UT,SNOTEL,Summit,9168,40.92,-110.19
1039,Holland_Meadows,529,OR,SNOTEL,Lane,4930,43.67,-122.57
1040,Hoosier_Pass,531,CO,SNOTEL,Summit,11400,39.36,-106.06
1041,Hopewell,532,NM,SNOTEL,Rio_Arriba,10000,36.72,-106.26
1042,Horse_Meadow,1050,CA,SNOTEL,Alpine,8557,38.84,-119.89
1043,Horse_Ridge,533,UT,SNOTEL,Morgan,8199,41.31,-111.45
1044,Huntington_Horse,1216,UT,SNOTEL,Sanpete,9652,39.62,-111.31
1045,Hyndman,537,ID,SNOTEL,Blaine,7440,43.71,-114.16
1046,Imnaviat_Creek,968,AK,SNOTEL,North_Slope,3050,68.62,-149.3
1047,Independence_Camp,539,CA,SNOTEL,Sierra,6980,39.45,-120.29
1048,Independence_Creek,540,CA,SNOTEL,Sierra,6436,39.49,-120.28
1049,Independence_Lake,541,CA,SNOTEL,Nevada,8338,39.43,-120.31
1050,Indian_Canyon,543,UT,SNOTEL,Duchesne,9171,39.89,-110.75
1051,Indian_Rock,1129,WA,SNOTEL,Klickitat,5360,45.99,-120.81
1052,Island_Park,546,ID,SNOTEL,Fremont,6290,44.42,-111.39
1053,Jack_Creek_Upper,548,NV,SNOTEL,Elko,7377,41.55,-116.01
1054,Jacks_Peak,549,NV,SNOTEL,Elko,8424,41.51,-116.01
1055,Jackson_Peak,550,ID,SNOTEL,Boise,7070,44.05,-115.44
1056,Jackwhacker_Gulch,935,CO,SNOTEL,Clear_Creek,10960,39.57,-105.8
1057,Jakes_Creek,1211,NV,SNOTEL,Elko,7374,41.57,-115.03
1058,Jones_Corral,1099,UT,SNOTEL,Garfield,9749,38.07,-112.17
1059,Kalamazoo,1150,NV,SNOTEL,White_Pine,7775,39.56,-114.63
1060,Kelley_R.S.,554,WY,SNOTEL,Lincoln,8180,42.27,-110.81
1061,Kelly_Station,1175,AK,SNOTEL,Northwest_Arctic,310,67.93,-162.28
1062,Kenai_Moose_Pens,966,AK,SNOTEL,Kenai_Peninsula,300,60.73,-150.48
1063,Kilfoil_Creek,1145,UT,SNOTEL,Morgan,7220,41.25,-111.41
1064,Kimberly_Mine,557,UT,SNOTEL,Piute,9101,38.48,-112.39
1065,Kings_Cabin,559,UT,SNOTEL,Uintah,8728,40.72,-109.54
1066,Klondike_Narrows,1115,UT,SNOTEL,Cache,7250,41.97,-111.6
1067,Kolob,561,UT,SNOTEL,Iron,9263,37.53,-113.05
1068,Lakefork_#1,566,UT,SNOTEL,Duchesne,10128,40.6,-110.43
1069,Lakefork_#3,1116,UT,SNOTEL,Duchesne,8464,40.55,-110.35
1070,Lakefork_Basin,513,UT,SNOTEL,Duchesne,10885,40.74,-110.62
1071,Lakeview_Ridge,568,MT,SNOTEL,Beaverhead,7400,44.59,-111.82
1072,Lamance_Creek,569,NV,SNOTEL,Humboldt,6395,41.52,-117.63
1073,Lamoille_#3,570,NV,SNOTEL,Elko,8051,40.64,-115.38
1074,Laprele_Creek,571,WY,SNOTEL,Converse,8375,42.44,-105.86
1075,Larsen_Creek,1134,WY,SNOTEL,Sublette,9000,42.58,-109.09
1076,Lasal_Mountain,572,UT,SNOTEL,Grand,9578,38.48,-109.27
1077,Lasal_Mountain-Lower,1215,UT,SNOTEL,San_Juan,8783,38.48,-109.29
1078,Laurel_Draw,573,NV,SNOTEL,Elko,6682,41.78,-116.03
1079,Leavitt_Lake,574,CA,SNOTEL,Mono,9604,38.28,-119.61
1080,Leavitt_Meadows,575,CA,SNOTEL,Mono,7198,38.3,-119.55
1081,Lee_Canyon,1112,NV,SNOTEL,Clark,8626,36.31,-115.68
1082,Lewis_Lake_Divide,577,WY,SNOTEL,Teton,7850,44.21,-110.67
1083,Lewis_Peak,1006,NV,SNOTEL,Lander,7400,40.36,-116.86
1084,Lick_Creek,578,MT,SNOTEL,Gallatin,6860,45.5,-110.97
1085,Lightning_Ridge,1056,UT,SNOTEL,Weber,8215,41.36,-111.49
1086,Lily_Lake,579,UT,SNOTEL,Summit,9133,40.86,-110.8
1087,Lily_Pond,580,CO,SNOTEL,Conejos,11000,37.38,-106.55
1088,Little_Bear,582,UT,SNOTEL,Cache,6548,41.41,-111.83
1089,Little_Chena_Ridge,947,AK,SNOTEL,Fairbanks_North_Star,2000,65.12,-146.73
1090,Little_Goose,1131,WY,SNOTEL,Johnson,8870,44.54,-107.18
1091,Little_Grassy,583,UT,SNOTEL,Washington,6065,37.49,-113.85
1092,Little_Snake_River,1047,WY,SNOTEL,Carbon,8915,41.07,-106.94
1093,Little_Valley,1242,NV,SNOTEL,Washoe,6493,39.25,-119.88
1094,Lizard_Head_Pass,586,CO,SNOTEL,Dolores,10200,37.8,-107.92
1095,Lobdell_Lake,587,CA,SNOTEL,Mono,9249,38.44,-119.37
1096,Lone_Cone,589,CO,SNOTEL,San_Miguel,9600,37.89,-108.2
1097,Lonesome_Beaver,1261,UT,SNOTEL,Garfield,9410,38.07,-110.77
1098,Long_Draw_Resv,1123,CO,SNOTEL,Larimer,9980,40.51,-105.77
1099,Long_Flat,592,UT,SNOTEL,Washington,7982,37.51,-113.4
1100,Long_Valley,1016,ID,SNOTEL,Valley,4890,44.79,-116.09
1101,Long_Valley_Jct,593,UT,SNOTEL,Kane,7465,37.49,-112.51
1102,Lookout,594,ID,SNOTEL,Shoshone,5140,47.46,-115.71
1103,Lookout_Peak,596,UT,SNOTEL,Salt_Lake,8161,40.84,-111.71
1104,Lost_Creek_Resv,1118,UT,SNOTEL,Morgan,6082,41.22,-111.36
1105,Lost_Dog,940,CO,SNOTEL,Routt,9320,40.82,-106.75
1106,Lost_Horse,599,WA,SNOTEL,Yakima,5120,46.36,-121.08
1107,Louis_Meadow,972,UT,SNOTEL,Salt_Lake,6700,40.83,-111.76
1108,Lynx_Pass,607,CO,SNOTEL,Routt,8880,40.08,-106.67
1109,Madison_Butte,608,OR,SNOTEL,Morrow,5150,45.11,-119.5
1110,Magic_Mountain,610,ID,SNOTEL,Twin_Falls,6880,42.18,-114.29
1111,Mammoth-Cottonwood,612,UT,SNOTEL,Sanpete,8709,39.68,-111.32
1112,Many_Glacier,613,MT,SNOTEL,Glacier,4900,48.8,-113.67
1113,Marlette_Lake,615,NV,SNOTEL,Carson_City,7884,39.16,-119.9
1114,Marten_Ridge,999,WA,SNOTEL,Whatcom,3520,48.76,-121.7
1115,Mcneil_River_SGS,1191,AK,SNOTEL,Kenai_Peninsula,140,59.08,-154.28
1116,Med_Bow,1196,WY,SNOTEL,Carbon,10500,41.38,-106.35
1117,Medano_Pass,914,CO,SNOTEL,Saguache,9649,37.85,-105.44
1118,Merchant_Valley,621,UT,SNOTEL,Beaver,8705,38.3,-112.44
1119,Merritt_Mountain,1207,NV,SNOTEL,Elko,6908,41.89,-115.86
1120,MF_Nooksack,1011,WA,SNOTEL,Whatcom,4970,48.82,-121.93
1121,Mica_Creek,623,ID,SNOTEL,Shoshone,4510,47.15,-116.27
1122,Michigan_Creek,937,CO,SNOTEL,Park,10600,39.44,-105.91
1123,Midas,1206,NV,SNOTEL,Elko,6635,41.27,-116.8
1124,Middle_Fork_Camp,1014,CO,SNOTEL,Grand,8940,39.8,-106.03
1125,Midway_Valley,626,UT,SNOTEL,Iron,9827,37.57,-112.84
1126,Mill-D_North,628,UT,SNOTEL,Salt_Lake,8963,40.66,-111.64
1127,Miller_Woods,1084,OR,SNOTEL,Yamhill,420,45.25,-123.28
1128,Mining_Fork,631,UT,SNOTEL,Tooele,8295,40.49,-112.61
1129,Monahan_Flat,1094,AK,SNOTEL,Matanuska-Susitna,2710,63.31,-147.65
1130,Monitor_Pass,633,CA,SNOTEL,Alpine,8306,38.67,-119.61
1131,Monte_Cristo,634,UT,SNOTEL,Cache,8932,41.47,-111.5
1132,Monument_Creek,949,AK,SNOTEL,Fairbanks_North_Star,1850,65.08,-145.87
1133,Moore_Creek_Bridge,1176,AK,SNOTEL,Skagway,2250,59.59,-135.21
1134,Mormon_Mountain,640,AZ,SNOTEL,Coconino,7500,34.94,-111.52
1135,Mormon_Mtn_Summit,1125,AZ,SNOTEL,Coconino,8500,34.97,-111.51
1136,Mosby_Mtn.,643,UT,SNOTEL,Uintah,9553,40.61,-109.89
1137,Moscow_Mountain,989,ID,SNOTEL,Latah,4700,46.81,-116.85
1138,Moses_Mtn,644,WA,SNOTEL,Okanogan,5010,48.36,-119.08
1139,Mosquito_Ridge,645,ID,SNOTEL,Shoshone,5200,48.06,-116.23
1140,Moss_Springs,647,OR,SNOTEL,Union,5760,45.27,-117.69
1141,Mount_Lockhart,649,MT,SNOTEL,Teton,6400,47.92,-112.82
1142,Mt._Howard,653,OR,SNOTEL,Wallowa,7910,45.27,-117.17
1143,Mt._Ryan,948,AK,SNOTEL,Fairbanks_North_Star,2800,65.25,-146.15
1144,Mt_Baldy,1224,UT,SNOTEL,Sanpete,9524,39.14,-111.51
1145,Mt_Pennell,1269,UT,SNOTEL,Garfield,9209,37.98,-110.79
1146,Mt_Rose_Ski_Area,652,NV,SNOTEL,Washoe,8801,39.32,-119.89
1147,Mud_Flat,654,ID,SNOTEL,Owyhee,5730,42.6,-116.56
1148,Munson_Ridge,950,AK,SNOTEL,Fairbanks_North_Star,3100,64.85,-146.21
1149,Myrtle_Creek,1053,ID,SNOTEL,Boundary,3520,48.72,-116.46
1150,Navajo_Whiskey_Ck,1138,NM,SNOTEL,San_Juan,9050,36.18,-108.95
1151,Nevada_Ridge,903,MT,SNOTEL,Lewis_And_Clark,7020,46.84,-112.51
1152,Nuka_Glacier,1037,AK,SNOTEL,Kenai_Peninsula,1250,59.7,-150.71
1153,Oak_Creek,1146,UT,SNOTEL,Millard,7850,39.35,-112.33
1154,ONeil_Creek,1272,NV,SNOTEL,Elko,6520,41.86,-115.08
1155,Palo,1170,NM,SNOTEL,Taos,9350,36.41,-105.33
1156,Panguitch_Lake_RS,1148,UT,SNOTEL,Garfield,8350,37.7,-112.65
1157,Paradise,679,WA,SNOTEL,Pierce,5130,46.78,-121.75
1158,Park_Cone,680,CO,SNOTEL,Gunnison,9600,38.82,-106.59
1159,Park_Creek_Ridge,681,WA,SNOTEL,Chelan,4600,48.44,-120.92
1160,Park_Reservoir,682,CO,SNOTEL,Delta,9960,39.05,-107.87
1161,Parleys_Summit,684,UT,SNOTEL,Summit,7585,40.76,-111.63
1162,Parrish_Creek,971,UT,SNOTEL,Davis,7740,40.93,-111.81
1163,Payson_R.S.,686,UT,SNOTEL,Utah,8044,39.93,-111.63
1164,Phantom_Valley,688,CO,SNOTEL,Grand,9030,40.4,-105.85
1165,Pickle_Keg,691,UT,SNOTEL,Sevier,9020,39.01,-111.58
1166,Pierce_R.S.,1142,ID,SNOTEL,Clearwater,3080,46.5,-115.8
1167,Pine_Creek,694,UT,SNOTEL,Millard,8734,38.88,-112.25
1168,Pocket_Creek,1133,WY,SNOTEL,Sublette,9360,42.71,-109.41
1169,Poison_Flat,697,CA,SNOTEL,Alpine,7736,38.51,-119.63
1170,Pole_Canyon,1244,NV,SNOTEL,Elko,7760,40.86,-115.12
1171,Pole_Creek_R.S.,698,NV,SNOTEL,Elko,8330,41.87,-115.25
1172,Porphyry_Creek,701,CO,SNOTEL,Gunnison,10760,38.49,-106.34
1173,Port_Graham,987,AK,SNOTEL,Kenai_Peninsula,300,59.35,-151.85
1174,Prudhoe_Bay,1177,AK,SNOTEL,North_Slope,30,70.27,-148.57
1175,Quartz_Mountain,706,OR,SNOTEL,Lake,5720,42.32,-120.83
1176,Quartz_Peak,707,WA,SNOTEL,Spokane,4700,47.88,-117.09
1177,Quemazon,708,NM,SNOTEL,Los_Alamos,9500,35.92,-106.39
1178,Ragged_Mountain,1081,ID,SNOTEL,Kootenai,4210,47.86,-117.04
1179,Rainbow_Canyon,1110,NV,SNOTEL,Clark,7860,36.25,-115.63
1180,Rainy_Pass,711,WA,SNOTEL,Chelan,4890,48.52,-120.74
1181,Red_Pine_Ridge,714,UT,SNOTEL,Emery,8988,39.45,-111.27
1182,Red_River_Pass_#2,715,NM,SNOTEL,Colfax,9850,36.7,-105.34
1183,Redden_Mine_Lwr,1225,UT,SNOTEL,Summit,8532,40.68,-111.22
1184,Rees_Flat,1217,UT,SNOTEL,Juab,7206,39.5,-111.73
1185,Reynolds_Creek,2029,ID,SNOTEL,Owyhee,5600,43.29,-116.85
1186,Rio_Santa_Barbara,1254,NM,SNOTEL,Taos,10664,36.07,-105.63
1187,Rock_Creek,720,UT,SNOTEL,Duchesne,7886,40.55,-110.69
1188,Rock_Springs,721,OR,SNOTEL,Grant,5290,44.01,-118.84
1189,Rocky_Basin-Settleme,723,UT,SNOTEL,Tooele,8704,40.44,-112.22
1190,Rocky_Point,973,AK,SNOTEL,Nome,250,64.53,-163.42
1191,Rough_And_Tumble,939,CO,SNOTEL,Park,10360,39.03,-106.08
1192,Rubicon_#2,724,CA,SNOTEL,El_Dorado,7619,39.0,-120.13
1193,Sage_Creek_Basin,1015,WY,SNOTEL,Carbon,7850,41.4,-107.26
1194,Salmon_Meadows,728,WA,SNOTEL,Okanogan,4460,48.66,-119.84
1195,Salt_Creek_Falls,729,OR,SNOTEL,Lane,4220,43.61,-122.12
1196,Salt_River_Summit,730,WY,SNOTEL,Lincoln,7760,42.51,-110.91
1197,Sandstone_RS,732,WY,SNOTEL,Carbon,8150,41.11,-107.17
1198,Santa_Fe,922,NM,SNOTEL,Santa_Fe,11445,35.77,-105.78
1199,Santaquin_Meadows,1280,UT,SNOTEL,Utah,7835,39.92,-111.72
1200,Sasse_Ridge,734,WA,SNOTEL,Kittitas,4340,47.38,-121.06
1201,Savage_Pass,735,ID,SNOTEL,Idaho,6170,46.47,-114.63
1202,Sawtooth,1251,CO,SNOTEL,Boulder,9620,40.14,-105.59
1203,Schneider_Meadows,736,OR,SNOTEL,Baker,5400,45.0,-117.17
1204,Schofield_Pass,737,CO,SNOTEL,Gunnison,10700,39.02,-107.05
1205,Seeley_Creek,742,UT,SNOTEL,Sanpete,9904,39.31,-111.43
1206,Senorita_Divide_#2,744,NM,SNOTEL,Rio_Arriba,8600,36.0,-106.83
1207,Sentinel_Butte,1043,WA,SNOTEL,Ferry,4680,48.86,-118.4
1208,Seventysix_Creek,746,NV,SNOTEL,Elko,7350,41.74,-115.47
1209,Shanghi_Summit,747,ID,SNOTEL,Clearwater,4570,46.57,-115.74
1210,Sharkstooth,1060,CO,SNOTEL,Montezuma,10720,37.5,-108.11
1211,Sheep_Mtn.,749,ID,SNOTEL,Bingham,6570,43.21,-111.69
1212,Sherwin,752,ID,SNOTEL,Latah,3200,46.95,-116.34
1213,Shuree,1169,NM,SNOTEL,Colfax,10100,36.79,-105.24
1214,Sierra_Blanca,1034,NM,SNOTEL,Lincoln,10280,33.4,-105.79
1215,Silver_Creek,756,OR,SNOTEL,Lake,5740,42.96,-121.18
1216,Silver_Creek_Nv,1205,NV,SNOTEL,White_Pine,8215,39.23,-114.24
1217,Silvies,759,OR,SNOTEL,Harney,6990,42.75,-118.69
1218,Sleeping_Woman,783,MT,SNOTEL,Sanders,6150,47.18,-114.33
1219,Slumgullion,762,CO,SNOTEL,Hinsdale,11560,37.99,-107.2
1220,Smiley_Mountain,926,ID,SNOTEL,Custer,9520,43.73,-113.83
1221,Smith__Morehouse,763,UT,SNOTEL,Summit,7631,40.79,-111.09
1222,Snake_River_Station,764,WY,SNOTEL,Teton,6920,44.13,-110.67
1223,Snow_Mountain,767,OR,SNOTEL,Harney,6230,43.95,-119.54
1224,Snowbird,766,UT,SNOTEL,Salt_Lake,9617,40.56,-111.66
1225,Snowstorm_Mtn,1208,NV,SNOTEL,Elko,7384,41.34,-116.98
1226,Soldier_Park,1132,WY,SNOTEL,Johnson,8720,44.35,-107.01
1227,Somsen_Ranch,770,ID,SNOTEL,Caribou,6800,42.95,-111.36
1228,Sonora_Pass,771,CA,SNOTEL,Mono,8770,38.31,-119.6
1229,Sourdough_Gulch,985,WA,SNOTEL,Asotin,4000,46.24,-117.39
1230,South_Brush_Creek,772,WY,SNOTEL,Carbon,8440,41.33,-106.5
1231,South_Mtn.,774,ID,SNOTEL,Owyhee,6500,42.76,-116.9
1232,Spirit_Lk,1117,UT,SNOTEL,Daggett,10235,40.84,-110.01
1233,Spratt_Creek,778,CA,SNOTEL,Alpine,6063,38.67,-119.82
1234,Spur_Park,781,MT,SNOTEL,Judith_Basin,8100,46.78,-110.62
1235,Squaw_Springs,1156,UT,SNOTEL,Piute,9228,38.5,-112.01
1236,Squaw_Valley_G.C.,784,CA,SNOTEL,Placer,8013,39.19,-120.27
1237,Stag_Mountain,1203,NV,SNOTEL,Elko,7628,41.41,-115.45
1238,State_Line,1258,CA,SNOTEL,Modoc,5680,41.99,-120.72
1239,Steel_Creek_Park,790,UT,SNOTEL,Summit,10158,40.91,-110.5
1240,Stickney_Mill,792,ID,SNOTEL,Custer,7430,43.86,-114.21
1241,Strawberry_Divide,795,UT,SNOTEL,Wasatch,8123,40.16,-111.21
1242,Sucker_Creek,798,WY,SNOTEL,Sheridan,8880,44.72,-107.4
1243,Summit_Creek,955,AK,SNOTEL,Kenai_Peninsula,1400,60.62,-149.53
1244,Summit_Lk,1194,NV,SNOTEL,Humboldt,7615,41.49,-119.0
1245,Summit_Meadow,1052,CA,SNOTEL,Alpine,9313,38.4,-119.54
1246,Summit_Ranch,802,CO,SNOTEL,Summit,9400,39.72,-106.16
1247,Sunflower_Flat,1249,UT,SNOTEL,Garfield,10018,38.05,-111.34
1248,Sunset,803,ID,SNOTEL,Shoshone,5540,47.56,-115.82
1249,Susitna_Valley_High,967,AK,SNOTEL,Matanuska-Susitna,375,62.13,-150.04
1250,Suu_Ranch,1248,UT,SNOTEL,Iron,8050,37.6,-112.93
1251,Swede_Peak,805,ID,SNOTEL,Blaine,7640,43.63,-113.97
1252,Tahoe_City_Cross,809,CA,SNOTEL,Placer,6797,39.17,-120.15
1253,Takka_Wiiya,1247,UT,SNOTEL,Juab,9122,39.74,-113.98
1254,Taos_Powderhorn,1168,NM,SNOTEL,Taos,11057,36.58,-105.46
1255,Taylor_Butte,810,OR,SNOTEL,Klamath,5030,42.69,-121.43
1256,Taylor_Canyon,811,NV,SNOTEL,Elko,6325,41.23,-116.03
1257,Temple_Fork,1013,UT,SNOTEL,Cache,7406,41.79,-111.55
1258,Tent_Mtn_Lower,1202,NV,SNOTEL,Elko,7104,40.98,-115.17
1259,Thaynes_Canyon,814,UT,SNOTEL,Summit,9230,40.62,-111.53
1260,Thistle_Flat,1226,UT,SNOTEL,Sanpete,8787,39.24,-111.52
1261,Thumb_Divide,816,WY,SNOTEL,Teton,7980,44.37,-110.58
1262,Timberline,1097,UT,SNOTEL,Carbon,8736,39.68,-110.43
1263,Timpanogos_Divide,820,UT,SNOTEL,Utah,8140,40.43,-111.62
1264,Tipton,821,OR,SNOTEL,Baker,5150,44.66,-118.43
1265,Toe_Jam,1136,NV,SNOTEL,Elko,7700,41.32,-116.34
1266,Togwotee_Pass,822,WY,SNOTEL,Teton,9580,43.75,-110.06
1267,Tokositna_Valley,1089,AK,SNOTEL,Matanuska-Susitna,850,62.63,-150.78
1268,Tony_Grove_Lake,823,UT,SNOTEL,Cache,8474,41.9,-111.63
1269,Tony_Grove_RS,1113,UT,SNOTEL,Cache,6332,41.89,-111.57
1270,Touchet,824,WA,SNOTEL,Columbia,5530,46.12,-117.85
1271,Townsend_Creek,826,WY,SNOTEL,Fremont,8700,42.7,-108.9
1272,Tres_Ritos,1083,NM,SNOTEL,Taos,8600,36.13,-105.53
1273,Trial_Lake,828,UT,SNOTEL,Summit,9992,40.68,-110.95
1274,Triple_Peak,831,WY,SNOTEL,Sublette,8500,42.76,-110.59
1275,Trough,832,WA,SNOTEL,Chelan,5480,47.23,-120.29
1276,Trout_Creek,833,UT,SNOTEL,Uintah,9518,40.74,-109.67
1277,Truckee_#2,834,CA,SNOTEL,Placer,6509,39.3,-120.18
1278,Twelvemile_Creek,835,MT,SNOTEL,Ravalli,5600,46.14,-114.45
1279,Twin_Lakes,836,MT,SNOTEL,Ravalli,6400,46.14,-114.51
1280,Upper_Joes_Valley,1227,UT,SNOTEL,Emery,8596,39.42,-111.25
1281,Upper_Nome_Creek,1090,AK,SNOTEL,Yukon-Koyukuk,2520,65.37,-146.59
1282,Upper_Rio_Grande,839,CO,SNOTEL,Hinsdale,9400,37.72,-107.26
1283,Upper_San_Juan,840,CO,SNOTEL,Mineral,10200,37.49,-106.84
1284,Upper_Taylor,1141,CO,SNOTEL,Gunnison,10640,38.99,-106.75
1285,Upper_Tsaina_River,1055,AK,SNOTEL,Valdez-Cordova,1750,61.19,-145.65
1286,Usu_Doc_Daniel,1098,UT,SNOTEL,Cache,8270,41.86,-111.51
1287,Vacarro_Springs,1137,NV,SNOTEL,Eureka,7890,39.45,-115.98
1288,Vacas_Locas,1017,NM,SNOTEL,Rio_Arriba,9306,36.03,-106.81
1289,Van_Wyck,979,ID,SNOTEL,Washington,4920,44.38,-116.34
1290,Vernon_Creek,844,UT,SNOTEL,Tooele,7401,39.94,-112.41
1291,Virginia_Lakes_Ridge,846,CA,SNOTEL,Mono,9445,38.07,-119.23
1292,Ward_Creek_#3,848,CA,SNOTEL,Placer,6745,39.14,-120.22
1293,Ward_Mountain,849,NV,SNOTEL,White_Pine,9200,39.13,-114.96
1294,Waterhole,974,WA,SNOTEL,Clallam,5010,47.94,-123.43
1295,Webster_Flat,853,UT,SNOTEL,Iron,9203,37.58,-112.9
1296,Wesner_Springs,854,NM,SNOTEL,San_Miguel,11120,35.78,-105.54
1297,West_Yellowstone,924,MT,SNOTEL,Gallatin,6700,44.66,-111.09
1298,Wheeler_Peak,1147,NV,SNOTEL,White_Pine,10060,39.01,-114.31
1299,Whiskey_Ck,857,CO,SNOTEL,Las_Animas,10220,37.21,-105.12
1300,White_Horse_Lake,861,AZ,SNOTEL,Coconino,7180,35.14,-112.15
1301,White_Mill,862,MT,SNOTEL,Park,8700,45.05,-109.91
1302,White_River_#1,864,UT,SNOTEL,Wasatch,8641,39.96,-110.99
1303,White_River_Nv,1213,NV,SNOTEL,White_Pine,7367,38.95,-115.38
1304,Widtsoe_#3,865,UT,SNOTEL,Garfield,9640,37.84,-111.88
1305,Wild_Basin,1042,CO,SNOTEL,Boulder,9560,40.2,-105.6
1306,Wildhorse_Divide,867,ID,SNOTEL,Bannock,6490,42.76,-112.48
1307,Wilson_Creek,871,ID,SNOTEL,Twin_Falls,7120,42.01,-115.0
1308,Windy_Peak,872,WY,SNOTEL,Albany,7900,42.28,-105.58
1309,Wolf_Creek_Summit,874,CO,SNOTEL,Mineral,11000,37.48,-106.8
1310,Wrigley_Creek,1228,UT,SNOTEL,Sanpete,9327,39.13,-111.36
1311,Yankee_Reservoir,1197,UT,SNOTEL,Iron,8692,37.75,-112.77
1312,Zirkel,1033,CO,SNOTEL,Jackson,9340,40.79,-106.6
1313,BLM,900,CA,Soilscape,Amador,622,38.39,-120.91
1314,BLM,901,CA,Soilscape,Amador,628,38.39,-120.91
1315,BLM,902,CA,Soilscape,Amador,621,38.39,-120.91
1316,BLM,903,CA,Soilscape,Amador,629,38.39,-120.9
1317,BLM,904,CA,Soilscape,Amador,624,38.39,-120.91
1318,BLM,905,CA,Soilscape,Amador,642,38.39,-120.9
1319,BLM,906,CA,Soilscape,Amador,621,38.39,-120.91
1320,BLM,907,CA,Soilscape,Amador,615,38.39,-120.91
1321,BLM,908,CA,Soilscape,Amador,623,38.39,-120.91
1322,BLM,909,CA,Soilscape,Amador,641,38.39,-120.9
1323,BLM,910,CA,Soilscape,Amador,615,38.39,-120.91
1324,BLM,911,CA,Soilscape,Amador,623,38.39,-120.91
1325,BLM,912,CA,Soilscape,Amador,633,38.39,-120.9
1326,BLM,913,CA,Soilscape,Amador,624,38.39,-120.91
1327,BLM,914,CA,Soilscape,Amador,610,38.39,-120.91
1328,BLM,915,CA,Soilscape,Amador,602,38.39,-120.91
1329,BLM,916,CA,Soilscape,Amador,603,38.39,-120.91
1330,BLM,1000,CA,Soilscape,Amador,630,38.39,-120.91
1331,BLM,1017,CA,Soilscape,Amador,581,38.39,-120.91
1332,BLM,1018,CA,Soilscape,Amador,612,38.39,-120.91
1333,BLM,1019,CA,Soilscape,Amador,637,38.39,-120.91
1334,BLM,1020,CA,Soilscape,Amador,591,38.39,-120.91
1335,BLM,1021,CA,Soilscape,Amador,588,38.39,-120.91
1336,BLM,1022,CA,Soilscape,Amador,604,38.39,-120.91
1337,BLM,1023,CA,Soilscape,Amador,599,38.39,-120.91
1338,BLM,1024,CA,Soilscape,Amador,598,38.39,-120.91
1339,BLM,1025,CA,Soilscape,Amador,607,38.39,-120.91
1340,BLM,1026,CA,Soilscape,Amador,643,38.39,-120.91
1341,BLM,1027,CA,Soilscape,Amador,590,38.39,-120.9
1342,BLM,1028,CA,Soilscape,Amador,589,38.39,-120.9
1343,BLM,1029,CA,Soilscape,Amador,591,38.39,-120.9
1344,BLM,1030,CA,Soilscape,Amador,610,38.39,-120.91
1345,BLM,1031,CA,Soilscape,Amador,599,38.39,-120.9
1346,Canton,100,OK,Soilscape,Blaine,1749,36.0,-98.63
1347,Canton,101,OK,Soilscape,Blaine,1729,36.0,-98.63
1348,Canton,102,OK,Soilscape,Blaine,1718,36.0,-98.63
1349,Canton,103,OK,Soilscape,Blaine,1714,36.0,-98.63
1350,Canton,104,OK,Soilscape,Blaine,1713,36.0,-98.63
1351,Canton,105,OK,Soilscape,Blaine,1727,36.0,-98.63
1352,Canton,106,OK,Soilscape,Blaine,1717,36.0,-98.63
1353,Canton,107,OK,Soilscape,Blaine,1714,36.0,-98.63
1354,Canton,108,OK,Soilscape,Blaine,1713,36.0,-98.63
1355,Canton,109,OK,Soilscape,Blaine,1725,36.0,-98.63
1356,Canton,110,OK,Soilscape,Blaine,1717,36.0,-98.63
1357,Canton,111,OK,Soilscape,Blaine,1715,36.0,-98.63
1358,Canton,112,OK,Soilscape,Blaine,1713,36.0,-98.63
1359,Canton,113,OK,Soilscape,Blaine,1712,36.0,-98.63
1360,Canton,114,OK,Soilscape,Blaine,1752,36.0,-98.63
1361,Canton,115,OK,Soilscape,Blaine,1751,36.0,-98.63
1362,Canton,116,OK,Soilscape,Blaine,1722,36.0,-98.63
1363,Canton,117,OK,Soilscape,Blaine,1717,36.0,-98.63
1364,Canton,118,OK,Soilscape,Blaine,1714,36.0,-98.63
1365,Canton,119,OK,Soilscape,Blaine,1712,36.0,-98.63
1366,Canton,120,OK,Soilscape,Blaine,1712,36.0,-98.63
1367,Canton,121,OK,Soilscape,Blaine,1747,36.0,-98.63
1368,Kendall,1400,AZ,Soilscape,Cochise,5019,31.74,-109.94
1369,Kendall,1401,AZ,Soilscape,Cochise,4966,31.74,-109.94
1370,Kendall,1402,AZ,Soilscape,Cochise,4978,31.74,-109.94
1371,Kendall,1403,AZ,Soilscape,Cochise,4992,31.74,-109.94
1372,Kendall,1404,AZ,Soilscape,Cochise,4987,31.74,-109.94
1373,Kendall,1405,AZ,Soilscape,Cochise,4973,31.74,-109.94
1374,Kendall,1406,AZ,Soilscape,Cochise,4967,31.74,-109.94
1375,Kendall,1407,AZ,Soilscape,Cochise,4949,31.74,-109.95
1376,Kendall,1408,AZ,Soilscape,Cochise,4964,31.74,-109.95
1377,Kendall,1409,AZ,Soilscape,Cochise,4991,31.74,-109.95
1378,LuckyHills,1500,AZ,Soilscape,Cochise,4506,31.74,-110.05
1379,LuckyHills,1501,AZ,Soilscape,Cochise,4477,31.74,-110.05
1380,LuckyHills,1502,AZ,Soilscape,Cochise,4482,31.74,-110.05
1381,LuckyHills,1503,AZ,Soilscape,Cochise,4487,31.74,-110.05
1382,LuckyHills,1504,AZ,Soilscape,Cochise,4481,31.74,-110.05
1383,LuckyHills,1505,AZ,Soilscape,Cochise,4510,31.74,-110.05
1384,LuckyHills,1506,AZ,Soilscape,Cochise,4501,31.74,-110.05
1385,LuckyHills,1507,AZ,Soilscape,Cochise,4491,31.74,-110.05
1386,NewHogan,500,CA,Soilscape,Calaveras,772,38.15,-120.79
1387,NewHogan,501,CA,Soilscape,Calaveras,695,38.15,-120.79
1388,NewHogan,502,CA,Soilscape,Calaveras,706,38.15,-120.79
1389,NewHogan,503,CA,Soilscape,Calaveras,703,38.15,-120.79
1390,NewHogan,504,CA,Soilscape,Calaveras,700,38.15,-120.79
1391,NewHogan,505,CA,Soilscape,Calaveras,708,38.15,-120.79
1392,NewHogan,506,CA,Soilscape,Calaveras,707,38.15,-120.79
1393,NewHogan,507,CA,Soilscape,Calaveras,736,38.15,-120.79
1394,NewHogan,508,CA,Soilscape,Calaveras,740,38.15,-120.79
1395,NewHogan,509,CA,Soilscape,Calaveras,737,38.15,-120.79
1396,NewHogan,510,CA,Soilscape,Calaveras,744,38.15,-120.79
1397,NewHogan,511,CA,Soilscape,Calaveras,718,38.15,-120.79
1398,NewHogan,512,CA,Soilscape,Calaveras,716,38.15,-120.79
1399,NewHogan,513,CA,Soilscape,Calaveras,721,38.15,-120.79
1400,NewHogan,514,CA,Soilscape,Calaveras,742,38.15,-120.79
1401,NewHogan,515,CA,Soilscape,Calaveras,776,38.15,-120.79
1402,NewHogan,516,CA,Soilscape,Calaveras,766,38.15,-120.79
1403,NewHogan,517,CA,Soilscape,Calaveras,771,38.15,-120.79
1404,NewHogan,518,CA,Soilscape,Calaveras,772,38.15,-120.79
1405,NewHogan,700,CA,Soilscape,Calaveras,771,38.17,-120.81
1406,NewHogan,701,CA,Soilscape,Calaveras,764,38.17,-120.8
1407,NewHogan,702,CA,Soilscape,Calaveras,737,38.17,-120.81
1408,NewHogan,703,CA,Soilscape,Calaveras,759,38.17,-120.81
1409,NewHogan,704,CA,Soilscape,Calaveras,748,38.17,-120.81
1410,NewHogan,705,CA,Soilscape,Calaveras,732,38.17,-120.81
1411,NewHogan,706,CA,Soilscape,Calaveras,784,38.17,-120.81
1412,NewHogan,707,CA,Soilscape,Calaveras,741,38.17,-120.81
1413,NewHogan,708,CA,Soilscape,Calaveras,726,38.17,-120.81
1414,NewHogan,709,CA,Soilscape,Calaveras,727,38.17,-120.81
1415,NewHogan,710,CA,Soilscape,Calaveras,754,38.17,-120.8
1416,NewHogan,711,CA,Soilscape,Calaveras,768,38.17,-120.8
1417,NewHogan,712,CA,Soilscape,Calaveras,784,38.17,-120.8
1418,NewHogan,713,CA,Soilscape,Calaveras,781,38.17,-120.8
1419,NewHogan,715,CA,Soilscape,Calaveras,746,38.17,-120.8
1420,Terradoro,1300,CA,Soilscape,Amador,1626,38.51,-120.8
1421,Terradoro,1301,CA,Soilscape,Amador,1609,38.51,-120.8
1422,Terradoro,1302,CA,Soilscape,Amador,1606,38.51,-120.8
1423,Terradoro,1303,CA,Soilscape,Amador,1578,38.51,-120.8
1424,Terradoro,1304,CA,Soilscape,Amador,1618,38.51,-120.8
1425,Terradoro,1305,CA,Soilscape,Amador,1601,38.51,-120.8
1426,Terradoro,1306,CA,Soilscape,Amador,1566,38.51,-120.8
1427,Terradoro,1307,CA,Soilscape,Amador,1605,38.51,-120.79
1428,Terradoro,1308,CA,Soilscape,Amador,1609,38.51,-120.8
1429,Terradoro,1309,CA,Soilscape,Amador,1618,38.51,-120.8
1430,Terradoro,1310,CA,Soilscape,Amador,1572,38.51,-120.8
1431,Terradoro,1311,CA,Soilscape,Amador,1585,38.51,-120.8
1432,Terradoro,1312,CA,Soilscape,Amador,1615,38.51,-120.8
1433,Terradoro,1313,CA,Soilscape,Amador,1605,38.51,-120.8
1434,Terradoro,1314,CA,Soilscape,Amador,1602,38.51,-120.8
1435,Terradoro,1315,CA,Soilscape,Amador,1638,38.51,-120.8
1436,Terradoro,1316,CA,Soilscape,Amador,1645,38.51,-120.8
1437,Terradoro,1317,CA,Soilscape,Amador,1605,38.51,-120.8
1438,Terradoro,1318,CA,Soilscape,Amador,1621,38.5,-120.8
1439,Terradoro,1319,CA,Soilscape,Amador,1625,38.51,-120.8
1440,Terradoro,1320,CA,Soilscape,Amador,1598,38.51,-120.8
1441,Terradoro,1321,CA,Soilscape,Amador,1615,38.51,-120.8
1442,Terradoro,1322,CA,Soilscape,Amador,1651,38.5,-120.8
1443,Terradoro,1323,CA,Soilscape,Amador,1646,38.51,-120.8
1444,Terradoro,1324,CA,Soilscape,Amador,1652,38.5,-120.8
1445,Terradoro,1325,CA,Soilscape,Amador,1624,38.5,-120.8
1446,Terradoro,1327,CA,Soilscape,Amador,1668,38.51,-120.79
1447,Terradoro,1328,CA,Soilscape,Amador,1543,38.51,-120.79
1448,Tonzi,400,CA,Soilscape,Amador,563,38.43,-120.97
1449,Tonzi,401,CA,Soilscape,Amador,558,38.43,-120.97
1450,Tonzi,402,CA,Soilscape,Amador,566,38.43,-120.96
1451,Tonzi,403,CA,Soilscape,Amador,554,38.43,-120.97
1452,Tonzi,404,CA,Soilscape,Amador,562,38.43,-120.96
1453,Tonzi,405,CA,Soilscape,Amador,565,38.43,-120.96
1454,Tonzi,406,CA,Soilscape,Amador,556,38.43,-120.96
1455,Tonzi,408,CA,Soilscape,Amador,548,38.43,-120.97
1456,Tonzi,409,CA,Soilscape,Amador,549,38.43,-120.97
1457,Tonzi,410,CA,Soilscape,Amador,550,38.43,-120.97
1458,Tonzi,411,CA,Soilscape,Amador,562,38.43,-120.97
1459,Tonzi,412,CA,Soilscape,Amador,562,38.43,-120.97
1460,Tonzi,413,CA,Soilscape,Amador,564,38.43,-120.97
1461,Tonzi,414,CA,Soilscape,Amador,557,38.43,-120.97
1462,Tonzi,415,CA,Soilscape,Amador,570,38.43,-120.97
1463,Tonzi,416,CA,Soilscape,Amador,564,38.43,-120.97
1464,Tonzi,417,CA,Soilscape,Amador,561,38.43,-120.97
1465,Tonzi,418,CA,Soilscape,Amador,564,38.43,-120.97
1466,Tonzi,419,CA,Soilscape,Amador,560,38.43,-120.97
1467,Tonzi,420,CA,Soilscape,Amador,564,38.43,-120.97
1468,Alapaha_Range_Grazing_Unit_-_Blueberry_Farm,ALAPAHA,GA,UGAWN,Berrien,272,31.34,-83.24
1469,Albany_State_University,DUCKER,GA,UGAWN,Dougherty,197,31.53,-84.37
1470,Alma_-_Bacon_County_Airport,ALMA,GA,UGAWN,Bacon,194,31.54,-82.51
1471,Atlanta_Athletic_Club_Golf_Course,DULUTH,GA,UGAWN,Fulton,925,34.0,-84.19
1472,Attapulgus_Research_and_Education_Center,ATTAPUL,GA,UGAWN,Decatur,272,30.76,-84.49
1473,Bledsoe_Research_Farm,BLEDSOE,GA,UGAWN,Pike,869,33.18,-84.41
1474,Booth_Berry_Farms,HOMERV,GA,UGAWN,Clinch,154,31.02,-82.66
1475,Boston_Tractor_Co._Inc.,DIXIE,GA,UGAWN,Brooks,197,30.79,-83.67
1476,Bowen_Research_Farm_at_the_Coastal_Plain_Experiment_Station,BOWEN,GA,UGAWN,Tift,358,31.48,-83.44
1477,Bulloch_County_Board_of_Education_Maintenance_&_Transportation_Annex,STATES,GA,UGAWN,Bulloch,249,32.49,-81.81
1478,Butler_Farm,LAFAYET,GA,UGAWN,Walker,883,34.76,-85.38
1479,Butler_Place,BUTLER,GA,UGAWN,Taylor,640,32.55,-84.19
1480,Callaway_Gardens,CALLAWAY,GA,UGAWN,Harris,850,32.84,-84.84
1481,Catahoula_Farms,CORDELE,GA,UGAWN,Crisp,285,32.02,-83.94
1482,Center_for_Applied_Nursery_Research_McCorkle_Nurseries,DEARING,GA,UGAWN,McDuffie,469,33.37,-82.4
1483,Central_Georgia_Research_and_Education_Center,EATONTON,GA,UGAWN,Putnam,538,33.4,-83.49
1484,Cherokee_Town_and_Country_Club,DUNWOODY,GA,UGAWN,Fulton,1050,33.99,-84.36
1485,Clyde_Kirkland_Farm,DOUGLAS,GA,UGAWN,Coffee,213,31.49,-82.79
1486,Coastal_Georgia_Botanical_Gardens,SAVANNAH,GA,UGAWN,Chatham,16,32.0,-81.27
1487,Coastal_Plain_Experiment_Station,TIFTON,GA,UGAWN,Tift,387,31.49,-83.53
1488,Coffee_Farms,HATLEY,GA,UGAWN,Crisp,440,31.92,-83.63
1489,College_of_Coastal_Georgia,BRUNSW,GA,UGAWN,Glynn,10,31.19,-81.48
1490,Colquitt_Electric_Membership_Corporation,VALDOSTA,GA,UGAWN,Lowndes,203,30.82,-83.32
1491,County_Commission,SPARTA,GA,UGAWN,Hancock,535,33.28,-82.97
1492,Dempsey_Research_Farm,DEMPSEY,GA,UGAWN,Spalding,906,33.25,-84.3
1493,Donalsonville_Municipal_Airport,DONALSON,GA,UGAWN,Seminole,138,31.02,-84.88
1494,Etowah_River_Treatment_Facility,BALLGND,GA,UGAWN,Cherokee,1007,34.29,-84.38
1495,Fort_Valley_State_University,FTVALLEY,GA,UGAWN,Peach,499,32.53,-83.89
1496,Gainesville_State_College,OAKWOOD,GA,UGAWN,Hall,1178,34.24,-83.87
1497,Georgia_Mountain_Research_and_Education_Center,BLAIRSVI,GA,UGAWN,Union,1936,34.84,-83.93
1498,Golf_Club_of_Georgia,ALPHARET,GA,UGAWN,Fulton,1043,34.09,-84.22
1499,Griffin_Campus,GRIFFIN,GA,UGAWN,Spalding,935,33.26,-84.28
1500,Griggs_Farm,UNADILLA,GA,UGAWN,Dooly,417,32.26,-83.66
1501,Hardin_Farm,ARABI,GA,UGAWN,Crisp,328,31.83,-83.82
1502,Hillcrest_Orchards,ELLIJAY,GA,UGAWN,Gilmer,1667,34.62,-84.37
1503,Hooks-Hanner_Environmental_Resource_Center_-_USDA-ARS_National_Peanut_Research_Labor,HHERC,GA,UGAWN,Terrell,318,31.73,-84.4
1504,Horticulture_Research_Farm,WATHORT,GA,UGAWN,Oconee,774,33.89,-83.42
1505,Iron_Horse_Farm,PENFIELD,GA,UGAWN,Oconee,715,33.72,-83.31
1506,J._Phil_Campbell_Sr._Natural_Resources_Conservation_Center,WATUSDA,GA,UGAWN,Oconee,784,33.87,-83.45
1507,Jaemor_Farms,ALTO,GA,UGAWN,Habersham,1309,34.42,-83.65
1508,John_A._Flowers_Blueberry_Farm,ODUM,GA,UGAWN,Wayne,144,31.63,-82.05
1509,Joseph_W._Jones_Ecological_Research_Center,NEWTON,GA,UGAWN,Baker,148,31.22,-84.48
1510,Lake_Lanier,GAINES,GA,UGAWN,Hall,1073,34.35,-83.79
1511,Laurens_County_Emergency_Management_Service_and_911_Center,DUBLIN,GA,UGAWN,Laurens,226,32.5,-82.92
1512,Madison_County_Emergency_Medical_Services,DANVILLE,GA,UGAWN,Madison,778,34.15,-83.24
1513,Marine_Corps_Logistics_Base_Albany,ALBANY,GA,UGAWN,Dougherty,207,31.55,-84.05
1514,Mercier_Orchards,BLURIDGE,GA,UGAWN,Fannin,1798,34.89,-84.34
1515,Miles_Berry_Farm,BAXLEY,GA,UGAWN,Appling,203,31.75,-82.44
1516,Mixon_Farms,WAYCROSS,GA,UGAWN,Ware,154,31.21,-82.5
1517,Multi-Crop_Irrigation_Research_Farm_-_USDA-ARS_National_Peanut_Research_Laboratory,SHELLMAN,GA,UGAWN,Randolph,384,31.74,-84.61
1518,Murphy_Farm,BYROMVIL,GA,UGAWN,Dooly,387,32.19,-83.88
1519,Newman_Farm,NEWMAN,GA,UGAWN,Terrell,387,31.79,-84.49
1520,Northwest_Georgia_Research_and_Education_Center,CALHOUN,GA,UGAWN,Gordon,679,34.56,-84.82
1521,Northwest_Georgia_Research_and_Education_Center,FLOYD,GA,UGAWN,Floyd,614,34.34,-85.12
1522,Ossabaw_Island,OSSABAW,GA,UGAWN,Chatham,0,31.84,-81.09
1523,Paulding_County_High_School,DALLAS,GA,UGAWN,Paulding,1066,33.89,-84.84
1524,Peavy_Farm,VIENNA,GA,UGAWN,Dooly,436,32.11,-83.68
1525,Plant_Sciences_Research_Farm,WATUGA,GA,UGAWN,Oconee,833,33.87,-83.54
1526,Plant_Wansley,WANSLEY,GA,UGAWN,Carroll,873,33.42,-85.06
1527,Ponder_Farm,TYTY,GA,UGAWN,Tift,367,31.51,-83.65
1528,Richard_B._Russell_Dam_and_Lake,ELBERTON,GA,UGAWN,Elbert,476,34.02,-82.61
1529,Satilla_Blueberry_Farm,WOODBINE,GA,UGAWN,Camden,13,30.96,-81.77
1530,Seldom_Rest_Farm,STEAMILL,GA,UGAWN,Seminole,177,30.96,-84.95
1531,Seminole_State_Park,SEMINOLE,GA,UGAWN,Seminole,89,30.81,-84.88
1532,Southeast_Georgia_Research_and_Education_Center,MIDVILLE,GA,UGAWN,Burke,259,32.88,-82.22
1533,Southwest_Georgia_Research_and_Education_Center,PLAINS,GA,UGAWN,Sumter,518,32.05,-84.37
1534,Stanley_Farms,VIDALIA,GA,UGAWN,Toombs,246,32.14,-82.35
1535,Stripling_Irrigation_Research_Park,CAMILLA,GA,UGAWN,Mitchell,161,31.28,-84.29
1536,Sunbelt_Agricultural_Exposition,MOULTRIE,GA,UGAWN,Colquitt,299,31.15,-83.72
1537,Sunny_View_Farms,GEORGETO,GA,UGAWN,Quitman,328,31.78,-85.06
1538,T_Brim_Farm,SASSER,GA,UGAWN,Terrell,299,31.71,-84.37
1539,Telfair_County_Jaycees_Fairground,MCRAE,GA,UGAWN,Telfair,180,32.08,-82.9
1540,The_Beach_at_Clayton_County_International_Park,JONESB,GA,UGAWN,Clayton,814,33.52,-84.31
1541,The_Georgia_FFA-FCCLA_Center,COVING,GA,UGAWN,Newton,702,33.44,-83.84
1542,The_Landings_on_Skidaway_Island,SKIDAWAY,GA,UGAWN,Chatham,0,31.95,-81.04
1543,Three_Sisters_Vineyards,DAHLON,GA,UGAWN,Lumpkin,1680,34.61,-83.88
1544,Thurmond_Dam_and_Lake,CLARKSHI,GA,UGAWN,McCormick,240,33.66,-82.19
1545,Tiger_Mountain_Orchards,TIGER,GA,UGAWN,Rabun,1998,34.85,-83.43
1546,Tony_Smith_Farms,ARLINGT,GA,UGAWN,Baker,213,31.35,-84.63
1547,Twiggs_County_Comprehensive_Middle_High_School,JVILLE,GA,UGAWN,Twiggs,525,32.68,-83.36
1548,UGA_Costa_Rica_Campus,SANLUIS,GA,UGAWN,Costa_Rica,3563,10.28,-84.8
1549,USDA-ARS._National_Peanut_Research_Lab,DAWSON,GA,UGAWN,Terrell,328,31.76,-84.44
1550,USDA-ARS_Southeastern_Fruit_&_Nut_Tree_Laboratory,BYRON,GA,UGAWN,Peach,489,32.66,-83.74
1551,Washington_County_Farm_Bureau_Ag_Center,TENNILLE,GA,UGAWN,Washington,469,32.93,-82.8
1552,Wight_Nurseries,CAIRO,GA,UGAWN,Grady,259,30.86,-84.23
1553,ZBLU_Berry_Farms,NAHUNTA,GA,UGAWN,Brantley,66,31.18,-82.01
1554,Ag._Res._Svc._Central_Plains_Exp._Range_(SGS_LTER_at_CSU),94074,CO,USCRN,Nunn,5390,40.8,-104.75
1555,Agassiz_National_Wildlife_Refuge_(Maintenance_Shop_Site),4994,MN,USCRN,Goodridge,1150,48.3,-95.87
1556,Agate_Fossil_Beds_National_Monument_(Visitor_Center_Site),94077,NE,USCRN,Harrison,4406,42.42,-103.73
1557,AK_Department_of_Natural_Resources_Haul_Road),26565,AK,USCRN,Deadhorse,30,70.16,-148.46
1558,AK_Department_of_Natural_Resources_Haul_Road),UN,AK,USCRN,Deadhorse,30,70.16,-148.46
1559,Anheuser_Busch_Coastal_Res._Ctr._Univ._of__VA_(Oyster),3739,VA,USCRN,Cape_Charles,29,37.29,-75.92
1560,Aransas_National_Wildlife_Refuge_(Weather_Site),23906,TX,USCRN,Port_Aransas,15,28.3,-96.82
1561,Archbold_Biological_Station,92827,FL,USCRN,Sebring,150,27.15,-81.36
1562,Arctic_Slope_Regional_Corporation_Ivotuk_Airstrip,26564,AK,USCRN,Ivotuk,1909,68.48,-155.75
1563,Arctic_Slope_Regional_Corporation_Ivotuk_Airstrip,UN,AK,USCRN,Ivotuk,1909,68.48,-155.75
1564,Aroostook_National__Wildlife_Ref._(Fire_Training_Area),94645,ME,USCRN,Limestone,737,46.96,-67.88
1565,ARS_NW__Watershed_Research_Cntr._(Reynolds_Creek_Site),4127,ID,USCRN,Murphy,3950,43.2,-116.75
1566,Auburn_University_Black_Belt_Research_and_Extension_Center,63858,AL,USCRN,Selma,193,32.45,-87.24
1567,Auburn_University_Gulf_Coast_Research_and_Extension_Center,63869,AL,USCRN,Fairhope,95,30.54,-87.87
1568,Audubon_Center_of__the_North_Woods,54932,MN,USCRN,Sandstone,1130,46.11,-92.99
1569,Audubon_Society_(Spring_Creek_Prairie_Site),94996,NE,USCRN,Lincoln,1372,40.69,-96.85
1570,Babbitt_Ranches_(Meridian_Site),53155,AZ,USCRN,Williams,5990,35.75,-112.33
1571,Balcones_National_Wildlife_Refuge_(Flying_X_Ranch),23907,TX,USCRN,Austin,1361,30.62,-98.08
1572,Bannack_State_Park_Old_Freight_Road_Site,4137,MT,USCRN,Dillon,5971,45.15,-113.0
1573,Barrow_Obsv._NOAA_Earth_Systems_Res._Lab._Global_Mon._Div.,27516,AK,USCRN,Barrow,15,71.32,-156.61
1574,Bear_Lodge_Ranger_Dist_Black_Hills_NF_(Massengale_Flats_Site),94088,WY,USCRN,Sundance,5792,44.51,-104.43
1575,Big_Bend_National_Park,22016,TX,USCRN,Panther_Junction,3494,29.34,-103.2
1576,Big_Cypress_National_Preserve_(Ochopee_Headquarters_Vista_Site),92826,FL,USCRN,Everglades_City,4,25.89,-81.31
1577,Black_Canyon_of_the_Gunnison_National_Park_(Vernal_Mesa),3060,CO,USCRN,Montrose,8402,38.54,-107.69
1578,BLM_Appleton-Whittell_Research_Ranch,53132,AZ,USCRN,Elgin,4811,31.59,-110.5
1579,BLM_Paxson_Airport,56401,AK,USCRN,Glennallen,2669,63.02,-145.5
1580,BLM_Paxson_Airport,UN,AK,USCRN,Glennallen,2669,63.02,-145.5
1581,Brewton,63899,AL,USCRN,Brewton,170,31.14,-87.05
1582,Canaan_Valley_Resort_State_Park_(Cabins_Area),3733,WV,USCRN,Elkins,3390,39.01,-79.47
1583,Capitol_Reef_National_Park_Goosenecks_Road_Site,53149,UT,USCRN,Torrey,6204,38.3,-111.29
1584,Chilton_County_Airport,63891,AL,USCRN,Clanton,584,32.85,-86.61
1585,Clemson_University_(Edisto_Research_&_Edu._Ctr.),63826,SC,USCRN,Blackville,317,33.35,-81.32
1586,Cornell_University_(Harford_Teaching_&_Research_Center),64758,NY,USCRN,Ithaca,1228,42.44,-76.24
1587,Craig_Field_Airport,63897,AL,USCRN,Selma,157,32.33,-86.97
1588,Craters_of_the_Moon_NM_&_Preserve_(Headquarters_Area),4126,ID,USCRN,Arco,5920,43.46,-113.55
1589,Cumberland_Island_National_Seashore_(Stafford_Field),63856,GA,USCRN,Brunswick,25,30.8,-81.45
1590,Death_Valley_National_Park_(Stovepipe_Wells_Site),53139,CA,USCRN,Stovepipe_Wells,84,36.6,-117.14
1591,Des_Lacs_National_Wildlife_Refuge_(HB-4_Site),94084,ND,USCRN,Northgate,1842,48.96,-102.17
1592,Dinosaur_National_Monument_(Hdq._Maintenance_Site),94082,CO,USCRN,Dinosaur,6062,40.24,-108.96
1593,DOI_William_L._Finley_NWR_(East_end_of_Field_22),4236,OR,USCRN,Corvallis,312,44.41,-123.32
1594,Duke_Forest_-_Duke_University,3758,NC,USCRN,Durham,562,35.97,-79.09
1595,Environment_Canada_CARE_site,64757,ON,USCRN,Egbert,807,44.23,-79.78
1596,EROS_Data_Center,4990,SD,USCRN,Sioux_Falls,1594,43.73,-96.62
1597,Feldun-Purdue_Agricultural_Center_(Pasture_17_Site),63898,IN,USCRN,Bedford,760,38.88,-86.57
1598,Fort_Peck_Indian_Res._(Give_Out_Morgan_Site),94059,MT,USCRN,Wolf_Point,2643,48.48,-105.2
1599,Fort_Peck_Indian_Res._(Poplar_River_Site),94060,MT,USCRN,Wolf_Point,2085,48.3,-105.1
1600,Fort_Pierre_National_Grassland_(Chester_West),94085,SD,USCRN,Pierre,2124,44.01,-100.35
1601,FS_Tongass_National_Forest_(Yakutat),25382,AK,USCRN,Yakutat,26,59.5,-139.68
1602,Ft._Chadbourne_Foundation_(Foundation_Entrance_Site),3072,TX,USCRN,Bronte,1997,32.04,-100.24
1603,FWS_Nowitna_National_Wildlife_Refuge_(Lake_Site),96406,AK,USCRN,Ruby,259,64.5,-154.12
1604,FWS_Nowitna_National_Wildlife_Refuge_(Lake_Site),UN,AK,USCRN,Ruby,259,64.5,-154.12
1605,FWS_Selawik_National_Wildlife_Refuge_(Cabin_Site),96407,AK,USCRN,Selawik,22,66.56,-159.0
1606,FWS_Selawik_National_Wildlife_Refuge_(Cabin_Site),UN,AK,USCRN,Selawik,22,66.56,-159.0
1607,FWS_Tetlin_National_Wildlife_Refuge_(Seaton_Roadhouse_site),96404,AK,USCRN,Tok,2000,62.73,-141.2
1608,FWS_Tetlin_National_Wildlife_Refuge_(Seaton_Roadhouse_site),UN,AK,USCRN,Tok,2000,62.73,-141.2
1609,Glacier_National_Park_(St._Mary_Site),4130,MT,USCRN,St._Mary,4555,48.74,-113.43
1610,Golden_Spike_National_Historic_Site_(Visitor_Center_Site),4138,UT,USCRN,Brigham_City,4951,41.61,-112.54
1611,Grand_Teton_National_Park,4131,WY,USCRN,Moose,6466,43.66,-110.71
1612,Great_Basin_National_Park_(Gravel_Pit_Site),53138,NV,USCRN,Baker,6617,39.01,-114.2
1613,Gudmundsen_Sandhills_Laboratory_(Site_1),94079,NE,USCRN,Whitman,3740,42.06,-101.44
1614,Hale_County_Jail,63893,AL,USCRN,Greensboro,280,32.71,-87.62
1615,Heflin_Lock,63892,AL,USCRN,Gainesville,107,32.83,-88.13
1616,Highland_Home,73802,AL,USCRN,Highland_Home,614,31.91,-86.31
1617,Institute_of_Ecosystem_Studies_(Environmental_Monitoring_Station),64756,NY,USCRN,Millbrook,413,41.78,-73.74
1618,John_Day_Fossil_Beds_Nat'l._Mon.(Sheep_Rock_Hdqs.),4125,OR,USCRN,John_Day,2245,44.55,-119.64
1619,Jornada_USDA_ARS_Experimental_Range_(Jornada_Headquarters_Site),3074,NM,USCRN,Las_Cruces,4327,32.61,-106.74
1620,Kansas_State_University_(Konza_Prairie_Biological_Station),53974,KS,USCRN,Manhattan,1137,39.1,-96.6
1621,Kenai_National_Wildlife_Refuge_(Kenai_Moose_Research_Center),26563,AK,USCRN,Kenai,282,60.72,-150.44
1622,Kesterson_Reservoir_(US_Bureau_of_Reclamation),93243,CA,USCRN,Merced,78,37.23,-120.88
1623,Lake_Clark_National_Park,26562,AK,USCRN,Port_Alsworth,321,60.19,-154.31
1624,Lawrence_County_Airport,63868,AL,USCRN,Courtland,575,34.66,-87.34
1625,LFST_Br._Exp._Stn.Univ.of_AR_Div.of_Agriculture(Field_#1),23904,AR,USCRN,Batesville,455,35.82,-91.78
1626,Lower_Rio_Grande_Valley_NWR_(La_Sal_Del_Rey),12987,TX,USCRN,Edinburg,64,26.52,-98.06
1627,Mammoth_Cave_National_Park_(Job_Corps_Site),63849,KY,USCRN,Bowling_Green,790,37.25,-86.23
1628,Mauna_Loa_Obsv._NOAA_Earth_Systems_Res._Lab.Global_Mon._Div.,21514,HI,USCRN,Mauna_Loa,11179,19.53,-155.57
1629,Mesa_Verde_National_Park_(Far_View_Site),3061,CO,USCRN,Cortez,8034,37.25,-108.5
1630,Michigan_State_University_(Upper_Peninsula_Experiment_Station),54810,MI,USCRN,Chatham,875,46.33,-86.92
1631,Mississippi_State_University_(Coastal_Plain_Exp._Station),63831,MS,USCRN,Newton,374,32.33,-89.07
1632,Montana_Department__Fish_Wildlife_&_Parks_Judith_River_WMA,4140,MT,USCRN,Lewistown,5070,46.88,-110.28
1633,Mountain_Research_Station_INSTAAR_Univ._of_CO_(Hills_Mill),94075,CO,USCRN,Boulder,9828,40.03,-105.54
1634,MSU_MAFES_North_MS_R&E_Center_(North_MS_Branch),23803,MS,USCRN,Holly_Springs,484,34.82,-89.43
1635,Muleshoe_National_Wildlife_Refuge_(Headquarters_Site),3054,TX,USCRN,Muleshoe,3742,33.95,-102.77
1636,Muscle_Shoals_TVA,63894,AL,USCRN,Muscle_Shoals,530,34.77,-87.63
1637,NANA_Regional_Corp_Red_Dog_Mine,26655,AK,USCRN,Red_Dog_Mine,942,68.02,-162.92
1638,NASA_(National_Scientific_Balloon_Facility),53968,TX,USCRN,Palestine,383,31.77,-95.72
1639,NASA_Kennedy_Space_Center_SLF_Mid-Field_Site,92821,FL,USCRN,Titusville,3,28.61,-80.69
1640,National_Weather_Service_Gaylord,54854,MI,USCRN,Gaylord,1461,44.9,-84.72
1641,Nature_Conservancy_(Red_Canyon_Ranch),94078,WY,USCRN,Lander,5773,42.67,-108.66
1642,NC_Mtn._Horticultural_Crops_Res._Ctr._(Backlund_Site),53878,NC,USCRN,Asheville,2103,35.41,-82.55
1643,Neal_Smith_NWR_(NOAA_Station_Site),54902,IA,USCRN,Des_Moines,921,41.55,-93.28
1644,Necedah_National_Wildlife_Refuge_(Rynearson_Dam_No._2),54903,WI,USCRN,Necedah,933,44.06,-90.17
1645,Nevada_Test_Site_(Desert_Rock_Meteorological_Lab),53136,NV,USCRN,Mercury,3284,36.62,-116.02
1646,NOAA_/_NESDIS_(FCDAS),26494,AK,USCRN,Fairbanks,1140,64.97,-147.51
1647,NOAA_National_Weather_Service_(Annette_Island),25381,AK,USCRN,Metlakatla,105,55.04,-131.58
1648,NOAA_National_Weather_Service_St_Paul,25711,AK,USCRN,St._Paul,20,57.15,-170.21
1649,North_Alabama_Horticultural_Research_Center,63867,AL,USCRN,Cullman,800,34.19,-86.79
1650,North_Carolina__Arboretum_(Bierbaum_Site),53877,NC,USCRN,Asheville,2151,35.49,-82.61
1651,North_Cascades_National_Park_(Marblemount),4223,WA,USCRN,Darrington,407,48.54,-121.44
1652,North_Dakota_State_University_Central_Grasslands_(Sec._14_Site),54937,ND,USCRN,Jamestown,1920,46.77,-99.47
1653,Northern_Great_Basin_Experimental_Range_(Rainout_Site),4128,OR,USCRN,Riley,4583,43.47,-119.69
1654,Northern_Illinois_Agronomy_Research_Center,54811,IL,USCRN,Shabbona,861,41.84,-88.85
1655,NPS_Denali_National_Park_(Wonder_Lake_Campground_Site),96408,AK,USCRN,Denali,2225,63.45,-150.87
1656,NPS_Denali_National_Park_(Wonder_Lake_Campground_Site),UN,AK,USCRN,Denali,2225,63.45,-150.87
1657,NPS_Katmai_National_Park_(Contact_Creek),25522,AK,USCRN,King_Salmon,661,58.2,-155.92
1658,NPS_Katmai_National_Park_(Contact_Creek),UN,AK,USCRN,King_Salmon,661,58.2,-155.92
1659,NPS_Valles_Caldera_National_Preserve,3062,NM,USCRN,Los_Alamos,8716,35.85,-106.52
1660,OK__Panhandle_Research_&_Extn._Center_(Native_Grassland_Site),3055,OK,USCRN,Goodwell,3266,36.59,-101.59
1661,Oklahoma_Panhandle_State_Univ._School_of_Agriculture_(Permanent_Pasture),53182,OK,USCRN,Goodwell,3282,36.56,-101.6
1662,Oklahoma_State_Univ._(Ag.__Research_Farm_Site),53926,OK,USCRN,Stillwater,890,36.11,-97.09
1663,Oklahoma_State_University_(Efaw_Farm_Site),53927,OK,USCRN,Stillwater,888,36.13,-97.1
1664,Oliver_Lock_&_Dam,73801,AL,USCRN,Northport,150,33.21,-87.59
1665,Olympic_National_Park_(Bishop_Field_Site),4237,WA,USCRN,Quinault,286,47.51,-123.81
1666,OSU_Ohio_Agricultural_Research_&_Development_Center_(Snyder_Farm_Site),54856,OH,USCRN,Wooster,1102,40.76,-81.91
1667,Robert_W._Woodruff_Foundation_(Ichauway-Dubignon_Site),63829,GA,USCRN,Newton,156,31.19,-84.44
1668,Robert_W._Woodruff_Foundation_(Ichauway-George_Site),63828,GA,USCRN,Newton,176,31.31,-84.47
1669,Roshydromet_Observatory_at_Tiksi,37201,SA,USCRN,Tiksi,30,71.58,128.91
1670,Russellville,63895,AL,USCRN,Russellville,720,34.45,-87.71
1671,San_Diego_State_Univ's_Santa_Margarita_Ecological_Reserve_(Old_Mine_Road),53151,CA,USCRN,Fallbrook,1140,33.43,-117.19
1672,Sand_Mountain_Research_/_Extension__(Northwest_Pasture),63857,AL,USCRN,Gadsden,1152,34.28,-85.96
1673,Sandhills_State_Park,3047,TX,USCRN,Monahans,2724,31.62,-102.8
1674,SCDNR_(Santee_Coastal_Reserve),3728,SC,USCRN,McClellanville,9,33.15,-79.36
1675,Scottsboro,63896,AL,USCRN,Scottsboro,636,34.69,-85.99
1676,SDSU_Antelope_Research_Station_(Calving_Pasture_Site),94081,SD,USCRN,Buffalo,2883,45.51,-103.3
1677,Sevilleta_National_Wildlife_Refuge_(LTER_Site),3048,NM,USCRN,Socorro,4847,34.35,-106.88
1678,Shawnee_Trail_Conservation_Area,23908,MO,USCRN,Joplin,952,37.42,-94.58
1679,Sheldon_National_Wildlife_Refuge_(Little_Sheldon_Site),4139,NV,USCRN,Denio,6500,41.84,-119.63
1680,Sonora_Desert_Museum,53131,AZ,USCRN,Tucson,2733,32.23,-111.16
1681,South_Slough_National_Estuarine_Research_Reserve_(Frederickson_Marsh_Site),4141,OR,USCRN,Coos_Bay,12,43.27,-124.31
1682,Stroud_Water_Research_Center,3761,PA,USCRN,Avondale,400,39.85,-75.78
1683,Talladega_Municipal_Airport,73803,AL,USCRN,Talladega,525,33.57,-86.05
1684,The_Nature_Conservancy_(Samuel_H._Ordway_Prairie_Hdq._Site),54933,SD,USCRN,Aberdeen,1957,45.71,-99.12
1685,The_Nature_Conservancy_Gustavus_Forelands_Preserve,25380,AK,USCRN,Gustavus,20,58.42,-135.69
1686,The_Nature_Conservancy_Gustavus_Forelands_Preserve,UN,AK,USCRN,Gustavus,20,58.42,-135.69
1687,The_Nature_Conservancy_Kansas_(Smoky_Valley_Ranch),3067,KS,USCRN,Oakley,2870,38.87,-100.96
1688,Theodore_Roosevelt_National_Park_(Painted_Canyon_Site),94080,ND,USCRN,Medora,2771,46.89,-103.37
1689,Thomas_Jefferson_Foundation,3759,VA,USCRN,Charlottesville,1177,37.99,-78.46
1690,Thomasville,23802,AL,USCRN,Thomasville,350,31.88,-87.73
1691,Troy,23801,AL,USCRN,Troy,472,31.79,-86.0
1692,U.S._Army_Yuma_Proving_Ground__(Redbluff_Pavement_Site),53154,AZ,USCRN,Yuma,620,32.83,-114.18
1693,Univ._of_California_-_Santa_Barbara_(Coal_Oil_Point_Reserve),53152,CA,USCRN,Santa_Barbara,18,34.41,-119.87
1694,Univ._of_Illinois_(Bondville_Environ._&_Atmos._Resrch._Stn.),54808,IL,USCRN,Champaign,700,40.05,-88.37
1695,Univ._of_Tennessee_(Plateau_Research_and_Education_Center),63855,TN,USCRN,Crossville,1913,36.01,-85.13
1696,University_of_California_-_Davis_(Bodega_Marine_Laboratory),93245,CA,USCRN,Bodega,63,38.32,-123.07
1697,University_of_GA_Phil_Campbell_Sr_Natural_Resource_Conservation_Center,63850,GA,USCRN,Watkinsville,741,33.78,-83.38
1698,University_of_Hawaii_Waiakea__Experiment_Station,21515,HI,USCRN,Hilo,622,19.64,-155.08
1699,University_of_Kentucky_(Woodford_County_Site),63838,KY,USCRN,Versailles,891,38.09,-84.74
1700,University_of_Louisiana_at_Lafayette_(Cade_Farm),53960,LA,USCRN,Lafayette,35,30.09,-91.87
1701,University_of_Maine__(Rogers_Farm_Site),94644,ME,USCRN,Old_Town,127,44.92,-68.7
1702,University_of_Missouri_(Forage_Systems_Research_Station),13301,MO,USCRN,Chillicothe,833,39.86,-93.14
1703,University_of_Nebraska_(Prairie_Pines_Site),94995,NE,USCRN,Lincoln,1189,40.84,-96.56
1704,University_of_New_Hampshire_(Kingman_Farm_Site),54794,NH,USCRN,Durham,119,43.17,-70.92
1705,University_of_New_Hampshire_(Thompson_Farm_Site),54795,NH,USCRN,Durham,63,43.1,-70.94
1706,University_of_Rhode_Island_(Peckham_Farm_Site),54797,RI,USCRN,Kingston,106,41.47,-71.54
1707,University_of_Rhode_Island_(Plains_Road_Site),54796,RI,USCRN,Kingston,115,41.49,-71.54
1708,Upper_Ouachita_National_Wildlife_Refuge,53961,LA,USCRN,Monroe,88,32.88,-92.11
1709,US_Fish_&_Wildlife_Service_Turnbull_NWR_(Headquarters_Site),4136,WA,USCRN,Spokane,2267,47.41,-117.52
1710,USDA_Comanche_National_Grassland,3063,CO,USCRN,La_Junta,4386,37.86,-103.82
1711,USGS__Sitka_Magnetic_Observatory,25379,AK,USCRN,Sitka,78,57.05,-135.32
1712,USGS_Shumagin_Magnetic_Observatory,25630,AK,USCRN,Sand_Point,240,55.34,-160.46
1713,Valley_Head,63862,AL,USCRN,Valley_Head,1020,34.56,-85.61
1714,Whiskeytown_National_Recreation_Area_(RAWS_Site),4222,CA,USCRN,Redding,1418,40.65,-122.6
1715,White_River_Trace_Conservation_Area_(Stand_4_Compartment_7),23909,MO,USCRN,Salem,1198,37.63,-91.72
1716,Yosemite_National_Park_(Crane_Flat_Lookout),53150,CA,USCRN,Yosemite_Village,6620,37.75,-119.82
1717,ABER,2,TX,WTM,Hale,3333,33.88,-101.76
1718,AIKE,79,TX,WTM,Hale,3321,34.13,-101.57
1719,AMAS,75,TX,WTM,Randall,3611,35.11,-101.8
1720,AMHE,16,TX,WTM,Lamb,3647,34.02,-102.4
1721,AMNW,82,TX,WTM,Potter,3323,35.42,-101.93
1722,ANTO,30,TX,WTM,Hockley,3405,33.73,-102.19
1723,ASPE,41,TX,WTM,Aspermont_(Stonewall_Co._Airp.),1740,33.17,-100.2
1724,BIGL,64,TX,WTM,Big_Lake_(Reagan_Co._Airport),2701,31.19,-101.47
1725,BOOT,69,TX,WTM,Western_Deaf_Smith,4423,34.89,-102.99
1726,BROW,10,TX,WTM,Terry,3314,33.15,-102.27
1727,CAPR,61,TX,WTM,Briscoe,2650,34.41,-101.07
1728,CHIL,50,TX,WTM,Childress,1943,34.46,-100.2
1729,CLAR,35,TX,WTM,Donley,2836,34.92,-100.93
1730,CLAU,74,TX,WTM,Armstrong,3451,34.98,-101.5
1731,CLYD,92,TX,WTM,Callahan,2017,32.41,-99.53
1732,COYA,63,TX,WTM,Pecos,2569,31.28,-103.07
1733,CROW,103,TX,WTM,Foard,1483,33.98,-99.71
1734,DENV,45,TX,WTM,Yoakum,3652,32.99,-102.94
1735,DIMM,21,TX,WTM,Castro,3876,34.57,-102.29
1736,DORA,53,TX,WTM,Roosevelt,4340,33.92,-103.36
1737,DOZI,81,TX,WTM,Collingsworth,2267,35.08,-100.39
1738,FLOY,8,TX,WTM,Floyd,3179,34.0,-101.33
1739,FLUV,31,TX,WTM,Northeast_Borden,2705,32.9,-101.2
1740,FRIO,20,TX,WTM,Parmer,4005,34.65,-102.69
1741,GDNT,85,TX,WTM,Armstrong,3155,35.03,-101.19
1742,GOOD,43,TX,WTM,Western_Hardeman,1644,34.34,-99.94
1743,HART,19,TX,WTM,Castro,3694,34.42,-102.11
1744,HERE,42,TX,WTM,Deaf_Smith,3863,34.83,-102.42
1745,JAYT,39,TX,WTM,Jayton_(Kent_Co._Airport),2010,33.23,-100.57
1746,JUNC,65,TX,WTM,Kimble,1720,30.47,-99.78
1747,LAMS,18,TX,WTM,Dawson,2956,32.71,-101.94
1748,LBBW2,33,TX,WTM,Lubbock,3232,33.6,-101.9
1749,LEVE,6,TX,WTM,Hockley,3496,33.53,-102.36
1750,LOMA,77,TX,WTM,Howard,2509,32.1,-101.63
1751,MALL,29,TX,WTM,Southeast_Cochran,3625,33.39,-102.61
1752,MEMP,38,TX,WTM,Hall,2057,34.73,-100.53
1753,MENA,83,TX,WTM,Menard,1924,30.93,-99.81
1754,MERT,71,TX,WTM,Irion,2174,31.3,-100.81
1755,MORT,12,TX,WTM,Cochran,3754,33.73,-102.74
1756,MULE,11,TX,WTM,Bailey,3806,34.21,-102.74
1757,NEWH,100,TX,WTM,Lynn,3245,33.33,-101.91
1758,NORT,52,TX,WTM,Motley,2088,34.27,-100.6
1759,ODON2,14,TX,WTM,Lynn,3054,32.98,-101.83
1760,OLTO,130,TX,WTM,Lamb,3566,34.09,-102.12
1761,PADU,36,TX,WTM,Cottle,2021,33.89,-100.4
1762,PAMP,40,TX,WTM,Gray,3216,35.54,-100.93
1763,PANH,94,TX,WTM,Carson,3457,35.33,-101.39
1764,PITC,34,TX,WTM,King,1998,33.57,-100.48
1765,PLAI,17,TX,WTM,Yoakum,3711,33.23,-102.84
1766,RALL,9,TX,WTM,Crosby,3097,33.67,-101.38
1767,REES2,1,TX,WTM,Lubbock,3343,33.61,-102.05
1768,ROAR,7,TX,WTM,Motley,2615,33.94,-100.85
1769,SASU,54,TX,WTM,Tom_Green,1957,31.54,-100.51
1770,SEAG,15,TX,WTM,Gaines,3360,32.94,-102.57
1771,SEMI,25,TX,WTM,Gaines,3313,32.74,-102.64
1772,SEYM,58,TX,WTM,Baylor,1302,33.63,-99.29
1773,SILV,23,TX,WTM,Briscoe,3202,34.45,-101.19
1774,SPUR,32,TX,WTM,Dickens,2287,33.48,-100.88
1775,STAM,102,TX,WTM,Jones,1551,32.91,-99.72
1776,STER,70,TX,WTM,Sterling,2354,31.83,-101.06
1777,STLW,55,TX,WTM,Glasscock,2693,31.66,-101.6
1778,TARZ,84,TX,WTM,Martin,2840,32.31,-102.01
1779,TATU,51,NM,WTM,Lea,4018,33.24,-103.35
1780,TULI,22,TX,WTM,Swisher,3478,34.54,-101.74
1781,UMBA,76,TX,WTM,Randall,3758,34.99,-102.08
1782,VALL,49,TX,WTM,Hall,2450,34.38,-100.93
1783,VIGO,95,TX,WTM,Swisher,3394,34.65,-101.5
1784,WALL2,57,TX,WTM,Tom_Green,1870,31.38,-100.27
1785,WEIN,73,TX,WTM,Haskell,1504,33.34,-99.67
1786,WELC,96,TX,WTM,Dawson,3121,32.93,-102.13
1787,WOLF,47,TX,WTM,Lubbock,3307,33.42,-102.05
1788,Pamlico_Aquaculture_Field_Lab,AURO,NC,ECONET,Beaufort,4,35.362,-76.716
1789,Bald_Head_Island_Conservancy,BALD,NC,ECONET,Brunswick,30,33.846,-77.966
1790,Boone_-_ASU_Stn,BOON,NC,ECONET,Watauga,3254,36.221,-81.63
1791,Buckland_Elementary,BUCK,NC,ECONET,Gates,25,36.47,-76.761
1792,Burnsville_Tower,BURN,NC,ECONET,Yancey,2702,35.919,-82.26
1793,Horticultural_Crops_Res_Stn,CAST,NC,ECONET,New_Hanover,43,34.321,-77.916
1794,DAQ_Clayton_Profiler,CLA2,NC,ECONET,Johnston,250,35.592,-78.459
1795,Central_Crops_Research_Station,CLAY,NC,ECONET,Johnston,350,35.67,-78.493
1796,Horticultural_Crops_Research_Stn,CLIN,NC,ECONET,Sampson,166,35.022,-78.282
1797,North_Durham_Water_Reclamation_Facility,DURH,NC,ECONET,Durham,332,36.029,-78.859
1798,Wayah_Bald_Mountain,WINE,NC,ECONET,Macon,5469,35.173,-83.581
1799,Frying_Pan_Mountain,FRYI,NC,ECONET,Haywood,5320,35.394,-82.774
1800,Cherry_Research_Station,GOLD,NC,ECONET,Wayne,79,35.379,-78.045
1801,NC_A&T_SU_Research_Farm,NCAT,NC,ECONET,Guilford,792,36.067,-79.734
1802,Hamlet_Tower,HAML,NC,ECONET,Richmond,336,34.842,-79.738
1803,Bearwallow_Mountain,BEAR,NC,ECONET,Henderson,4219,35.461,-82.358
1804,UNCG_-_Lindale_Farm_Stn,HIGH,NC,ECONET,Guilford,910,35.99,-79.97
1805,Sandhills_Research_Station,JACK,NC,ECONET,Montgomery,625,35.188,-79.684
1806,Cunningham_Research_Station,KINS,NC,ECONET,Lenoir,95,35.303,-77.573
1807,Upper_Mountain_Research_Stn,LAUR,NC,ECONET,Ashe,3009,36.402,-81.297
1808,Peanut_Belt_Research_Station,LEWS,NC,ECONET,Bertie,61,36.132,-77.176
1809,NC_Electric_Cooperative_Anson_Peaking_Plant,LILE,NC,ECONET,Anson,456,34.97,-79.918
1810,Mtn_Horticultural_Crops_Res_Stn,FLET,NC,ECONET,Henderson,2067,35.427,-82.559
1811,Mount_Mitchell_State_Park,MITC,NC,ECONET,Yancey,6200,35.759,-82.271
1812,North_Stanly_Middle_School,NEWL,NC,ECONET,Stanly,585,35.41,-80.237
1813,Oxford_Tobacco_Research_Stn,OXFO,NC,ECONET,Granville,500,36.303,-78.617
1814,Tidewater_Research_Station,PLYM,NC,ECONET,Washington,20,35.849,-76.651
1815,Lake_Wheeler_Rd_Field_Lab,LAKE,NC,ECONET,Wake,382,35.728,-78.68
1816,Reedy_Creek_Field_Laboratory,REED,NC,ECONET,Wake,420,35.807,-78.744
1817,Upper_Piedmont_Research_Stn,REID,NC,ECONET,Rockingham,858,36.382,-79.7
1818,Upper_Coastal_Plain_Res_Stn,ROCK,NC,ECONET,Edgecombe,88,35.893,-77.68
1819,Piedmont_Research_Station,SALI,NC,ECONET,Rowan,703,35.697,-80.622
1820,Siler_City_Airport,SILR,NC,ECONET,Chatham,614,35.704,-79.504
1821,Spindale_Tower,SPIN,NC,ECONET,Rutherford,1078,35.335,-81.913
1822,Spruce_Pine_Tower,SPRU,NC,ECONET,Mitchell,2746,35.901,-82.059
1823,Taylorsville_Tower,TAYL,NC,ECONET,Alexander,1167,35.914,-81.191
1824,Williamsdale_Field_Lab,WILD,NC,ECONET,Duplin,56,34.766,-78.101
1825,Mountain_Research_Station,WAYN,NC,ECONET,Haywood,2755,35.488,-82.968
1826,Mt._Jefferson_Tower,JEFF,NC,ECONET,Ashe,4608,36.403,-81.463
1827,Border_Belt_Tobacco_Res_Stn,WHIT,NC,ECONET,Columbus,89,34.413,-78.792
1828,Highway_Patrol_Comm_Station,WILL,NC,ECONET,Martin,72,35.839,-77.093
1829,Sassafras_Mountain,SASS,NC,ECONET,Pickens,3525,35.065,-82.777
1830,Columbia,CMBA,KY,KentuckyMesonet,Adair,848,37.14,-85.29
1831,Scottsville,SCTV,KY,KentuckyMesonet,Allen,818,36.74,-86.22
1832,Glasgow,MROK,KY,KentuckyMesonet,Barren,696,37.01,-86.11
1833,Danville,DANV,KY,KentuckyMesonet,Boyle,981,37.62,-84.82
1834,Jackson,QKSD,KY,KentuckyMesonet,Breathitt,688,37.54,-83.34
1835,Morgantown,WDBY,KY,KentuckyMesonet,Butler,421,37.18,-86.65
1836,Princeton,PRNC,KY,KentuckyMesonet,Caldwell,509,37.1,-87.86
1837,Carrollton,CRRL,KY,KentuckyMesonet,Carroll,472,38.69,-85.14
1838,Hopkinsville,PGHL,KY,KentuckyMesonet,Christian,729,36.95,-87.52
1839,Lexington,LXGN,KY,KentuckyMesonet,Fayette,1044,37.97,-84.53
1840,Frankfort,LSML,KY,KentuckyMesonet,Franklin,748,38.12,-84.88
1841,Hickman,HCKM,KY,KentuckyMesonet,Fulton,345,36.57,-89.16
1842,Elizabethtown,CCLA,KY,KentuckyMesonet,Hardin,746,37.68,-85.98
1843,Harlan,BMTN,KY,KentuckyMesonet,Harlan,4031,36.92,-82.91
1844,Hodgenville,HDGV,KY,KentuckyMesonet,LaRue,831,37.57,-85.7
1845,Richmond,ELST,KY,KentuckyMesonet,Madison,860,37.72,-84.15
1846,Benton,DRFN,KY,KentuckyMesonet,Marshall,469,36.92,-88.34
1847,Calhoun,PVRT,KY,KentuckyMesonet,McLean,404,37.59,-87.32
1848,Shelbyville9NNE,CROP,KY,KentuckyMesonet,Shelby,844,38.33,-85.17
1849,Shelbyville10W,FCHV,KY,KentuckyMesonet,Shelby,770,38.16,-85.38
1850,Franklin,SWZR,KY,KentuckyMesonet,Simpson,740,36.67,-86.61
1851,Morganfield,FRNY,KY,KentuckyMesonet,Union,440,37.69,-87.84
1852,Bowling_Green,FARM,KY,KentuckyMesonet,Warren,559,36.93,-86.47
1853,Wood_River_5SE,A250829,NE,AWDN_Nebraska,Adams,1942,40.45,-98.32
1854,Kearney_5E,A253059,NE,AWDN_Nebraska,Adams,2148,40.4,-98.59
1855,Alda_3W,A253409,NE,AWDN_Nebraska,Adams,1663,40.53,-98.31
1856,Shelton_2SW,A257779,NE,AWDN_Nebraska,Adams,2014,40.44,-98.46
1857,Scottsbluff_6NW,A255599,NE,AWDN_Nebraska,Banner,3601,41.57,-103.42
1858,Scottsbluff_2NW,A257679,NE,AWDN_Nebraska,Banner,3962,41.53,-103.41
1859,Elgin_6W,A252599,NE,AWDN_Nebraska,Boone,2030,41.56,-98.12
1860,Angora_13N,A250138,NE,AWDN_Nebraska,Box_Butte,3979,42.02,-103.09
1861,Sparks_5NE,A258039,NE,AWDN_Nebraska,Brown,2532,42.59,-100.12
1862,Duncan_2W,A255649,NE,AWDN_Nebraska,Butler,1548,41.23,-97.31
1863,Fordyce_4N,A251589,NE,AWDN_Nebraska,Cedar,1483,42.45,-97.21
1864,Grant_1E,A253419,NE,AWDN_Nebraska,Chase,3434,40.5,-101.42
1865,Mullen_30N,A255479,NE,AWDN_Nebraska,Cherry,3109,42.27,-100.54
1866,Sidney_2NW,A257839,NE,AWDN_Nebraska,Cheyenne,4320,41.13,-103.01
1867,Dunning_6NW,A253549,NE,AWDN_Nebraska,Custer,2703,41.54,-100.1
1868,Merna_2SW,A255399,NE,AWDN_Nebraska,Custer,2654,41.27,-99.47
1869,West_Point_2W,A259209,NE,AWDN_Nebraska,Dodge,1450,41.51,-96.45
1870,Champion_5SE,A251599,NE,AWDN_Nebraska,Dundy,3375,40.24,-101.43
1871,York_2W,A259519,NE,AWDN_Nebraska,Fillmore,1607,40.52,-97.38
1872,Axtell_5NE,A255569,NE,AWDN_Nebraska,Franklin,2158,40.32,-99.03
1873,Curtis_1N,A252109,NE,AWDN_Nebraska,Frontier,2572,40.37,-100.3
1874,Dickens_9N,A252319,NE,AWDN_Nebraska,Frontier,3152,40.57,-100.59
1875,Gothenburg_2NW,A253369,NE,AWDN_Nebraska,Frontier,2650,40.57,-100.12
1876,Plymouth_4E,A250629,NE,AWDN_Nebraska,Gage,1233,40.18,-96.56
1877,Ragan_5W,A253919,NE,AWDN_Nebraska,Harlan,2319,40.2,-99.22
1878,Holdrege_5N,A253929,NE,AWDN_Nebraska,Harlan,2319,40.3,-99.22
1879,Smithfield_2E,A258109,NE,AWDN_Nebraska,Harlan,2519,40.34,-99.41
1880,Hayes_Center_3N,A253699,NE,AWDN_Nebraska,Hitchcock,3060,40.33,-101.02
1881,Naper_12SW,A253829,NE,AWDN_Nebraska,Holt,2030,42.5,-99.15
1882,Emmet_3E,A256299,NE,AWDN_Nebraska,Holt,2050,42.28,-98.45
1883,Whitman_5NE,A253479,NE,AWDN_Nebraska,Hooker,3441,42.05,-101.27
1884,Ord_2N,A256339,NE,AWDN_Nebraska,Howard,2050,41.37,-98.57
1885,Firth_3N,A252939,NE,AWDN_Nebraska,Johnson,1404,40.34,-96.37
1886,Walton_5NW,A254699,NE,AWDN_Nebraska,Johnson,1138,40.51,-96.36
1887,Lincoln_1700_N_10th,A254758,NE,AWDN_Nebraska,Johnson,1151,40.5,-96.42
1888,Lincoln_5700_S_27th,A254769,NE,AWDN_Nebraska,Johnson,1240,40.45,-96.41
1889,Lincoln_1500_N_45th,A254809,NE,AWDN_Nebraska,Johnson,1171,40.49,-96.39
1890,Kearney_3E,A254339,NE,AWDN_Nebraska,Kearney,1820,40.43,-99.01
1891,Arthur_8S,A250365,NE,AWDN_Nebraska,Keith,3588,41.27,-101.43
1892,Big_Springs_8NE,A251227,NE,AWDN_Nebraska,Keith,3723,41.09,-101.6
1893,Brule_6SW,A251228,NE,AWDN_Nebraska,Keith,3503,41.01,-101.58
1894,Keystone_3W_Beta,A251549,NE,AWDN_Nebraska,Keith,3165,41.12,-101.39
1895,North_Platte_3SW_Beta,A256079,NE,AWDN_Nebraska,Lincoln,2824,41.09,-100.77
1896,Central_City_3W,A251562,NE,AWDN_Nebraska,Merrick,1735,41.06,-98.03
1897,Guide_Rock_3E,A257079,NE,AWDN_Nebraska,Nuckolls,1719,40.05,-98.17
1898,Harvard_4SW,A257899,NE,AWDN_Nebraska,Nuckolls,1811,40.34,-98.08
1899,Cozad_8N,A251949,NE,AWDN_Nebraska,Phelps,2601,40.58,-99.57
1900,Lexington_4S,A254670,NE,AWDN_Nebraska,Phelps,2385,40.43,-99.45
1901,McCook_4NE,A255319,NE,AWDN_Nebraska,Red_Willow,2598,40.14,-100.34
1902,Ainsworth_2NE,A250059,NE,AWDN_Nebraska,Rock,2509,42.34,-99.5
1903,Long_Pine_20S,A250529,NE,AWDN_Nebraska,Rock,2549,42.14,-99.4
1904,Memphis_5N,A255367,NE,AWDN_Nebraska,Sarpy,1151,41.09,-96.25
1905,Ithaca_3E,A255369,NE,AWDN_Nebraska,Sarpy,1200,41.09,-96.29
1906,Alliance_6NW,A250148,NE,AWDN_Nebraska,Sheridan,3979,42.11,-102.55
1907,Gordon_4SE,A253359,NE,AWDN_Nebraska,Sheridan,3638,42.45,-102.11
1908,Harrison_4NW,A253615,NE,AWDN_Nebraska,Sioux,1532,42.44,-103.55
1909,Concord_2E,A256019,NE,AWDN_Nebraska,Thurston,1460,42.24,-96.58
1910,Oakland_4W,A256149,NE,AWDN_Nebraska,Washington,1361,41.5,-96.32
1911,Wausa_2SW,A259301,NE,AWDN_Nebraska,Wayne,1768,42.27,-97.33
1912,Brush Creek,4,CO,iRON,Roaring Fork Valley,7780,39.23,-106.91
1913,Glassier Ranch,3,CO,iRON,Roaring Fork Valley,6460,39.38,-107.09
1914,Glenwood Springs,5,CO,iRON,Roaring Fork Valley,6200,39.54,-107.34
1915,Independence Pass,9,CO,iRON,Roaring Fork Valley,12080,39.11,-106.57
1916,Northstar Aspen Grove,6,CO,iRON,Roaring Fork Valley,8050,39.17,-106.8
1917,Northstar Transition Zone,7,CO,iRON,Roaring Fork Valley,8050,39.17,-106.8
1918,Sky Mtn,1,CO,iRON,Roaring Fork Valley,8380,39.22,-106.91
1919,Smuggler Mtn,2,CO,iRON,Roaring Fork Valley,9030,39.2,-106.8
1920,Spring Valley,8,CO,iRON,Roaring Fork Valley,7100,39.47,-107.22
1921,New Brunswick,New Brunswick,NJ,NJWCN,Middlesex,69,40.472807,-74.422569
1922,Moorestown,Moorestown,NJ,NJWCN,Burlington,69,39.983344,-74.895686
1923,Pittstown,Pittstown,NJ,NJWCN,Hunterdon,594,40.561216,-74.961024
1924,Cream Ridge,Pittstown,NJ,NJWCN,Monmouth,121,40.118553,-74.525634
1925,Charlotteburg,Charlotteburg,NJ,NJWCN,Passaic,768,41.029856,-74.424842
1926,Hammonton,Hammonton,NJ,NJWCN,Atlantic,62,39.635323,-74.758399
1927,Hopewell Twp.,Hopewell Twp.,NJ,NJWCN,Mercer,197,40.35234,-74.775028
1928,Woodbine,Woodbine,NJ,NJWCN,Cape May,33,39.218389,-74.794427
1929,Upper Deerfield,Upper Deerfield,NJ,NJWCN,Cumberland,115,39.524351,-75.200927
1930,Fort Keogh ARS N,arskeogh,MT,MontanaMesonet,Nan,796,46.41,-105.95
1931,Fort Keogh ARS SE,arskeose,MT,MontanaMesonet,Nan,748,46.35,-105.83
1932,Fort Keogh ARS SW,arskeosw,MT,MontanaMesonet,Nan,851,46.3,-105.98
1933,Benton Lake W,bentlake,MT,MontanaMesonet,Nan,1129,47.69,-111.47
1934,Argenta BLM,blm1arge,MT,MontanaMesonet,Nan,1900,45.25,-112.88
1935,Virginia City BLM,blm2virg,MT,MontanaMesonet,Nan,2242,45.27,-111.88
1936,McCartney Mtn BLM,blm3mcca,MT,MontanaMesonet,Nan,1902,45.55,-112.6
1937,Kidd BLM,blm5kidd,MT,MontanaMesonet,Nan,1906,44.81,-112.72
1938,Battle Creek BLM,blmbattl,MT,MontanaMesonet,Nan,992,45.07,-103.78
1939,Belfry E BLM,blmbelfr,MT,MontanaMesonet,Nan,1193,45.18,-108.9
1940,Broadus BLM,blmbroad,MT,MontanaMesonet,Nan,962,45.44,-105.36
1941,Capitol BLM,blmcapit,MT,MontanaMesonet,Nan,1009,45.32,-104.14
1942,Glendive BLM,blmglend,MT,MontanaMesonet,Nan,715,46.92,-104.75
1943,Vandalia N BLM,blmglnor,MT,MontanaMesonet,Nan,792,48.51,-106.91
1944,Harding Cutoff BLM,blmhardi,MT,MontanaMesonet,Nan,988,45.17,-103.73
1945,Cherry Ridge BLM,blmhavre,MT,MontanaMesonet,Nan,923,48.87,-109.05
1946,Zortman E BLM,blmmatad,MT,MontanaMesonet,Nan,943,47.89,-108.32
1947,Plevna BLM,blmplevn,MT,MontanaMesonet,Nan,933,46.44,-104.43
1948,Pumpkin Ck BLM,blmpumpk,MT,MontanaMesonet,Nan,835,46.2,-105.7
1949,Roundup NW BLM,blmround,MT,MontanaMesonet,Nan,1107,46.58,-108.74
1950,Terry BLM,blmterry,MT,MontanaMesonet,Nan,710,46.84,-105.26
1951,Warren E BLM,blmwarre,MT,MontanaMesonet,Nan,1591,45.04,-108.44
1952,Churchill,churchil,MT,MontanaMesonet,Nan,1458,45.73,-111.37
1953,Conrad ARC,conradmt,MT,MontanaMesonet,Nan,1135,48.31,-111.93
1954,Corvallis ARC,corvalli,MT,MontanaMesonet,Nan,1100,46.33,-114.09
1955,Crow Agency E,crowagen,MT,MontanaMesonet,Nan,942,45.59,-107.44
1956,Clearwater SW,ebarllob,MT,MontanaMesonet,Nan,1182,46.96,-113.37
1957,Fort Benton E,ftbentcb,MT,MontanaMesonet,Nan,988,47.79,-110.48
1958,Havre ARC,havrenmt,MT,MontanaMesonet,Nan,829,48.49,-109.8
1959,Huntley ARC,huntleys,MT,MontanaMesonet,Nan,931,45.92,-108.23
1960,Kalispell ARC,kalispel,MT,MontanaMesonet,Nan,903,48.19,-114.14
1961,Lolo W MBMG,lololowr,MT,MontanaMesonet,Nan,998,46.75,-114.13
1962,Loma S,lomawood,MT,MontanaMesonet,Nan,854,47.89,-110.53
1963,Lubrecht Forest,lubrecht,MT,MontanaMesonet,Nan,1242,46.89,-113.44
1964,Butte MBMG MT Tech,mbmgtech,MT,MontanaMesonet,Nan,1775,46.01,-112.56
1965,Chinook E MDA,mdachine,MT,MontanaMesonet,Nan,730,48.58,-109.16
1966,Hogeland SE MDA,mdahogel,MT,MontanaMesonet,Nan,952,48.77,-108.56
1967,Mocassin ARC,moccasin,MT,MontanaMesonet,Nan,1300,47.06,-109.95
1968,Molt W,moltwest,MT,MontanaMesonet,Nan,1268,45.82,-109.09
1969,Hot Springs NE-L,namlower,MT,MontanaMesonet,Nan,1041,47.7,-114.51
1970,Hot Springs NE-U,namupper,MT,MontanaMesonet,Nan,1533,47.72,-114.54
1971,Rapleje N,raplejen,MT,MontanaMesonet,Nan,1271,46.04,-109.24
1972,Reed Point NE,reedpoin,MT,MontanaMesonet,Nan,1294,45.8,-109.43
1973,Ingomar NE,sevnoner,MT,MontanaMesonet,Nan,945,46.66,-107.22
1974,Sidney ARC,sidneymt,MT,MontanaMesonet,Nan,690,47.78,-104.25
1975,Coffee Creek N,turekran,MT,MontanaMesonet,Nan,1136,47.39,-110.13
1976,MacDonald Pass USFS,usfsmacp,MT,MontanaMesonet,Nan,1945,46.56,-112.31
1977,Whitefish N,whitshaw,MT,MontanaMesonet,Nan,918,48.48,-114.44
1978,Roundup NE,wrsround,MT,MontanaMesonet,Nan,1047,46.58,-108.42
1979,Absarokee W,wsrabsaw,MT,MontanaMesonet,Nan,1403,45.56,-109.61
1980,Cooney Reservoir W,wsrboydw,MT,MontanaMesonet,Nan,1439,45.47,-109.26
1981,Broadview E,wsrbroad,MT,MontanaMesonet,Nan,1239,46.13,-108.76
1982,Reed Point S,wsrreeds,MT,MontanaMesonet,Nan,1437,45.61,-109.56
1983,Twin Bridges S MDA,mdatwinb,MT,MontanaMesonet,Nan,692,45.47,-112.36
1984,Power S,mdapower,MT,MontanaMesonet,Nan,1138,47.66,-111.71
1985,Edgar E MDA,mdaedgar,MT,MontanaMesonet,Nan,1067,45.46,-108.86
1986,Choteau NE,mdachote,MT,MontanaMesonet,Nan,1150,47.89,-112.09
1987,Benchland NE,mdabench,MT,MontanaMesonet,Nan,1294,47.09,-109.97
1988,Toston SW MDA,mdatosto,MT,MontanaMesonet,Nan,1066,46.12,-111.53
1989,Oilmont E MDA,mdaoilmo,MT,MontanaMesonet,Nan,1092,48.78,-111.6
1990,Melville SE,wsrmelvi,MT,MontanaMesonet,Nan,1436,46.0,-109.84
1991,Big Timber SE,wsrbigtm,MT,MontanaMesonet,Nan,1348,45.74,-109.83
1992,Roy BLM,blmroyno,MT,MontanaMesonet,Nan,941,47.49,-108.95
1993,Ledger N MDA,mdaledge,MT,MontanaMesonet,Nan,1045,48.34,-111.82
1994,Miles City S MDA,mdamiles,MT,MontanaMesonet,Nan,755,46.22,-105.76
1995,Hardin N MDA,mdahardi,MT,MontanaMesonet,Nan,868,45.87,-107.6
1996,Cascade E MDA,mdacasca,MT,MontanaMesonet,Nan,1038,47.28,-111.62
1997,Charlo Heights MDA,dmacharl,MT,MontanaMesonet,Nan,1126,46.16,-114.17
1998,Gildford N MDA,mdagildf,MT,MontanaMesonet,Nan,855,48.7,-110.28
1999,Malta W MDA,mdamalta,MT,MontanaMesonet,Nan,692,48.35,-108.0
2000,Dillon NE MDA,mdadillo,MT,MontanaMesonet,Nan,1541,45.25,-112.59
2001,Manhattan S MDA,mdamanha,MT,MontanaMesonet,Nan,1331,45.79,-111.32
2002,Glasgow MDA W,mdaglasw,MT,MontanaMesonet,Nan,644,48.23,-106.72
2003,Scobey N MDA,mdascoby,MT,MontanaMesonet,Nan,734,48.88,-105.44
2004,Blanco Weather Station,BCBWS,TX,TexMesonet,Blanco,1334,30.08906,-98.41806
2005,Altwein Rd,BCALT,TX,TexMesonet,Blanco,1732,30.14,-98.54
2006,Headwaters Ranch,KEHEA,TX,TexMesonet,Kendall,1960,30.09989,-98.70677
2007,Holt Oaks Ranch,BCHOR,TX,TexMesonet,Blanco,1418,30.01867,-98.4567
2008,Arnosky Farms,BCARN,TX,TexMesonet,Blanco,1328,30.11059,-98.30463
2009,Love Creek Preserve,BNLCP,TX,TexMesonet,Bandera,2269,29.801903,-99.417736
2010,HEBFF Camps,REHEB,TX,TexMesonet,Real,2248,29.858118,-99.680339
2011,Epperson Farm,VVEPP,TX,TexMesonet,Val Verde,1802,30.231677,-100.96749
2012,Wied Ranch,CDWIE,TX,TexMesonet,Colorado,210,29.4377,-96.442663
2013,Wegenhoft,CDWEG,TX,TexMesonet,Colorado,301,29.658,-96.66039
2014,Bernardo Fire Station,CDBFS,TX,TexMesonet,Colorado,241,29.762757,-96.39165
2015,Spring Hill Water Supply,GUSHO,TX,TexMesonet,Guadalupe,483,29.53925,-97.957278
2016,Grones Ranch,GUGRO,TX,TexMesonet,Guadalupe,491,29.512056,-97.850476
2017,Garner State Park,UVGSP,TX,TexMesonet,Uvalde,1433,29.60214,-99.73007
2018,Jones Ranch,GUJON,TX,TexMesonet,Guadalupe,404,29.534138,-97.729211
2019,Strey Ranch,GUSTR,TX,TexMesonet,Guadalupe,600,29.475113,-98.089391
2020,Duke Ranch,GODUK,TX,TexMesonet,Goliad,101,28.495129,-97.265053
2021,BQ5 Ranch,GOBQ5,TX,TexMesonet,Goliad,322,28.618075,-97.667508
2022,RB Farms Inc,SPRBF,TX,TexMesonet,San Patricio,92,28.11268,-97.58853
2023,Baker Ranch,GUBAK,TX,TexMesonet,Guadalupe,600,29.65083,-97.83356
2024,Spring Hill Water Supply Plant,GUSHP,TX,TexMesonet,Guadalupe,514,29.547216,-97.998802
2025,Diamond Half Ranch,GUDHR,TX,TexMesonet,Guadalupe,552,29.413888,-97.887376
2026,Escalera Ranch Headquarters,PCERH,TX,TexMesonet,Pecos,3646,30.627974,-102.953247
2027,Escalera Flat Farm,PCEFF,TX,TexMesonet,Pecos,3432,30.649569,-103.27449
2028,Edwards Stations,PCEDW,TX,TexMesonet,Pecos,2941,30.93586,-102.991516
2029,Rancho Los Comitas,SRRLC,TX,TexMesonet,Starr,423,26.7668,-98.619087
2030,Los Machos Farm,JWLMR,TX,TexMesonet,Jim Wells,130,27.470024,-98.135803
2031,Sutton County Central,SUSCC,TX,TexMesonet,Sutton,2289,30.468273,-100.491531
2032,Sutton County West,SUSCW,TX,TexMesonet,Sutton,2277,30.470959,-100.958199
2033,Upper Trinity Groundwater Conservation District,PRUTG,TX,TexMesonet,Parker,986,32.970623,-97.716141
2034,Filter Plant Nocona,MUFPN,TX,TexMesonet,Montague,976,33.795177,-97.724739
2035,Prairie Hill Nocona,MUPHN,TX,TexMesonet,Montague,1031,33.798332,-97.590919
2036,City of Troy,BLCOT,TX,TexMesonet,Bell,646,31.217001,-97.295471
2037,City of Rogers,BLCOR,TX,TexMesonet,Bell,524,30.921471,-97.225601
2038,Doc Curb Pump Station,BLDOC,TX,TexMesonet,Bell,645,30.99178,-97.54467
2039,River Ridge Ranch,BLRRR,TX,TexMesonet,Bell,799,30.96511,-97.78796
2040,Pecan Grove Farms,BPPGF,TX,TexMesonet,Bastrop,389,30.18795,-97.50312
2041,Berkley Ranch,MUBER,TX,TexMesonet,Montague,1005,33.46051,-97.57865
2042,Winton Milliff Runnells,RUWMR,TX,TexMesonet,Runnells,1752,31.82501,-99.95656
2043,Paul Williams Runnells,RUPWR,TX,TexMesonet,Runnells,1859,31.841605,-100.13615
2044,Roy Blair Coke,CKRBC,TX,TexMesonet,Coke,1786,31.873293,-100.50182
2045,LeDrew Arrott Coke,CKLAC,TX,TexMesonet,Coke,2119,31.791329,-100.320636
2046,Horizon MUD,EPHOR,TX,TexMesonet,El Paso,3985,31.681601,-106.194031
2047,Kerr WMA,KRWMA,TX,TexMesonet,Kerr,2153,30.092852,-99.50425
2048,Paul Tybor Gillespie,GLPTG,TX,TexMesonet,Gillespie,1843,30.32551,-98.96768
2049,Devils River Del Norte,VVDRN,TX,TexMesonet,Val Verde,1911,29.933233,-100.941399
2050,Pecos County Line,RVPCL,TX,TexMesonet,Reeves,2761,31.154404,-103.28112
2051,Lobo Farms Culberson,CULFC,TX,TexMesonet,Culberson,3880,30.871683,-104.780746
2052,Royal Farms Culberson,CURFC,TX,TexMesonet,Culberson,3697,31.177925,-104.736183
2053,Sloan Ranch San Saba,SSSLO,TX,TexMesonet,San Saba,1713,31.078791,-98.857132
2054,Big Dog Ranch,LMBDR,TX,TexMesonet,Lampasas,1433,31.241687,-98.313938
2055,Parks Ranch Goliad,GDPRG,TX,TexMesonet,Goliad,122,28.68297,-97.262756
2056,LaRosa Ranch Refugio,RFLRR,TX,TexMesonet,Refugio,13,28.286205,-97.303444
2057,Corsicana Pump Station,NVCPS,TX,TexMesonet,Navarro,430,31.957319,-96.687202
2058,City of Alvarado,JNCOA,TX,TexMesonet,Johnson,710,32.398914,-97.208794
2059,Mason Wildlife Management Area,MSMWM,TX,TexMesonet,Mason,2050,30.852058,-99.240013
2060,Don Daniel Mason,MSDDM,TX,TexMesonet,Mason,1462,30.638138,-99.08358
2061,Blum ISD Farm,HIBIF,TX,TexMesonet,Hill,599,32.088886,-97.353294
2062,Aquilla Water Supply District,HIAQU,TX,TexMesonet,Hill,532,31.920912,-97.179176
2063,Jim Embree Williamson,WMJEW,TX,TexMesonet,Williamson,642,30.527334,-97.598389
2064,RBar Menard,MNRBA,TX,TexMesonet,Menard,1949,31.057472,-99.69162
2065,TxDOT Southbound Rest Area Salado,BLTRA,TX,TexMesonet,Bell,712,30.910655,-97.555029
2066,Lake Murvaul Panola,PNLAK,TX,TexMesonet,Panola,198,32.027462,-94.414085
2067,City of Carthage,PNCOC,TX,TexMesonet,Panola,202,32.131912,-94.347412
2068,Baker Suave Lomas,VVBSL,TX,TexMesonet,Val Verde,1421,29.81735,-101.6141
2069,Lake Striker Rusk,RULSR,TX,TexMesonet,Rusk,328,31.933666,-94.974983
2070,Texas AgriScience,HGTAL,TX,TexMesonet,Hidalgo,52,26.35177,-97.89729
2071,Sutton County East,SUSCE,TX,TexMesonet,Sutton,2040,30.467516,-100.180167
2072,Phyllis Thomas Bandera,BNPTB,TX,TexMesonet,Bandera,1525,29.674898,-99.365982
2073,TxSON 1,TXS01,TX,TxSON,,1772,30.42047,-98.80332
2074,TxSON 2,TXS02,TX,TxSON,,1488,30.24536,-98.70588
2075,TxSON 3,TXS03,TX,TxSON,,1613,30.27577,-98.7242
2076,TxSON 4,TXS04,TX,TxSON,,1932,30.46002,-98.94069
2077,TxSON 5,TXS05,TX,TxSON,,1661,30.39891,-98.61048
2078,TxSON 6,TXS06,TX,TxSON,,1750,30.44213,-98.8427
2079,TxSON 7,TXS07,TX,TxSON,,1714,30.43759,-98.80586
2080,TxSON 8,TXS08,TX,TxSON,,1708,30.2897,-98.74616
2081,TxSON 9,TXS09,TX,TxSON,,1737,30.42833,-98.80651
2082,TxSON 10,TXS10,TX,TxSON,,1679,30.42979,-98.77922
2083,TxSON 11,TXS11,TX,TxSON,,1526,30.23809,-98.77011
2084,TxSON 12,TXS12,TX,TxSON,,1477,30.23834,-98.70368
2085,TxSON 13,TXS13,TX,TxSON,,1486,30.23182,-98.70841
2086,TxSON 14,TXS14,TX,TxSON,,1756,30.28337,-98.68636
2087,TxSON 15,TXS15,TX,TxSON,,1733,30.43193,-98.81333
2088,TxSON 16,TXS16,TX,TxSON,,1666,30.30719,-98.77026
2089,TxSON 17,TXS17,TX,TxSON,,1529,30.23168,-98.76848
2090,TxSON 18,TXS18,TX,TxSON,,1577,30.21084,-98.83306
2091,TxSON 19,TXS19,TX,TxSON,,1823,30.43274,-98.85827
2092,TxSON 20,TXS20,TX,TxSON,,1722,30.41515,-98.80251
2093,TxSON 21,TXS21,TX,TxSON,,1506,30.25007,-98.70691
2094,TxSON 22,TXS22,TX,TxSON,,1637,30.28359,-98.74169
2095,TxSON 23,TXS23,TX,TxSON,,1642,30.27537,-98.72683
2096,TxSON 24,TXS24,TX,TxSON,,1507,30.24556,-98.69876
2097,TxSON 25,TXS25,TX,TxSON,,1971,30.41753,-98.85422
2098,TxSON 26,TXS26,TX,TxSON,,1754,30.42181,-98.78387
2099,TxSON 27,TXS27,TX,TxSON,,1810,30.43154,-98.86041
2100,TxSON 28,TXS28,TX,TxSON,,1634,30.20217,-98.65427
2101,TxSON 29,TXS29,TX,TxSON,,1527,30.2534,-98.69903
2102,TxSON 30,TXS30,TX,TxSON,,1522,30.24921,-98.6995
2103,TxSON 31,TXS31,TX,TxSON,,1795,30.41932,-98.80461
2104,TxSON 32,TXS32,TX,TxSON,,1966,30.46132,-98.84506
2105,TxSON 33,TXS33,TX,TxSON,,1945,30.4487,-98.84798
